{"type":"FeatureCollection","generator":"tools/slope_colors.py","format_version":1,"source_gpx":"2026-07-24_3137247160_TMP - Traversée du Grand Deves.gpx","source_sha256":"eaef82fcc61fe923b4b4eb0752693c515800a2092e9f3ff75538f8e1559147b1","params_fingerprint":"4bb834e818a4f3f7","params":{"segment_length_m":100.0,"smoothing_window_m":150.0,"resample_step_m":10.0,"max_merged_length_m":1000.0,"classes":[{"key":"descente-forte","label":"Descente forte (< −6 %)","min":null,"max":-6.0,"color":"#1d4ed8"},{"key":"descente","label":"Descente (−6 à −2 %)","min":-6.0,"max":-2.0,"color":"#60a5fa"},{"key":"plat","label":"Plat (−2 à 2 %)","min":-2.0,"max":2.0,"color":"#94a3b8"},{"key":"montee-faible","label":"Montée faible (2 à 4 %)","min":2.0,"max":4.0,"color":"#22c55e"},{"key":"montee-moderee","label":"Montée modérée (4 à 7 %)","min":4.0,"max":7.0,"color":"#eab308"},{"key":"montee-soutenue","label":"Montée soutenue (7 à 10 %)","min":7.0,"max":10.0,"color":"#f97316"},{"key":"montee-forte","label":"Montée forte (≥ 10 %)","min":10.0,"max":null,"color":"#dc2626"}]},"legend":[{"key":"descente-forte","label":"Descente forte (< −6 %)","min":null,"max":-6.0,"color":"#1d4ed8"},{"key":"descente","label":"Descente (−6 à −2 %)","min":-6.0,"max":-2.0,"color":"#60a5fa"},{"key":"plat","label":"Plat (−2 à 2 %)","min":-2.0,"max":2.0,"color":"#94a3b8"},{"key":"montee-faible","label":"Montée faible (2 à 4 %)","min":2.0,"max":4.0,"color":"#22c55e"},{"key":"montee-moderee","label":"Montée modérée (4 à 7 %)","min":4.0,"max":7.0,"color":"#eab308"},{"key":"montee-soutenue","label":"Montée soutenue (7 à 10 %)","min":7.0,"max":10.0,"color":"#f97316"},{"key":"montee-forte","label":"Montée forte (≥ 10 %)","min":10.0,"max":null,"color":"#dc2626"}],"stats":{"distance_km":42.64,"elevation_valid_ratio":1.0,"elevation_ok":true,"smoothed_gain_m":534,"max_slope_pct":10.2,"min_slope_pct":-9.8},"features":[{"type":"Feature","geometry":{"type":"LineString","coordinates":[[3.88086,43.65528],[3.88092,43.6553],[3.88095,43.65525],[3.88098,43.65526],[3.88102,43.65523],[3.88112,43.6551],[3.88133,43.65477],[3.88149,43.65439],[3.88155,43.6542],[3.88167,43.65426],[3.88176,43.65411],[3.88191,43.65364],[3.88211,43.65331],[3.88219,43.65327],[3.88222,43.65319],[3.88226,43.6531],[3.88246,43.65317],[3.88268,43.65324],[3.88306,43.65341],[3.88339,43.6535],[3.88364,43.65354],[3.88365,43.6535],[3.88382,43.65349],[3.88548,43.65359],[3.88561,43.65357],[3.88574,43.65354],[3.88587,43.65342],[3.88593,43.65342],[3.886,43.65343],[3.88602,43.65343],[3.88615,43.65357],[3.88654,43.65366]]},"properties":{"slope_pct":-0.3,"start_km":0.0,"end_km":0.669,"ele_start":52.0,"ele_end":50.3,"class":"plat","label":"Plat (−2 à 2 %)","color":"#94a3b8"}},{"type":"Feature","geometry":{"type":"LineString","coordinates":[[3.88654,43.65366],[3.88724,43.65368],[3.88762,43.65364],[3.88768,43.65366],[3.88782,43.65364]]},"properties":{"slope_pct":2.6,"start_km":0.669,"end_km":0.773,"ele_start":50.3,"ele_end":52.9,"class":"montee-faible","label":"Montée faible (2 à 4 %)","color":"#22c55e"}},{"type":"Feature","geometry":{"type":"LineString","coordinates":[[3.88782,43.65364],[3.88859,43.65339],[3.88864,43.65337],[3.88879,43.65333],[3.88886,43.65333],[3.88895,43.65336],[3.88902,43.65336],[3.88906,43.65339],[3.88935,43.6535],[3.88954,43.65363],[3.89014,43.65391]]},"properties":{"slope_pct":-3.0,"start_km":0.773,"end_km":0.987,"ele_start":52.9,"ele_end":46.5,"class":"descente","label":"Descente (−6 à −2 %)","color":"#60a5fa"}},{"type":"Feature","geometry":{"type":"LineString","coordinates":[[3.89014,43.65391],[3.89048,43.65406],[3.89052,43.65408],[3.89176,43.65462],[3.89179,43.65463],[3.89188,43.65456],[3.8919,43.65455],[3.89196,43.65451],[3.8922,43.65441],[3.89454,43.65263]]},"properties":{"slope_pct":0.2,"start_km":0.987,"end_km":1.457,"ele_start":46.5,"ele_end":47.2,"class":"plat","label":"Plat (−2 à 2 %)","color":"#94a3b8"}},{"type":"Feature","geometry":{"type":"LineString","coordinates":[[3.89454,43.65263],[3.89479,43.65252],[3.89528,43.65215],[3.8954,43.65206],[3.89556,43.65194]]},"properties":{"slope_pct":3.3,"start_km":1.457,"end_km":1.57,"ele_start":47.2,"ele_end":51.0,"class":"montee-faible","label":"Montée faible (2 à 4 %)","color":"#22c55e"}},{"type":"Feature","geometry":{"type":"LineString","coordinates":[[3.89556,43.65194],[3.89618,43.65146],[3.89639,43.65137],[3.89651,43.65136],[3.89673,43.65139],[3.89688,43.65145],[3.89728,43.65171],[3.89741,43.65174],[3.89757,43.65174],[3.89769,43.65174]]},"properties":{"slope_pct":4.7,"start_km":1.57,"end_km":1.781,"ele_start":51.0,"ele_end":60.8,"class":"montee-moderee","label":"Montée modérée (4 à 7 %)","color":"#eab308"}},{"type":"Feature","geometry":{"type":"LineString","coordinates":[[3.89769,43.65174],[3.8977,43.6519],[3.89773,43.6519],[3.89774,43.65181],[3.89789,43.65179],[3.89822,43.65247]]},"properties":{"slope_pct":1.9,"start_km":1.781,"end_km":1.904,"ele_start":60.8,"ele_end":63.1,"class":"plat","label":"Plat (−2 à 2 %)","color":"#94a3b8"}},{"type":"Feature","geometry":{"type":"LineString","coordinates":[[3.89822,43.65247],[3.8983,43.65278],[3.89825,43.65302],[3.89808,43.65329],[3.89799,43.6535],[3.89802,43.65384],[3.89883,43.65535]]},"properties":{"slope_pct":-2.7,"start_km":1.904,"end_km":2.241,"ele_start":63.1,"ele_end":54.0,"class":"descente","label":"Descente (−6 à −2 %)","color":"#60a5fa"}},{"type":"Feature","geometry":{"type":"LineString","coordinates":[[3.89883,43.65535],[3.8989,43.65548],[3.89908,43.65596],[3.89912,43.65608],[3.89937,43.65621],[3.89938,43.65629],[3.89924,43.65639],[3.89923,43.65643],[3.89958,43.65709]]},"properties":{"slope_pct":0.3,"start_km":2.241,"end_km":2.459,"ele_start":54.0,"ele_end":54.7,"class":"plat","label":"Plat (−2 à 2 %)","color":"#94a3b8"}},{"type":"Feature","geometry":{"type":"LineString","coordinates":[[3.89958,43.65709],[3.90012,43.65824],[3.90038,43.65857],[3.90074,43.65895],[3.90091,43.65906]]},"properties":{"slope_pct":2.8,"start_km":2.459,"end_km":2.706,"ele_start":54.7,"ele_end":61.6,"class":"montee-faible","label":"Montée faible (2 à 4 %)","color":"#22c55e"}},{"type":"Feature","geometry":{"type":"LineString","coordinates":[[3.90091,43.65906],[3.90123,43.65902],[3.9015,43.65905],[3.90173,43.65916],[3.90191,43.65935],[3.90198,43.65948],[3.90198,43.6596],[3.90193,43.65971],[3.90165,43.66003],[3.90164,43.66008],[3.90184,43.66064],[3.90224,43.6613],[3.90254,43.6622],[3.90262,43.66228],[3.90294,43.66234],[3.90307,43.66244],[3.90309,43.66253],[3.90309,43.66261],[3.90306,43.66271],[3.90296,43.66278],[3.90289,43.66282]]},"properties":{"slope_pct":-0.2,"start_km":2.706,"end_km":3.24,"ele_start":61.6,"ele_end":60.6,"class":"plat","label":"Plat (−2 à 2 %)","color":"#94a3b8"}},{"type":"Feature","geometry":{"type":"LineString","coordinates":[[3.90289,43.66282],[3.90285,43.66287],[3.90283,43.66302],[3.90325,43.66398],[3.90336,43.66422],[3.90341,43.66442],[3.90342,43.66489]]},"properties":{"slope_pct":2.3,"start_km":3.24,"end_km":3.478,"ele_start":60.6,"ele_end":66.1,"class":"montee-faible","label":"Montée faible (2 à 4 %)","color":"#22c55e"}},{"type":"Feature","geometry":{"type":"LineString","coordinates":[[3.90342,43.66489],[3.90348,43.66515],[3.90368,43.6654],[3.90394,43.66553],[3.90416,43.6656]]},"properties":{"slope_pct":-1.1,"start_km":3.478,"end_km":3.584,"ele_start":66.1,"ele_end":65.0,"class":"plat","label":"Plat (−2 à 2 %)","color":"#94a3b8"}},{"type":"Feature","geometry":{"type":"LineString","coordinates":[[3.90416,43.6656],[3.90444,43.66564],[3.90601,43.66566],[3.90634,43.66568],[3.90668,43.66574],[3.90711,43.66591],[3.90758,43.66623]]},"properties":{"slope_pct":-3.4,"start_km":3.584,"end_km":3.879,"ele_start":65.0,"ele_end":54.9,"class":"descente","label":"Descente (−6 à −2 %)","color":"#60a5fa"}},{"type":"Feature","geometry":{"type":"LineString","coordinates":[[3.90758,43.66623],[3.90894,43.66726],[3.90908,43.6673],[3.90943,43.6673],[3.9095,43.66734],[3.90956,43.66739],[3.90959,43.66743],[3.90958,43.66759],[3.90962,43.6677],[3.91059,43.66837],[3.91084,43.66857],[3.91197,43.66983],[3.91262,43.67061],[3.91287,43.67103],[3.91299,43.67119],[3.91313,43.67125],[3.91332,43.67129],[3.91336,43.67139],[3.91344,43.67145],[3.91344,43.67149],[3.91344,43.67157],[3.91344,43.67163],[3.91334,43.67178],[3.91333,43.67188],[3.91357,43.67227]]},"properties":{"slope_pct":0.3,"start_km":3.879,"end_km":4.752,"ele_start":54.9,"ele_end":57.2,"class":"plat","label":"Plat (−2 à 2 %)","color":"#94a3b8"}},{"type":"Feature","geometry":{"type":"LineString","coordinates":[[3.91357,43.67227],[3.91401,43.67277],[3.91605,43.67474],[3.9161,43.67475],[3.91615,43.67477],[3.91686,43.67546],[3.91744,43.67601],[3.91944,43.67795],[3.91976,43.67828],[3.92043,43.67921]]},"properties":{"slope_pct":0.2,"start_km":4.752,"end_km":5.704,"ele_start":57.2,"ele_end":59.2,"class":"plat","label":"Plat (−2 à 2 %)","color":"#94a3b8"}},{"type":"Feature","geometry":{"type":"LineString","coordinates":[[3.92043,43.67921],[3.92113,43.68026],[3.92169,43.68109],[3.92192,43.68144],[3.92196,43.68148],[3.9219,43.6815],[3.92211,43.68177],[3.92222,43.68177],[3.92228,43.68184]]},"properties":{"slope_pct":-0.1,"start_km":5.704,"end_km":6.042,"ele_start":59.2,"ele_end":58.9,"class":"plat","label":"Plat (−2 à 2 %)","color":"#94a3b8"}},{"type":"Feature","geometry":{"type":"LineString","coordinates":[[3.92228,43.68184],[3.92226,43.68189],[3.92221,43.68192],[3.92269,43.68264]]},"properties":{"slope_pct":3.0,"start_km":6.042,"end_km":6.142,"ele_start":58.9,"ele_end":61.9,"class":"montee-faible","label":"Montée faible (2 à 4 %)","color":"#22c55e"}},{"type":"Feature","geometry":{"type":"LineString","coordinates":[[3.92269,43.68264],[3.92274,43.68272],[3.92323,43.68345],[3.92331,43.68354],[3.92355,43.68382],[3.92373,43.684],[3.92412,43.68425]]},"properties":{"slope_pct":5.4,"start_km":6.142,"end_km":6.357,"ele_start":61.9,"ele_end":73.4,"class":"montee-moderee","label":"Montée modérée (4 à 7 %)","color":"#eab308"}},{"type":"Feature","geometry":{"type":"LineString","coordinates":[[3.92412,43.68425],[3.92442,43.68448],[3.92474,43.68514],[3.92494,43.68556],[3.92515,43.68595],[3.92537,43.68618],[3.92558,43.68632],[3.92654,43.68686],[3.92669,43.68698],[3.92686,43.68721],[3.92715,43.68769],[3.92753,43.68833],[3.92755,43.68839],[3.92772,43.68836],[3.92816,43.68839],[3.92827,43.68842],[3.9289,43.68861],[3.92946,43.68881]]},"properties":{"slope_pct":0.0,"start_km":6.357,"end_km":7.071,"ele_start":73.4,"ele_end":73.7,"class":"plat","label":"Plat (−2 à 2 %)","color":"#94a3b8"}},{"type":"Feature","geometry":{"type":"LineString","coordinates":[[3.92946,43.68881],[3.92979,43.68906],[3.92981,43.6891],[3.9298,43.68915],[3.92996,43.68923],[3.93033,43.68954]]},"properties":{"slope_pct":2.3,"start_km":7.071,"end_km":7.182,"ele_start":73.7,"ele_end":76.3,"class":"montee-faible","label":"Montée faible (2 à 4 %)","color":"#22c55e"}},{"type":"Feature","geometry":{"type":"LineString","coordinates":[[3.93033,43.68954],[3.93043,43.68974],[3.93061,43.68971],[3.93109,43.6897],[3.93121,43.68967],[3.93137,43.68955],[3.93145,43.68953],[3.93154,43.68955],[3.93179,43.68971],[3.93215,43.69011],[3.9323,43.69018]]},"properties":{"slope_pct":1.4,"start_km":7.182,"end_km":7.396,"ele_start":76.3,"ele_end":79.3,"class":"plat","label":"Plat (−2 à 2 %)","color":"#94a3b8"}},{"type":"Feature","geometry":{"type":"LineString","coordinates":[[3.9323,43.69018],[3.93299,43.69044],[3.93308,43.69052],[3.93312,43.69065],[3.93309,43.69076],[3.93279,43.69108],[3.93315,43.69136],[3.93372,43.69181],[3.93405,43.69212],[3.9345,43.69254]]},"properties":{"slope_pct":5.5,"start_km":7.396,"end_km":7.753,"ele_start":79.3,"ele_end":98.8,"class":"montee-moderee","label":"Montée modérée (4 à 7 %)","color":"#eab308"}},{"type":"Feature","geometry":{"type":"LineString","coordinates":[[3.9345,43.69254],[3.93473,43.69261],[3.93548,43.69287],[3.93561,43.69294],[3.93572,43.69292],[3.93748,43.69332],[3.93822,43.69343],[3.93852,43.69345],[3.9392,43.69345],[3.93993,43.69344],[3.94068,43.69342],[3.94084,43.69345],[3.94084,43.69361],[3.94073,43.6938],[3.94054,43.69394],[3.94048,43.69399],[3.94043,43.69403],[3.9404,43.69411],[3.94037,43.69418]]},"properties":{"slope_pct":0.1,"start_km":7.753,"end_km":8.375,"ele_start":98.8,"ele_end":99.3,"class":"plat","label":"Plat (−2 à 2 %)","color":"#94a3b8"}},{"type":"Feature","geometry":{"type":"LineString","coordinates":[[3.94037,43.69418],[3.94054,43.69458],[3.94073,43.69485],[3.94122,43.69535],[3.9426,43.69646],[3.94277,43.69666],[3.94278,43.69701],[3.9426,43.69701],[3.94278,43.69701],[3.94284,43.69701],[3.94328,43.69702]]},"properties":{"slope_pct":-4.2,"start_km":8.375,"end_km":8.822,"ele_start":99.3,"ele_end":80.3,"class":"descente","label":"Descente (−6 à −2 %)","color":"#60a5fa"}},{"type":"Feature","geometry":{"type":"LineString","coordinates":[[3.94328,43.69702],[3.94338,43.69696],[3.94342,43.69679],[3.94329,43.69614]]},"properties":{"slope_pct":1.5,"start_km":8.822,"end_km":8.925,"ele_start":80.3,"ele_end":81.9,"class":"plat","label":"Plat (−2 à 2 %)","color":"#94a3b8"}},{"type":"Feature","geometry":{"type":"LineString","coordinates":[[3.94329,43.69614],[3.94329,43.69577],[3.94332,43.69551],[3.9434,43.69524]]},"properties":{"slope_pct":3.4,"start_km":8.925,"end_km":9.026,"ele_start":81.9,"ele_end":85.3,"class":"montee-faible","label":"Montée faible (2 à 4 %)","color":"#22c55e"}},{"type":"Feature","geometry":{"type":"LineString","coordinates":[[3.9434,43.69524],[3.94339,43.69492],[3.94348,43.69476],[3.94359,43.6947],[3.94376,43.69466],[3.94436,43.69479],[3.94509,43.69489],[3.94591,43.69494],[3.94633,43.69495],[3.94679,43.69498],[3.94715,43.69506],[3.94791,43.69529],[3.94863,43.69547]]},"properties":{"slope_pct":-0.4,"start_km":9.026,"end_km":9.511,"ele_start":85.3,"ele_end":83.4,"class":"plat","label":"Plat (−2 à 2 %)","color":"#94a3b8"}},{"type":"Feature","geometry":{"type":"LineString","coordinates":[[3.94863,43.69547],[3.94952,43.69559],[3.95052,43.69568],[3.95055,43.69568],[3.95142,43.6957],[3.95319,43.69584],[3.95644,43.6959],[3.95689,43.69598],[3.95787,43.69603]]},"properties":{"slope_pct":-2.4,"start_km":9.511,"end_km":10.258,"ele_start":83.4,"ele_end":65.4,"class":"descente","label":"Descente (−6 à −2 %)","color":"#60a5fa"}},{"type":"Feature","geometry":{"type":"LineString","coordinates":[[3.95787,43.69603],[3.95802,43.69606],[3.95828,43.69607],[3.95839,43.69606],[3.95843,43.69601],[3.95851,43.69597],[3.95869,43.69601],[3.95923,43.69586],[3.95955,43.69565],[3.95998,43.69541],[3.95998,43.69532],[3.96023,43.6951],[3.96104,43.69471],[3.96118,43.69472],[3.96123,43.69482],[3.96168,43.69474],[3.96177,43.69473],[3.9626,43.69463],[3.96331,43.6945],[3.96358,43.69441],[3.96408,43.69423],[3.96469,43.69391],[3.96478,43.69391],[3.96492,43.69391],[3.96525,43.69385],[3.96614,43.69383],[3.96656,43.69379]]},"properties":{"slope_pct":-0.2,"start_km":10.258,"end_km":11.05,"ele_start":65.4,"ele_end":63.4,"class":"plat","label":"Plat (−2 à 2 %)","color":"#94a3b8"}},{"type":"Feature","geometry":{"type":"LineString","coordinates":[[3.96656,43.69379],[3.96729,43.69385],[3.96906,43.69446],[3.96975,43.69463],[3.96982,43.69468],[3.96993,43.69478],[3.97097,43.69507]]},"properties":{"slope_pct":1.4,"start_km":11.05,"end_km":11.436,"ele_start":63.4,"ele_end":68.8,"class":"plat","label":"Plat (−2 à 2 %)","color":"#94a3b8"}},{"type":"Feature","geometry":{"type":"LineString","coordinates":[[3.97097,43.69507],[3.97111,43.69513],[3.9711,43.69532],[3.971,43.69536],[3.97097,43.6954],[3.97087,43.69563],[3.97044,43.69583],[3.9702,43.69583],[3.97003,43.69584],[3.96944,43.69599],[3.96901,43.69608],[3.96877,43.69618],[3.96867,43.69626],[3.96837,43.69653],[3.96829,43.69669],[3.9683,43.69677]]},"properties":{"slope_pct":3.1,"start_km":11.436,"end_km":11.773,"ele_start":68.8,"ele_end":79.2,"class":"montee-faible","label":"Montée faible (2 à 4 %)","color":"#22c55e"}},{"type":"Feature","geometry":{"type":"LineString","coordinates":[[3.9683,43.69677],[3.96852,43.69711],[3.96865,43.69724],[3.96899,43.69745],[3.96925,43.69762],[3.96963,43.69808],[3.9696,43.69832],[3.96951,43.6985]]},"properties":{"slope_pct":1.6,"start_km":11.773,"end_km":12.004,"ele_start":79.2,"ele_end":82.8,"class":"plat","label":"Plat (−2 à 2 %)","color":"#94a3b8"}},{"type":"Feature","geometry":{"type":"LineString","coordinates":[[3.96951,43.6985],[3.96901,43.69923],[3.96875,43.69955],[3.96822,43.7002],[3.96759,43.70073],[3.96749,43.70085],[3.96751,43.70119],[3.96763,43.70139],[3.96762,43.70167]]},"properties":{"slope_pct":3.2,"start_km":12.004,"end_km":12.406,"ele_start":82.8,"ele_end":95.8,"class":"montee-faible","label":"Montée faible (2 à 4 %)","color":"#22c55e"}},{"type":"Feature","geometry":{"type":"LineString","coordinates":[[3.96762,43.70167],[3.96784,43.70181],[3.96798,43.70201],[3.96831,43.70226],[3.96843,43.70231],[3.97178,43.70267],[3.97101,43.70315],[3.96912,43.7046],[3.96917,43.70493],[3.96949,43.70578],[3.96938,43.70613],[3.96871,43.70712]]},"properties":{"slope_pct":0.1,"start_km":12.406,"end_km":13.378,"ele_start":95.8,"ele_end":96.5,"class":"plat","label":"Plat (−2 à 2 %)","color":"#94a3b8"}},{"type":"Feature","geometry":{"type":"LineString","coordinates":[[3.96871,43.70712],[3.96869,43.7072],[3.9682,43.70802],[3.96815,43.7083],[3.96802,43.70871],[3.96792,43.70926],[3.96763,43.71048]]},"properties":{"slope_pct":5.3,"start_km":13.378,"end_km":13.764,"ele_start":96.5,"ele_end":117.1,"class":"montee-moderee","label":"Montée modérée (4 à 7 %)","color":"#eab308"}},{"type":"Feature","geometry":{"type":"LineString","coordinates":[[3.96763,43.71048],[3.96768,43.71059],[3.96732,43.71069],[3.96719,43.71062],[3.96699,43.71058],[3.96679,43.7106],[3.96623,43.71076]]},"properties":{"slope_pct":2.6,"start_km":13.764,"end_km":13.902,"ele_start":117.1,"ele_end":120.6,"class":"montee-faible","label":"Montée faible (2 à 4 %)","color":"#22c55e"}},{"type":"Feature","geometry":{"type":"LineString","coordinates":[[3.96623,43.71076],[3.96345,43.71152]]},"properties":{"slope_pct":-1.3,"start_km":13.902,"end_km":14.14,"ele_start":120.6,"ele_end":117.5,"class":"plat","label":"Plat (−2 à 2 %)","color":"#94a3b8"}},{"type":"Feature","geometry":{"type":"LineString","coordinates":[[3.96345,43.71152],[3.96038,43.71231],[3.9601,43.71244],[3.95999,43.71287],[3.95994,43.71296],[3.95988,43.71307],[3.95913,43.71378]]},"properties":{"slope_pct":2.6,"start_km":14.14,"end_km":14.601,"ele_start":117.5,"ele_end":129.3,"class":"montee-faible","label":"Montée faible (2 à 4 %)","color":"#22c55e"}},{"type":"Feature","geometry":{"type":"LineString","coordinates":[[3.95913,43.71378],[3.95838,43.71442],[3.95819,43.71459],[3.9581,43.71468],[3.95798,43.71493],[3.9577,43.71526],[3.95728,43.7155],[3.95713,43.71569],[3.95612,43.71662]]},"properties":{"slope_pct":0.3,"start_km":14.601,"end_km":15.002,"ele_start":129.3,"ele_end":130.4,"class":"plat","label":"Plat (−2 à 2 %)","color":"#94a3b8"}},{"type":"Feature","geometry":{"type":"LineString","coordinates":[[3.95612,43.71662],[3.95584,43.71686],[3.95516,43.71786]]},"properties":{"slope_pct":2.5,"start_km":15.002,"end_km":15.161,"ele_start":130.4,"ele_end":134.4,"class":"montee-faible","label":"Montée faible (2 à 4 %)","color":"#22c55e"}},{"type":"Feature","geometry":{"type":"LineString","coordinates":[[3.95516,43.71786],[3.95515,43.71787],[3.95516,43.71786],[3.95502,43.71784],[3.95399,43.71659],[3.9533,43.71574]]},"properties":{"slope_pct":-3.8,"start_km":15.161,"end_km":15.446,"ele_start":134.4,"ele_end":123.4,"class":"descente","label":"Descente (−6 à −2 %)","color":"#60a5fa"}},{"type":"Feature","geometry":{"type":"LineString","coordinates":[[3.9533,43.71574],[3.95324,43.71563],[3.95319,43.71563],[3.95308,43.71573],[3.95259,43.7164],[3.95246,43.71652],[3.95206,43.71675],[3.95165,43.71695],[3.95103,43.71718],[3.95056,43.71718],[3.95057,43.71725],[3.95065,43.71766],[3.951,43.71948],[3.95264,43.72117],[3.95242,43.72142],[3.95238,43.72148],[3.95231,43.72152],[3.95167,43.72171]]},"properties":{"slope_pct":0.1,"start_km":15.446,"end_km":16.345,"ele_start":123.4,"ele_end":124.1,"class":"plat","label":"Plat (−2 à 2 %)","color":"#94a3b8"}},{"type":"Feature","geometry":{"type":"LineString","coordinates":[[3.95167,43.72171],[3.95154,43.72176],[3.95141,43.72188],[3.95122,43.72193],[3.95095,43.72203],[3.95065,43.72216],[3.95046,43.72223],[3.95041,43.72222],[3.95035,43.72221],[3.94978,43.72207],[3.9495,43.72205],[3.94903,43.72196],[3.94887,43.7219],[3.94862,43.72164],[3.94785,43.72125]]},"properties":{"slope_pct":6.0,"start_km":16.345,"end_km":16.704,"ele_start":124.1,"ele_end":145.5,"class":"montee-moderee","label":"Montée modérée (4 à 7 %)","color":"#eab308"}},{"type":"Feature","geometry":{"type":"LineString","coordinates":[[3.94785,43.72125],[3.94767,43.72122],[3.94705,43.72117],[3.94674,43.72112],[3.94659,43.72107]]},"properties":{"slope_pct":8.6,"start_km":16.704,"end_km":16.808,"ele_start":145.5,"ele_end":154.5,"class":"montee-soutenue","label":"Montée soutenue (7 à 10 %)","color":"#f97316"}},{"type":"Feature","geometry":{"type":"LineString","coordinates":[[3.94659,43.72107],[3.94642,43.7211],[3.94628,43.72126],[3.94626,43.72134],[3.94605,43.72218]]},"properties":{"slope_pct":4.8,"start_km":16.808,"end_km":16.946,"ele_start":154.5,"ele_end":161.1,"class":"montee-moderee","label":"Montée modérée (4 à 7 %)","color":"#eab308"}},{"type":"Feature","geometry":{"type":"LineString","coordinates":[[3.94605,43.72218],[3.94607,43.72307],[3.94606,43.72325]]},"properties":{"slope_pct":3.2,"start_km":16.946,"end_km":17.065,"ele_start":161.1,"ele_end":165.0,"class":"montee-faible","label":"Montée faible (2 à 4 %)","color":"#22c55e"}},{"type":"Feature","geometry":{"type":"LineString","coordinates":[[3.94606,43.72325],[3.94605,43.72402],[3.94584,43.72441],[3.94581,43.72456],[3.94585,43.72482],[3.94604,43.72527],[3.94619,43.72549],[3.94633,43.72595],[3.94638,43.72641],[3.94633,43.72683],[3.94639,43.72711],[3.94653,43.72752]]},"properties":{"slope_pct":1.2,"start_km":17.065,"end_km":17.552,"ele_start":165.0,"ele_end":170.8,"class":"plat","label":"Plat (−2 à 2 %)","color":"#94a3b8"}},{"type":"Feature","geometry":{"type":"LineString","coordinates":[[3.94653,43.72752],[3.94681,43.72802],[3.94702,43.72874],[3.94725,43.72915],[3.94741,43.72939],[3.94753,43.72952],[3.9481,43.73015]]},"properties":{"slope_pct":5.6,"start_km":17.552,"end_km":17.874,"ele_start":170.8,"ele_end":188.9,"class":"montee-moderee","label":"Montée modérée (4 à 7 %)","color":"#eab308"}},{"type":"Feature","geometry":{"type":"LineString","coordinates":[[3.9481,43.73015],[3.94823,43.73028],[3.94832,43.73045],[3.94832,43.73069],[3.94824,43.73101]]},"properties":{"slope_pct":0.5,"start_km":17.874,"end_km":17.975,"ele_start":188.9,"ele_end":189.4,"class":"plat","label":"Plat (−2 à 2 %)","color":"#94a3b8"}},{"type":"Feature","geometry":{"type":"LineString","coordinates":[[3.94824,43.73101],[3.94808,43.73137],[3.9477,43.73199]]},"properties":{"slope_pct":-5.4,"start_km":17.975,"end_km":18.092,"ele_start":189.4,"ele_end":183.0,"class":"descente","label":"Descente (−6 à −2 %)","color":"#60a5fa"}},{"type":"Feature","geometry":{"type":"LineString","coordinates":[[3.9477,43.73199],[3.94761,43.73215],[3.94754,43.73237],[3.94697,43.73318]]},"properties":{"slope_pct":-6.3,"start_km":18.092,"end_km":18.237,"ele_start":183.0,"ele_end":173.9,"class":"descente-forte","label":"Descente forte (< −6 %)","color":"#1d4ed8"}},{"type":"Feature","geometry":{"type":"LineString","coordinates":[[3.94697,43.73318],[3.94691,43.73358],[3.94677,43.73416]]},"properties":{"slope_pct":-4.4,"start_km":18.237,"end_km":18.348,"ele_start":173.9,"ele_end":169.1,"class":"descente","label":"Descente (−6 à −2 %)","color":"#60a5fa"}},{"type":"Feature","geometry":{"type":"LineString","coordinates":[[3.94677,43.73416],[3.94659,43.73444],[3.94667,43.73479],[3.94661,43.73506],[3.94659,43.73514],[3.9468,43.73544],[3.9469,43.73558],[3.9478,43.73635]]},"properties":{"slope_pct":0.9,"start_km":18.348,"end_km":18.628,"ele_start":169.1,"ele_end":171.6,"class":"plat","label":"Plat (−2 à 2 %)","color":"#94a3b8"}},{"type":"Feature","geometry":{"type":"LineString","coordinates":[[3.9478,43.73635],[3.94791,43.73655],[3.94816,43.73734]]},"properties":{"slope_pct":4.0,"start_km":18.628,"end_km":18.742,"ele_start":171.6,"ele_end":176.2,"class":"montee-moderee","label":"Montée modérée (4 à 7 %)","color":"#eab308"}},{"type":"Feature","geometry":{"type":"LineString","coordinates":[[3.94816,43.73734],[3.94833,43.73801],[3.94843,43.73871]]},"properties":{"slope_pct":1.4,"start_km":18.742,"end_km":18.895,"ele_start":176.2,"ele_end":178.4,"class":"plat","label":"Plat (−2 à 2 %)","color":"#94a3b8"}},{"type":"Feature","geometry":{"type":"LineString","coordinates":[[3.94843,43.73871],[3.94834,43.73918],[3.94844,43.73956],[3.94898,43.74036]]},"properties":{"slope_pct":-2.0,"start_km":18.895,"end_km":19.091,"ele_start":178.4,"ele_end":174.5,"class":"descente","label":"Descente (−6 à −2 %)","color":"#60a5fa"}},{"type":"Feature","geometry":{"type":"LineString","coordinates":[[3.94898,43.74036],[3.94906,43.74052],[3.94906,43.74068],[3.94893,43.74092],[3.94841,43.74186]]},"properties":{"slope_pct":2.3,"start_km":19.091,"end_km":19.269,"ele_start":174.5,"ele_end":178.6,"class":"montee-faible","label":"Montée faible (2 à 4 %)","color":"#22c55e"}},{"type":"Feature","geometry":{"type":"LineString","coordinates":[[3.94841,43.74186],[3.9483,43.7425],[3.94759,43.7431]]},"properties":{"slope_pct":4.8,"start_km":19.269,"end_km":19.428,"ele_start":178.6,"ele_end":186.2,"class":"montee-moderee","label":"Montée modérée (4 à 7 %)","color":"#eab308"}},{"type":"Feature","geometry":{"type":"LineString","coordinates":[[3.94759,43.7431],[3.94728,43.74329],[3.9472,43.74351],[3.94724,43.74408]]},"properties":{"slope_pct":-1.1,"start_km":19.428,"end_km":19.55,"ele_start":186.2,"ele_end":184.9,"class":"plat","label":"Plat (−2 à 2 %)","color":"#94a3b8"}},{"type":"Feature","geometry":{"type":"LineString","coordinates":[[3.94724,43.74408],[3.94711,43.74424],[3.94607,43.74459],[3.94485,43.7447],[3.94433,43.74466]]},"properties":{"slope_pct":-9.4,"start_km":19.55,"end_km":19.804,"ele_start":184.9,"ele_end":161.1,"class":"descente-forte","label":"Descente forte (< −6 %)","color":"#1d4ed8"}},{"type":"Feature","geometry":{"type":"LineString","coordinates":[[3.94433,43.74466],[3.9442,43.74464],[3.94357,43.74445],[3.94326,43.74434],[3.94299,43.74433]]},"properties":{"slope_pct":-1.7,"start_km":19.804,"end_km":19.919,"ele_start":161.1,"ele_end":159.2,"class":"plat","label":"Plat (−2 à 2 %)","color":"#94a3b8"}},{"type":"Feature","geometry":{"type":"LineString","coordinates":[[3.94299,43.74433],[3.9429,43.7444],[3.94276,43.74464],[3.9424,43.74466],[3.94216,43.74467],[3.94182,43.74472]]},"properties":{"slope_pct":5.2,"start_km":19.919,"end_km":20.034,"ele_start":159.2,"ele_end":165.2,"class":"montee-moderee","label":"Montée modérée (4 à 7 %)","color":"#eab308"}},{"type":"Feature","geometry":{"type":"LineString","coordinates":[[3.94182,43.74472],[3.94148,43.74483],[3.94114,43.745],[3.94087,43.74526],[3.94071,43.74551]]},"properties":{"slope_pct":7.6,"start_km":20.034,"end_km":20.164,"ele_start":165.2,"ele_end":175.0,"class":"montee-soutenue","label":"Montée soutenue (7 à 10 %)","color":"#f97316"}},{"type":"Feature","geometry":{"type":"LineString","coordinates":[[3.94071,43.74551],[3.9405,43.74594],[3.94027,43.74666]]},"properties":{"slope_pct":6.3,"start_km":20.164,"end_km":20.297,"ele_start":175.0,"ele_end":183.4,"class":"montee-moderee","label":"Montée modérée (4 à 7 %)","color":"#eab308"}},{"type":"Feature","geometry":{"type":"LineString","coordinates":[[3.94027,43.74666],[3.94029,43.74674],[3.94039,43.74674],[3.94088,43.74639],[3.94176,43.74616],[3.94189,43.74622],[3.94191,43.74627],[3.9419,43.74632],[3.94164,43.74663],[3.94142,43.74693],[3.94107,43.74742],[3.94078,43.74801]]},"properties":{"slope_pct":3.7,"start_km":20.297,"end_km":20.676,"ele_start":183.4,"ele_end":197.5,"class":"montee-faible","label":"Montée faible (2 à 4 %)","color":"#22c55e"}},{"type":"Feature","geometry":{"type":"LineString","coordinates":[[3.94078,43.74801],[3.94043,43.74886],[3.94023,43.74939],[3.94021,43.7498],[3.94004,43.75056],[3.93981,43.75162],[3.93912,43.75265],[3.93886,43.75304],[3.93866,43.75349]]},"properties":{"slope_pct":0.5,"start_km":20.676,"end_km":21.314,"ele_start":197.5,"ele_end":200.6,"class":"plat","label":"Plat (−2 à 2 %)","color":"#94a3b8"}},{"type":"Feature","geometry":{"type":"LineString","coordinates":[[3.93866,43.75349],[3.93866,43.75364],[3.93865,43.75383],[3.93878,43.7547]]},"properties":{"slope_pct":2.7,"start_km":21.314,"end_km":21.45,"ele_start":200.6,"ele_end":204.2,"class":"montee-faible","label":"Montée faible (2 à 4 %)","color":"#22c55e"}},{"type":"Feature","geometry":{"type":"LineString","coordinates":[[3.93878,43.7547],[3.93889,43.75546],[3.93876,43.75594],[3.93859,43.7563],[3.93811,43.75712]]},"properties":{"slope_pct":0.9,"start_km":21.45,"end_km":21.73,"ele_start":204.2,"ele_end":206.6,"class":"plat","label":"Plat (−2 à 2 %)","color":"#94a3b8"}},{"type":"Feature","geometry":{"type":"LineString","coordinates":[[3.93811,43.75712],[3.9374,43.75815]]},"properties":{"slope_pct":2.2,"start_km":21.73,"end_km":21.858,"ele_start":206.6,"ele_end":209.5,"class":"montee-faible","label":"Montée faible (2 à 4 %)","color":"#22c55e"}},{"type":"Feature","geometry":{"type":"LineString","coordinates":[[3.9374,43.75815],[3.93709,43.7585],[3.93689,43.75879],[3.93603,43.76024]]},"properties":{"slope_pct":1.9,"start_km":21.858,"end_km":22.116,"ele_start":209.5,"ele_end":214.4,"class":"plat","label":"Plat (−2 à 2 %)","color":"#94a3b8"}},{"type":"Feature","geometry":{"type":"LineString","coordinates":[[3.93603,43.76024],[3.93558,43.76091],[3.93523,43.76187],[3.93499,43.76235],[3.93487,43.76251],[3.93462,43.76271]]},"properties":{"slope_pct":-3.1,"start_km":22.116,"end_km":22.416,"ele_start":214.4,"ele_end":205.2,"class":"descente","label":"Descente (−6 à −2 %)","color":"#60a5fa"}},{"type":"Feature","geometry":{"type":"LineString","coordinates":[[3.93462,43.76271],[3.93443,43.76279],[3.93433,43.76279],[3.93405,43.76297],[3.93378,43.76306],[3.93308,43.76321]]},"properties":{"slope_pct":-1.3,"start_km":22.416,"end_km":22.554,"ele_start":205.2,"ele_end":203.4,"class":"plat","label":"Plat (−2 à 2 %)","color":"#94a3b8"}},{"type":"Feature","geometry":{"type":"LineString","coordinates":[[3.93308,43.76321],[3.93292,43.76321],[3.9328,43.76319],[3.93248,43.76306],[3.93229,43.763],[3.93189,43.76297],[3.9315,43.76297],[3.93002,43.76309]]},"properties":{"slope_pct":-2.7,"start_km":22.554,"end_km":22.806,"ele_start":203.4,"ele_end":196.6,"class":"descente","label":"Descente (−6 à −2 %)","color":"#60a5fa"}},{"type":"Feature","geometry":{"type":"LineString","coordinates":[[3.93002,43.76309],[3.92976,43.76307],[3.92956,43.76303],[3.92927,43.76294],[3.92891,43.76268],[3.92855,43.7624],[3.92842,43.76234],[3.92822,43.76233],[3.92811,43.76228],[3.928,43.76211],[3.9279,43.76165],[3.9279,43.76163],[3.92789,43.76107]]},"properties":{"slope_pct":-0.3,"start_km":22.806,"end_km":23.128,"ele_start":196.6,"ele_end":195.7,"class":"plat","label":"Plat (−2 à 2 %)","color":"#94a3b8"}},{"type":"Feature","geometry":{"type":"LineString","coordinates":[[3.92789,43.76107],[3.92785,43.76092],[3.92776,43.76083],[3.92687,43.76069],[3.92659,43.76057],[3.92627,43.76039],[3.92614,43.76027],[3.92611,43.76015],[3.92625,43.75972]]},"properties":{"slope_pct":-3.7,"start_km":23.128,"end_km":23.369,"ele_start":195.7,"ele_end":186.8,"class":"descente","label":"Descente (−6 à −2 %)","color":"#60a5fa"}},{"type":"Feature","geometry":{"type":"LineString","coordinates":[[3.92625,43.75972],[3.92622,43.75948],[3.92648,43.75955],[3.92676,43.75955],[3.92711,43.75945],[3.92725,43.75936],[3.92729,43.75925],[3.92752,43.75912],[3.92767,43.75893],[3.92795,43.75877]]},"properties":{"slope_pct":-0.8,"start_km":23.369,"end_km":23.577,"ele_start":186.8,"ele_end":185.2,"class":"plat","label":"Plat (−2 à 2 %)","color":"#94a3b8"}},{"type":"Feature","geometry":{"type":"LineString","coordinates":[[3.92795,43.75877],[3.92801,43.75862],[3.92789,43.75811],[3.92783,43.75788]]},"properties":{"slope_pct":-2.2,"start_km":23.577,"end_km":23.678,"ele_start":185.2,"ele_end":183.0,"class":"descente","label":"Descente (−6 à −2 %)","color":"#60a5fa"}},{"type":"Feature","geometry":{"type":"LineString","coordinates":[[3.92783,43.75788],[3.92789,43.75775],[3.92791,43.75772],[3.92792,43.75752],[3.92784,43.75717],[3.92786,43.75666],[3.92784,43.75628],[3.92784,43.75628],[3.92777,43.75528],[3.9277,43.75507],[3.92768,43.75483],[3.92769,43.7547],[3.9277,43.75446],[3.92767,43.75404],[3.92768,43.75314],[3.92756,43.75161]]},"properties":{"slope_pct":0.3,"start_km":23.678,"end_km":24.378,"ele_start":183.0,"ele_end":185.2,"class":"plat","label":"Plat (−2 à 2 %)","color":"#94a3b8"}},{"type":"Feature","geometry":{"type":"LineString","coordinates":[[3.92756,43.75161],[3.92752,43.75137],[3.92746,43.75125],[3.92756,43.75116],[3.92822,43.75079]]},"properties":{"slope_pct":-5.1,"start_km":24.378,"end_km":24.499,"ele_start":185.2,"ele_end":179.0,"class":"descente","label":"Descente (−6 à −2 %)","color":"#60a5fa"}},{"type":"Feature","geometry":{"type":"LineString","coordinates":[[3.92822,43.75079],[3.92862,43.75043],[3.92884,43.75014],[3.92937,43.74968]]},"properties":{"slope_pct":-8.0,"start_km":24.499,"end_km":24.654,"ele_start":179.0,"ele_end":166.6,"class":"descente-forte","label":"Descente forte (< −6 %)","color":"#1d4ed8"}},{"type":"Feature","geometry":{"type":"LineString","coordinates":[[3.92937,43.74968],[3.92944,43.74955],[3.92971,43.74931],[3.92977,43.74925],[3.93046,43.7487],[3.93053,43.74867],[3.93113,43.74841],[3.93133,43.74831],[3.9319,43.74793],[3.93236,43.74753],[3.93261,43.74716],[3.93296,43.7468],[3.93304,43.7466],[3.93318,43.74639],[3.93335,43.74582]]},"properties":{"slope_pct":-4.5,"start_km":24.654,"end_km":25.206,"ele_start":166.6,"ele_end":141.8,"class":"descente","label":"Descente (−6 à −2 %)","color":"#60a5fa"}},{"type":"Feature","geometry":{"type":"LineString","coordinates":[[3.93335,43.74582],[3.93368,43.74532],[3.93398,43.74469],[3.93407,43.7445],[3.93413,43.74412],[3.93413,43.74347]]},"properties":{"slope_pct":-1.6,"start_km":25.206,"end_km":25.479,"ele_start":141.8,"ele_end":137.5,"class":"plat","label":"Plat (−2 à 2 %)","color":"#94a3b8"}},{"type":"Feature","geometry":{"type":"LineString","coordinates":[[3.93413,43.74347],[3.93421,43.74309],[3.93414,43.74301],[3.93403,43.74302],[3.93372,43.74316],[3.9334,43.74331]]},"properties":{"slope_pct":-4.6,"start_km":25.479,"end_km":25.601,"ele_start":137.5,"ele_end":131.8,"class":"descente","label":"Descente (−6 à −2 %)","color":"#60a5fa"}},{"type":"Feature","geometry":{"type":"LineString","coordinates":[[3.9334,43.74331],[3.93271,43.7435],[3.93266,43.74343],[3.93267,43.7433],[3.93262,43.74307],[3.93275,43.74275],[3.93302,43.7423],[3.93324,43.74179],[3.93346,43.74145],[3.93367,43.74124],[3.93364,43.74115],[3.93342,43.74102]]},"properties":{"slope_pct":-0.6,"start_km":25.601,"end_km":25.963,"ele_start":131.8,"ele_end":129.7,"class":"plat","label":"Plat (−2 à 2 %)","color":"#94a3b8"}},{"type":"Feature","geometry":{"type":"LineString","coordinates":[[3.93342,43.74102],[3.9333,43.74098],[3.93321,43.74102],[3.93266,43.74136],[3.93221,43.74159]]},"properties":{"slope_pct":5.9,"start_km":25.963,"end_km":26.085,"ele_start":129.7,"ele_end":136.9,"class":"montee-moderee","label":"Montée modérée (4 à 7 %)","color":"#eab308"}},{"type":"Feature","geometry":{"type":"LineString","coordinates":[[3.93221,43.74159],[3.93141,43.74206],[3.93121,43.74206],[3.9311,43.74198]]},"properties":{"slope_pct":8.4,"start_km":26.085,"end_km":26.196,"ele_start":136.9,"ele_end":146.3,"class":"montee-soutenue","label":"Montée soutenue (7 à 10 %)","color":"#f97316"}},{"type":"Feature","geometry":{"type":"LineString","coordinates":[[3.9311,43.74198],[3.93094,43.74175],[3.93073,43.7417],[3.93042,43.7419],[3.93013,43.74222],[3.93004,43.74243],[3.92945,43.74289],[3.92929,43.74314]]},"properties":{"slope_pct":10.1,"start_km":26.196,"end_km":26.442,"ele_start":146.3,"ele_end":171.3,"class":"montee-forte","label":"Montée forte (≥ 10 %)","color":"#dc2626"}},{"type":"Feature","geometry":{"type":"LineString","coordinates":[[3.92929,43.74314],[3.92909,43.74323],[3.92896,43.74349],[3.92862,43.7437],[3.92848,43.74374],[3.92833,43.74377]]},"properties":{"slope_pct":6.0,"start_km":26.442,"end_km":26.553,"ele_start":171.3,"ele_end":178.0,"class":"montee-moderee","label":"Montée modérée (4 à 7 %)","color":"#eab308"}},{"type":"Feature","geometry":{"type":"LineString","coordinates":[[3.92833,43.74377],[3.92805,43.74368],[3.92789,43.74358],[3.92765,43.7436],[3.92689,43.7438]]},"properties":{"slope_pct":-0.4,"start_km":26.553,"end_km":26.679,"ele_start":178.0,"ele_end":177.4,"class":"plat","label":"Plat (−2 à 2 %)","color":"#94a3b8"}},{"type":"Feature","geometry":{"type":"LineString","coordinates":[[3.92689,43.7438],[3.92654,43.74386],[3.92596,43.74387],[3.92524,43.74397],[3.92483,43.74398],[3.92455,43.74385],[3.92433,43.74381],[3.92383,43.74387],[3.92367,43.74386],[3.92357,43.74374],[3.92361,43.74347],[3.92356,43.74339],[3.92344,43.74337],[3.92306,43.74373],[3.92254,43.74385],[3.92193,43.74405],[3.92142,43.74406],[3.92107,43.7441],[3.9211,43.7442],[3.92122,43.74427],[3.92116,43.74439],[3.92115,43.74443],[3.92088,43.74453],[3.92049,43.74458],[3.91987,43.74467],[3.91963,43.74466],[3.9191,43.74462]]},"properties":{"slope_pct":-4.2,"start_km":26.679,"end_km":27.44,"ele_start":177.4,"ele_end":145.4,"class":"descente","label":"Descente (−6 à −2 %)","color":"#60a5fa"}},{"type":"Feature","geometry":{"type":"LineString","coordinates":[[3.9191,43.74462],[3.91902,43.74462],[3.91859,43.7445],[3.91834,43.74443],[3.91805,43.74428],[3.91776,43.74421]]},"properties":{"slope_pct":-1.6,"start_km":27.44,"end_km":27.558,"ele_start":145.4,"ele_end":143.5,"class":"plat","label":"Plat (−2 à 2 %)","color":"#94a3b8"}},{"type":"Feature","geometry":{"type":"LineString","coordinates":[[3.91776,43.74421],[3.91729,43.74423],[3.91681,43.74438],[3.91557,43.74455],[3.91492,43.74471],[3.91482,43.74473],[3.91212,43.74539]]},"properties":{"slope_pct":-2.7,"start_km":27.558,"end_km":28.031,"ele_start":143.5,"ele_end":130.8,"class":"descente","label":"Descente (−6 à −2 %)","color":"#60a5fa"}},{"type":"Feature","geometry":{"type":"LineString","coordinates":[[3.91212,43.74539],[3.91207,43.74539],[3.91135,43.74545],[3.91088,43.74555],[3.91049,43.74563],[3.90983,43.74577],[3.90797,43.74628],[3.90769,43.74636],[3.90671,43.74669],[3.90653,43.74675],[3.90641,43.74679],[3.90628,43.74546],[3.90628,43.74531],[3.90628,43.74513],[3.9062,43.74416],[3.90621,43.74383],[3.90627,43.74354],[3.90626,43.74342],[3.90618,43.74318]]},"properties":{"slope_pct":-0.4,"start_km":28.031,"end_km":28.921,"ele_start":130.8,"ele_end":127.6,"class":"plat","label":"Plat (−2 à 2 %)","color":"#94a3b8"}},{"type":"Feature","geometry":{"type":"LineString","coordinates":[[3.90618,43.74318],[3.90616,43.74311],[3.90604,43.74298],[3.90538,43.7414],[3.9048,43.74008],[3.90424,43.73882],[3.90423,43.73871],[3.90435,43.73792],[3.90433,43.73777],[3.90424,43.73757],[3.90309,43.73551]]},"properties":{"slope_pct":-0.2,"start_km":28.921,"end_km":29.818,"ele_start":127.6,"ele_end":125.6,"class":"plat","label":"Plat (−2 à 2 %)","color":"#94a3b8"}},{"type":"Feature","geometry":{"type":"LineString","coordinates":[[3.90309,43.73551],[3.903,43.73535],[3.90244,43.73427]]},"properties":{"slope_pct":2.6,"start_km":29.818,"end_km":29.966,"ele_start":125.6,"ele_end":129.5,"class":"montee-faible","label":"Montée faible (2 à 4 %)","color":"#22c55e"}},{"type":"Feature","geometry":{"type":"LineString","coordinates":[[3.90244,43.73427],[3.90216,43.73388],[3.90162,43.73321],[3.9009,43.73247]]},"properties":{"slope_pct":4.4,"start_km":29.966,"end_km":30.201,"ele_start":129.5,"ele_end":139.8,"class":"montee-moderee","label":"Montée modérée (4 à 7 %)","color":"#eab308"}},{"type":"Feature","geometry":{"type":"LineString","coordinates":[[3.9009,43.73247],[3.90111,43.73226],[3.90177,43.73167]]},"properties":{"slope_pct":2.6,"start_km":30.201,"end_km":30.314,"ele_start":139.8,"ele_end":142.7,"class":"montee-faible","label":"Montée faible (2 à 4 %)","color":"#22c55e"}},{"type":"Feature","geometry":{"type":"LineString","coordinates":[[3.90177,43.73167],[3.90215,43.73143],[3.90244,43.73129],[3.90259,43.73116],[3.9028,43.73092]]},"properties":{"slope_pct":-0.3,"start_km":30.314,"end_km":30.434,"ele_start":142.7,"ele_end":142.4,"class":"plat","label":"Plat (−2 à 2 %)","color":"#94a3b8"}},{"type":"Feature","geometry":{"type":"LineString","coordinates":[[3.9028,43.73092],[3.90303,43.73072],[3.90299,43.73051],[3.90284,43.73015],[3.90266,43.72989],[3.90229,43.72966],[3.90197,43.72931],[3.90182,43.72908],[3.90178,43.72885],[3.9018,43.72877],[3.90193,43.72864],[3.90257,43.72823],[3.90264,43.72814],[3.90271,43.72797],[3.90281,43.72792],[3.90299,43.72784],[3.90311,43.72775],[3.90316,43.72752],[3.90323,43.72743]]},"properties":{"slope_pct":-2.4,"start_km":30.434,"end_km":30.905,"ele_start":142.4,"ele_end":131.0,"class":"descente","label":"Descente (−6 à −2 %)","color":"#60a5fa"}},{"type":"Feature","geometry":{"type":"LineString","coordinates":[[3.90323,43.72743],[3.90345,43.72731],[3.90378,43.72694],[3.90391,43.72688],[3.90428,43.72684]]},"properties":{"slope_pct":-1.9,"start_km":30.905,"end_km":31.018,"ele_start":131.0,"ele_end":128.8,"class":"plat","label":"Plat (−2 à 2 %)","color":"#94a3b8"}},{"type":"Feature","geometry":{"type":"LineString","coordinates":[[3.90428,43.72684],[3.9052,43.72638],[3.90642,43.72548]]},"properties":{"slope_pct":-6.1,"start_km":31.018,"end_km":31.248,"ele_start":128.8,"ele_end":114.8,"class":"descente-forte","label":"Descente forte (< −6 %)","color":"#1d4ed8"}},{"type":"Feature","geometry":{"type":"LineString","coordinates":[[3.90642,43.72548],[3.90689,43.72492],[3.90736,43.72465]]},"properties":{"slope_pct":-3.8,"start_km":31.248,"end_km":31.369,"ele_start":114.8,"ele_end":110.1,"class":"descente","label":"Descente (−6 à −2 %)","color":"#60a5fa"}},{"type":"Feature","geometry":{"type":"LineString","coordinates":[[3.90736,43.72465],[3.90752,43.7245],[3.90759,43.72431],[3.90742,43.72394],[3.90738,43.7236],[3.9074,43.72347],[3.90752,43.72336],[3.90809,43.72321],[3.90829,43.72308]]},"properties":{"slope_pct":-1.2,"start_km":31.369,"end_km":31.594,"ele_start":110.1,"ele_end":107.5,"class":"plat","label":"Plat (−2 à 2 %)","color":"#94a3b8"}},{"type":"Feature","geometry":{"type":"LineString","coordinates":[[3.90829,43.72308],[3.90888,43.7223],[3.90911,43.72221],[3.90931,43.72206],[3.90973,43.72175],[3.90985,43.72159],[3.90969,43.72144],[3.9096,43.72129],[3.90964,43.72115],[3.90983,43.72099],[3.90978,43.72093],[3.90941,43.72056]]},"properties":{"slope_pct":-4.0,"start_km":31.594,"end_km":31.943,"ele_start":107.5,"ele_end":93.7,"class":"descente","label":"Descente (−6 à −2 %)","color":"#60a5fa"}},{"type":"Feature","geometry":{"type":"LineString","coordinates":[[3.90941,43.72056],[3.90877,43.72009],[3.90835,43.71969],[3.90803,43.71945],[3.90798,43.71944],[3.90787,43.71934],[3.90788,43.71926],[3.90787,43.71912],[3.90773,43.71885],[3.90739,43.71846],[3.90761,43.71838],[3.90835,43.71821]]},"properties":{"slope_pct":-0.3,"start_km":31.943,"end_km":32.318,"ele_start":93.7,"ele_end":92.7,"class":"plat","label":"Plat (−2 à 2 %)","color":"#94a3b8"}},{"type":"Feature","geometry":{"type":"LineString","coordinates":[[3.90835,43.71821],[3.90869,43.71819],[3.90875,43.71822],[3.90888,43.7184],[3.90892,43.71844],[3.90901,43.71848],[3.9093,43.71851],[3.90961,43.71847],[3.90971,43.71841],[3.90987,43.71826],[3.90993,43.71812],[3.91029,43.71729]]},"properties":{"slope_pct":3.0,"start_km":32.318,"end_km":32.58,"ele_start":92.7,"ele_end":100.5,"class":"montee-faible","label":"Montée faible (2 à 4 %)","color":"#22c55e"}},{"type":"Feature","geometry":{"type":"LineString","coordinates":[[3.91029,43.71729],[3.9109,43.7168],[3.91161,43.71617],[3.91186,43.71585],[3.91218,43.71547],[3.91223,43.71536],[3.91218,43.71527],[3.91209,43.71521],[3.91191,43.71515],[3.91184,43.71507],[3.91185,43.71497],[3.91202,43.71464],[3.9125,43.71391],[3.91276,43.71339],[3.91302,43.71277],[3.91354,43.7121],[3.91493,43.71032]]},"properties":{"slope_pct":-1.2,"start_km":32.58,"end_km":33.481,"ele_start":100.5,"ele_end":89.5,"class":"plat","label":"Plat (−2 à 2 %)","color":"#94a3b8"}},{"type":"Feature","geometry":{"type":"LineString","coordinates":[[3.91493,43.71032],[3.91522,43.70992],[3.91544,43.7095],[3.91564,43.70904]]},"properties":{"slope_pct":-1.9,"start_km":33.481,"end_km":33.635,"ele_start":89.5,"ele_end":86.6,"class":"plat","label":"Plat (−2 à 2 %)","color":"#94a3b8"}},{"type":"Feature","geometry":{"type":"LineString","coordinates":[[3.91564,43.70904],[3.91587,43.70834],[3.91606,43.708],[3.91611,43.70761],[3.91591,43.70705]]},"properties":{"slope_pct":-2.4,"start_km":33.635,"end_km":33.864,"ele_start":86.6,"ele_end":81.0,"class":"descente","label":"Descente (−6 à −2 %)","color":"#60a5fa"}},{"type":"Feature","geometry":{"type":"LineString","coordinates":[[3.91591,43.70705],[3.91574,43.70678],[3.91542,43.70662],[3.91503,43.70646],[3.91485,43.70631],[3.91436,43.70639],[3.91423,43.7064],[3.91405,43.70643],[3.91395,43.70644],[3.91349,43.70652]]},"properties":{"slope_pct":0.5,"start_km":33.864,"end_km":34.098,"ele_start":81.0,"ele_end":82.3,"class":"plat","label":"Plat (−2 à 2 %)","color":"#94a3b8"}},{"type":"Feature","geometry":{"type":"LineString","coordinates":[[3.91349,43.70652],[3.91302,43.70649],[3.91208,43.70636]]},"properties":{"slope_pct":4.8,"start_km":34.098,"end_km":34.213,"ele_start":82.3,"ele_end":87.8,"class":"montee-moderee","label":"Montée modérée (4 à 7 %)","color":"#eab308"}},{"type":"Feature","geometry":{"type":"LineString","coordinates":[[3.91208,43.70636],[3.91124,43.7062],[3.91104,43.70614],[3.91079,43.706],[3.90904,43.70477]]},"properties":{"slope_pct":3.4,"start_km":34.213,"end_km":34.522,"ele_start":87.8,"ele_end":98.3,"class":"montee-faible","label":"Montée faible (2 à 4 %)","color":"#22c55e"}},{"type":"Feature","geometry":{"type":"LineString","coordinates":[[3.90904,43.70477],[3.90853,43.70454],[3.90833,43.70446],[3.90714,43.70398],[3.90484,43.70305]]},"properties":{"slope_pct":-0.2,"start_km":34.522,"end_km":34.91,"ele_start":98.3,"ele_end":97.6,"class":"plat","label":"Plat (−2 à 2 %)","color":"#94a3b8"}},{"type":"Feature","geometry":{"type":"LineString","coordinates":[[3.90484,43.70305],[3.90245,43.70232]]},"properties":{"slope_pct":2.1,"start_km":34.91,"end_km":35.118,"ele_start":97.6,"ele_end":101.9,"class":"montee-faible","label":"Montée faible (2 à 4 %)","color":"#22c55e"}},{"type":"Feature","geometry":{"type":"LineString","coordinates":[[3.90245,43.70232],[3.90237,43.7023],[3.90207,43.70225],[3.90199,43.70223],[3.90175,43.70218],[3.90151,43.70213],[3.90118,43.70205]]},"properties":{"slope_pct":4.2,"start_km":35.118,"end_km":35.225,"ele_start":101.9,"ele_end":106.4,"class":"montee-moderee","label":"Montée modérée (4 à 7 %)","color":"#eab308"}},{"type":"Feature","geometry":{"type":"LineString","coordinates":[[3.90118,43.70205],[3.90072,43.70197],[3.9004,43.70197],[3.90015,43.70197],[3.90013,43.70207],[3.89972,43.70206]]},"properties":{"slope_pct":7.7,"start_km":35.225,"end_km":35.353,"ele_start":106.4,"ele_end":116.2,"class":"montee-soutenue","label":"Montée soutenue (7 à 10 %)","color":"#f97316"}},{"type":"Feature","geometry":{"type":"LineString","coordinates":[[3.89972,43.70206],[3.89964,43.70217],[3.89934,43.70246],[3.89911,43.70255],[3.89851,43.70267]]},"properties":{"slope_pct":6.4,"start_km":35.353,"end_km":35.477,"ele_start":116.2,"ele_end":124.2,"class":"montee-moderee","label":"Montée modérée (4 à 7 %)","color":"#eab308"}},{"type":"Feature","geometry":{"type":"LineString","coordinates":[[3.89851,43.70267],[3.89838,43.70262],[3.89754,43.70212],[3.89739,43.70196]]},"properties":{"slope_pct":2.9,"start_km":35.477,"end_km":35.598,"ele_start":124.2,"ele_end":127.7,"class":"montee-faible","label":"Montée faible (2 à 4 %)","color":"#22c55e"}},{"type":"Feature","geometry":{"type":"LineString","coordinates":[[3.89739,43.70196],[3.89733,43.7018],[3.89722,43.70176],[3.89713,43.70176],[3.89658,43.7019],[3.89655,43.70188],[3.89625,43.70165]]},"properties":{"slope_pct":-1.6,"start_km":35.598,"end_km":35.719,"ele_start":127.7,"ele_end":125.7,"class":"plat","label":"Plat (−2 à 2 %)","color":"#94a3b8"}},{"type":"Feature","geometry":{"type":"LineString","coordinates":[[3.89625,43.70165],[3.89612,43.70155],[3.89562,43.70112],[3.89546,43.70094]]},"properties":{"slope_pct":-2.1,"start_km":35.719,"end_km":35.82,"ele_start":125.7,"ele_end":123.6,"class":"descente","label":"Descente (−6 à −2 %)","color":"#60a5fa"}},{"type":"Feature","geometry":{"type":"LineString","coordinates":[[3.89546,43.70094],[3.89537,43.70081],[3.89537,43.70078],[3.89542,43.70071],[3.89541,43.70063],[3.89536,43.7006],[3.89518,43.70057],[3.89471,43.69989]]},"properties":{"slope_pct":1.4,"start_km":35.82,"end_km":35.962,"ele_start":123.6,"ele_end":125.6,"class":"plat","label":"Plat (−2 à 2 %)","color":"#94a3b8"}},{"type":"Feature","geometry":{"type":"LineString","coordinates":[[3.89471,43.69989],[3.89467,43.69984],[3.89421,43.69915],[3.89391,43.69879]]},"properties":{"slope_pct":4.3,"start_km":35.962,"end_km":36.1,"ele_start":125.6,"ele_end":131.6,"class":"montee-moderee","label":"Montée modérée (4 à 7 %)","color":"#eab308"}},{"type":"Feature","geometry":{"type":"LineString","coordinates":[[3.89391,43.69879],[3.89378,43.69837],[3.89367,43.69814],[3.89365,43.69808],[3.89347,43.69786]]},"properties":{"slope_pct":0.1,"start_km":36.1,"end_km":36.211,"ele_start":131.6,"ele_end":131.7,"class":"plat","label":"Plat (−2 à 2 %)","color":"#94a3b8"}},{"type":"Feature","geometry":{"type":"LineString","coordinates":[[3.89347,43.69786],[3.89331,43.69773],[3.89321,43.69756],[3.89288,43.69695],[3.89221,43.6955],[3.89204,43.69523],[3.89259,43.69508],[3.89269,43.69501],[3.89286,43.69484],[3.89314,43.69434],[3.89325,43.69414],[3.89336,43.69394],[3.89342,43.69368],[3.89338,43.69336],[3.89343,43.69329],[3.89364,43.69317],[3.89373,43.69308],[3.89377,43.6928],[3.89372,43.69258],[3.89354,43.69226],[3.89348,43.69218],[3.89341,43.69179],[3.89325,43.69164],[3.89244,43.69106]]},"properties":{"slope_pct":-4.4,"start_km":36.211,"end_km":37.084,"ele_start":131.7,"ele_end":93.6,"class":"descente","label":"Descente (−6 à −2 %)","color":"#60a5fa"}},{"type":"Feature","geometry":{"type":"LineString","coordinates":[[3.89244,43.69106],[3.89229,43.6908],[3.89229,43.69072],[3.89244,43.69056],[3.8924,43.69047],[3.89136,43.68968],[3.89133,43.68966],[3.89143,43.68926],[3.89186,43.68881]]},"properties":{"slope_pct":-3.9,"start_km":37.084,"end_km":37.387,"ele_start":93.6,"ele_end":81.7,"class":"descente","label":"Descente (−6 à −2 %)","color":"#60a5fa"}},{"type":"Feature","geometry":{"type":"LineString","coordinates":[[3.89186,43.68881],[3.89202,43.68847],[3.89214,43.68832],[3.89245,43.68811],[3.89325,43.68748],[3.89399,43.68685],[3.89432,43.68662],[3.89444,43.68646],[3.89471,43.68637],[3.89422,43.68602],[3.89326,43.68559],[3.89281,43.68535],[3.89269,43.68529],[3.89207,43.68491]]},"properties":{"slope_pct":-0.3,"start_km":37.387,"end_km":38.017,"ele_start":81.7,"ele_end":79.7,"class":"plat","label":"Plat (−2 à 2 %)","color":"#94a3b8"}},{"type":"Feature","geometry":{"type":"LineString","coordinates":[[3.89207,43.68491],[3.89162,43.68469],[3.89158,43.68464],[3.89138,43.68464],[3.89123,43.68461],[3.89069,43.68433],[3.89051,43.68428],[3.89032,43.68426],[3.89026,43.68418],[3.89014,43.68416],[3.88903,43.68417]]},"properties":{"slope_pct":2.6,"start_km":38.017,"end_km":38.288,"ele_start":79.7,"ele_end":86.7,"class":"montee-faible","label":"Montée faible (2 à 4 %)","color":"#22c55e"}},{"type":"Feature","geometry":{"type":"LineString","coordinates":[[3.88903,43.68417],[3.88886,43.68415],[3.88884,43.68409],[3.88767,43.68382],[3.88698,43.68377],[3.88681,43.68362],[3.88671,43.68344],[3.88662,43.68333]]},"properties":{"slope_pct":5.0,"start_km":38.288,"end_km":38.52,"ele_start":86.7,"ele_end":98.3,"class":"montee-moderee","label":"Montée modérée (4 à 7 %)","color":"#eab308"}},{"type":"Feature","geometry":{"type":"LineString","coordinates":[[3.88662,43.68333],[3.8866,43.68333],[3.8863,43.68348],[3.8859,43.68374],[3.88572,43.68376],[3.88543,43.68389]]},"properties":{"slope_pct":3.7,"start_km":38.52,"end_km":38.637,"ele_start":98.3,"ele_end":102.6,"class":"montee-faible","label":"Montée faible (2 à 4 %)","color":"#22c55e"}},{"type":"Feature","geometry":{"type":"LineString","coordinates":[[3.88543,43.68389],[3.88531,43.6839],[3.8852,43.68389],[3.88511,43.68375],[3.88497,43.68364],[3.88487,43.68362],[3.88455,43.68348],[3.88444,43.68336],[3.88434,43.68333],[3.88411,43.68338],[3.8839,43.68339],[3.88357,43.68334],[3.88331,43.68335],[3.88312,43.68334]]},"properties":{"slope_pct":5.6,"start_km":38.637,"end_km":38.852,"ele_start":102.6,"ele_end":114.6,"class":"montee-moderee","label":"Montée modérée (4 à 7 %)","color":"#eab308"}},{"type":"Feature","geometry":{"type":"LineString","coordinates":[[3.88312,43.68334],[3.88254,43.68337],[3.88246,43.68339],[3.88245,43.68323],[3.88246,43.68318],[3.88251,43.68298]]},"properties":{"slope_pct":2.4,"start_km":38.852,"end_km":38.952,"ele_start":114.6,"ele_end":117.0,"class":"montee-faible","label":"Montée faible (2 à 4 %)","color":"#22c55e"}},{"type":"Feature","geometry":{"type":"LineString","coordinates":[[3.88251,43.68298],[3.88265,43.68266],[3.88271,43.68244],[3.88271,43.68215],[3.88252,43.68176],[3.88184,43.68084],[3.88164,43.68064],[3.88137,43.68035],[3.88125,43.67956],[3.88142,43.67929],[3.8817,43.67879],[3.88187,43.67832],[3.88196,43.67795],[3.88235,43.67724],[3.8826,43.67646],[3.88266,43.67567],[3.88268,43.67532],[3.88266,43.67526],[3.88266,43.67454]]},"properties":{"slope_pct":0.1,"start_km":38.952,"end_km":39.939,"ele_start":117.0,"ele_end":117.5,"class":"plat","label":"Plat (−2 à 2 %)","color":"#94a3b8"}},{"type":"Feature","geometry":{"type":"LineString","coordinates":[[3.88266,43.67454],[3.8826,43.67415],[3.88248,43.67392],[3.88192,43.67328]]},"properties":{"slope_pct":0.7,"start_km":39.939,"end_km":40.094,"ele_start":117.5,"ele_end":118.5,"class":"plat","label":"Plat (−2 à 2 %)","color":"#94a3b8"}},{"type":"Feature","geometry":{"type":"LineString","coordinates":[[3.88192,43.67328],[3.88154,43.6729],[3.88133,43.67272],[3.88099,43.67249],[3.8803,43.6722],[3.8802,43.67216],[3.8799,43.67195],[3.87961,43.67163],[3.87935,43.67149],[3.87952,43.67142],[3.87963,43.67139],[3.88024,43.67133]]},"properties":{"slope_pct":-3.9,"start_km":40.094,"end_km":40.46,"ele_start":118.5,"ele_end":104.2,"class":"descente","label":"Descente (−6 à −2 %)","color":"#60a5fa"}},{"type":"Feature","geometry":{"type":"LineString","coordinates":[[3.88024,43.67133],[3.8804,43.67129],[3.88057,43.67122],[3.88126,43.67086],[3.88171,43.67062]]},"properties":{"slope_pct":0.9,"start_km":40.46,"end_km":40.603,"ele_start":104.2,"ele_end":105.5,"class":"plat","label":"Plat (−2 à 2 %)","color":"#94a3b8"}},{"type":"Feature","geometry":{"type":"LineString","coordinates":[[3.88171,43.67062],[3.88192,43.67047],[3.88227,43.66902],[3.88224,43.66889],[3.88215,43.66872],[3.88158,43.668]]},"properties":{"slope_pct":2.8,"start_km":40.603,"end_km":40.917,"ele_start":105.5,"ele_end":114.4,"class":"montee-faible","label":"Montée faible (2 à 4 %)","color":"#22c55e"}},{"type":"Feature","geometry":{"type":"LineString","coordinates":[[3.88158,43.668],[3.88153,43.6679],[3.88138,43.66761],[3.88127,43.66753],[3.88087,43.66735],[3.88048,43.66718],[3.88033,43.66711],[3.87949,43.66668],[3.87898,43.66629],[3.87875,43.66614],[3.87826,43.66601],[3.87788,43.66586],[3.87835,43.66548],[3.87843,43.66515],[3.87884,43.66504]]},"properties":{"slope_pct":-3.6,"start_km":40.917,"end_km":41.439,"ele_start":114.4,"ele_end":95.4,"class":"descente","label":"Descente (−6 à −2 %)","color":"#60a5fa"}},{"type":"Feature","geometry":{"type":"LineString","coordinates":[[3.87884,43.66504],[3.87895,43.66497],[3.8791,43.6649],[3.8792,43.66484],[3.8795,43.66455],[3.87968,43.66403],[3.87969,43.66372],[3.87992,43.66337],[3.88011,43.66309]]},"properties":{"slope_pct":-7.2,"start_km":41.439,"end_km":41.687,"ele_start":95.4,"ele_end":77.5,"class":"descente-forte","label":"Descente forte (< −6 %)","color":"#1d4ed8"}},{"type":"Feature","geometry":{"type":"LineString","coordinates":[[3.88011,43.66309],[3.88025,43.6628],[3.88037,43.66233],[3.88042,43.66226],[3.88055,43.66217]]},"properties":{"slope_pct":-2.3,"start_km":41.687,"end_km":41.798,"ele_start":77.5,"ele_end":75.1,"class":"descente","label":"Descente (−6 à −2 %)","color":"#60a5fa"}},{"type":"Feature","geometry":{"type":"LineString","coordinates":[[3.88055,43.66217],[3.88094,43.66204],[3.88103,43.66197],[3.88107,43.66184],[3.8811,43.66155],[3.88098,43.66122],[3.88085,43.66042],[3.88074,43.66019]]},"properties":{"slope_pct":-1.7,"start_km":41.798,"end_km":42.045,"ele_start":75.1,"ele_end":71.0,"class":"plat","label":"Plat (−2 à 2 %)","color":"#94a3b8"}},{"type":"Feature","geometry":{"type":"LineString","coordinates":[[3.88074,43.66019],[3.88058,43.65986],[3.88052,43.65974],[3.88025,43.65916],[3.88009,43.65868],[3.87987,43.65794],[3.87985,43.65776],[3.87989,43.6575],[3.87994,43.65736],[3.88012,43.65719],[3.88018,43.65709],[3.88026,43.65676],[3.88029,43.65647],[3.88033,43.65638],[3.88049,43.65619]]},"properties":{"slope_pct":-3.7,"start_km":42.045,"end_km":42.511,"ele_start":71.0,"ele_end":53.9,"class":"descente","label":"Descente (−6 à −2 %)","color":"#60a5fa"}},{"type":"Feature","geometry":{"type":"LineString","coordinates":[[3.88049,43.65619],[3.88056,43.65609],[3.88066,43.65587],[3.88068,43.65583],[3.88069,43.65557],[3.88068,43.65546],[3.88087,43.65538],[3.88096,43.65533],[3.88098,43.65526],[3.88095,43.65525],[3.8809,43.65523]]},"properties":{"slope_pct":-1.2,"start_km":42.511,"end_km":42.637,"ele_start":53.9,"ele_end":52.4,"class":"plat","label":"Plat (−2 à 2 %)","color":"#94a3b8"}}]}
