{"type":"FeatureCollection","generator":"tools/slope_colors.py","format_version":1,"source_gpx":"2026-07-23_3134263686_TMP - Clapiers Sommières.gpx","source_sha256":"f54e8e812d4a8d0864c31b4f2f23a449029246c0399098e84263803b722327f2","params_fingerprint":"9b5318af1abbe178","params":{"segment_length_m":100.0,"smoothing_window_m":150.0,"resample_step_m":10.0,"max_merged_length_m":1000.0,"classes":[{"key":"descente-forte","label":"Descente forte (< −8 %)","min":null,"max":-8.0,"color":"#1e3a8a"},{"key":"descente","label":"Descente (−8 à −4 %)","min":-8.0,"max":-4.0,"color":"#2563eb"},{"key":"descente-legere","label":"Descente légère (−4 à −2 %)","min":-4.0,"max":-2.0,"color":"#7cb4f5"},{"key":"plat","label":"Plat (−2 à 2 %)","min":-2.0,"max":2.0,"color":"#22a650"},{"key":"montee-faible","label":"Montée faible (2 à 4 %)","min":2.0,"max":4.0,"color":"#f2c418"},{"key":"montee-moderee","label":"Montée modérée (4 à 7 %)","min":4.0,"max":7.0,"color":"#f59e0b"},{"key":"montee-soutenue","label":"Montée soutenue (7 à 10 %)","min":7.0,"max":10.0,"color":"#ea580c"},{"key":"montee-forte","label":"Montée forte (≥ 10 %)","min":10.0,"max":null,"color":"#dc2626"}]},"legend":[{"key":"descente-forte","label":"Descente forte (< −8 %)","min":null,"max":-8.0,"color":"#1e3a8a"},{"key":"descente","label":"Descente (−8 à −4 %)","min":-8.0,"max":-4.0,"color":"#2563eb"},{"key":"descente-legere","label":"Descente légère (−4 à −2 %)","min":-4.0,"max":-2.0,"color":"#7cb4f5"},{"key":"plat","label":"Plat (−2 à 2 %)","min":-2.0,"max":2.0,"color":"#22a650"},{"key":"montee-faible","label":"Montée faible (2 à 4 %)","min":2.0,"max":4.0,"color":"#f2c418"},{"key":"montee-moderee","label":"Montée modérée (4 à 7 %)","min":4.0,"max":7.0,"color":"#f59e0b"},{"key":"montee-soutenue","label":"Montée soutenue (7 à 10 %)","min":7.0,"max":10.0,"color":"#ea580c"},{"key":"montee-forte","label":"Montée forte (≥ 10 %)","min":10.0,"max":null,"color":"#dc2626"}],"stats":{"distance_km":65.2,"elevation_valid_ratio":1.0,"elevation_ok":true,"smoothed_gain_m":443,"max_slope_pct":7.5,"min_slope_pct":-8.0},"features":[{"type":"Feature","geometry":{"type":"LineString","coordinates":[[3.88082,43.6552],[3.88084,43.65521],[3.8809,43.65523],[3.88095,43.65525],[3.88098,43.65526],[3.88102,43.65523],[3.88112,43.6551],[3.88133,43.65477],[3.88149,43.65439],[3.88155,43.6542],[3.88167,43.65426],[3.88176,43.65411],[3.88191,43.65364],[3.88211,43.65331],[3.88219,43.65327],[3.88222,43.65319],[3.88226,43.6531],[3.88246,43.65317],[3.88268,43.65324],[3.88306,43.65341],[3.88339,43.6535],[3.88364,43.65354],[3.88365,43.6535],[3.88382,43.65349],[3.88489,43.65356],[3.88548,43.65359],[3.88574,43.65354],[3.88587,43.65342],[3.88593,43.65342],[3.886,43.65343],[3.88602,43.65343],[3.88615,43.65357],[3.88654,43.65366]]},"properties":{"slope_pct":-0.2,"start_km":0.0,"end_km":0.67,"ele_start":51.9,"ele_end":50.3,"class":"plat","label":"Plat (−2 à 2 %)","color":"#22a650"}},{"type":"Feature","geometry":{"type":"LineString","coordinates":[[3.88654,43.65366],[3.88724,43.65368],[3.88762,43.65364],[3.88768,43.65366],[3.88782,43.65364]]},"properties":{"slope_pct":2.5,"start_km":0.67,"end_km":0.774,"ele_start":50.3,"ele_end":52.9,"class":"montee-faible","label":"Montée faible (2 à 4 %)","color":"#f2c418"}},{"type":"Feature","geometry":{"type":"LineString","coordinates":[[3.88782,43.65364],[3.88859,43.65339],[3.88864,43.65337],[3.88879,43.65333],[3.88886,43.65333],[3.88895,43.65336],[3.88902,43.65336],[3.88906,43.65339],[3.88935,43.6535],[3.88949,43.6536],[3.88954,43.65363],[3.89014,43.65391]]},"properties":{"slope_pct":-3.0,"start_km":0.774,"end_km":0.988,"ele_start":52.9,"ele_end":46.5,"class":"descente-legere","label":"Descente légère (−4 à −2 %)","color":"#7cb4f5"}},{"type":"Feature","geometry":{"type":"LineString","coordinates":[[3.89014,43.65391],[3.89048,43.65406],[3.89052,43.65408],[3.89176,43.65462],[3.89179,43.65463],[3.89188,43.65456],[3.8919,43.65455],[3.89196,43.65451],[3.8922,43.65441],[3.89454,43.65263]]},"properties":{"slope_pct":0.2,"start_km":0.988,"end_km":1.458,"ele_start":46.5,"ele_end":47.2,"class":"plat","label":"Plat (−2 à 2 %)","color":"#22a650"}},{"type":"Feature","geometry":{"type":"LineString","coordinates":[[3.89454,43.65263],[3.89479,43.65252],[3.89528,43.65215],[3.8954,43.65206],[3.89556,43.65194]]},"properties":{"slope_pct":3.3,"start_km":1.458,"end_km":1.572,"ele_start":47.2,"ele_end":51.0,"class":"montee-faible","label":"Montée faible (2 à 4 %)","color":"#f2c418"}},{"type":"Feature","geometry":{"type":"LineString","coordinates":[[3.89556,43.65194],[3.89618,43.65146],[3.89639,43.65137],[3.89651,43.65136],[3.89673,43.65139],[3.89688,43.65145],[3.89728,43.65171],[3.89741,43.65174],[3.89757,43.65174],[3.89769,43.65174]]},"properties":{"slope_pct":4.7,"start_km":1.572,"end_km":1.782,"ele_start":51.0,"ele_end":60.8,"class":"montee-moderee","label":"Montée modérée (4 à 7 %)","color":"#f59e0b"}},{"type":"Feature","geometry":{"type":"LineString","coordinates":[[3.89769,43.65174],[3.8977,43.6519],[3.89773,43.6519],[3.89774,43.65181],[3.89789,43.65179],[3.89822,43.65247]]},"properties":{"slope_pct":1.9,"start_km":1.782,"end_km":1.905,"ele_start":60.8,"ele_end":63.1,"class":"plat","label":"Plat (−2 à 2 %)","color":"#22a650"}},{"type":"Feature","geometry":{"type":"LineString","coordinates":[[3.89822,43.65247],[3.8983,43.65278],[3.89825,43.65302],[3.89808,43.65329],[3.89799,43.6535],[3.898,43.65357],[3.89802,43.65384],[3.8989,43.65548]]},"properties":{"slope_pct":-2.7,"start_km":1.905,"end_km":2.258,"ele_start":63.1,"ele_end":53.7,"class":"descente-legere","label":"Descente légère (−4 à −2 %)","color":"#7cb4f5"}},{"type":"Feature","geometry":{"type":"LineString","coordinates":[[3.8989,43.65548],[3.89908,43.65596],[3.89912,43.65608],[3.89937,43.65621],[3.89938,43.65629]]},"properties":{"slope_pct":-0.8,"start_km":2.258,"end_km":2.362,"ele_start":53.7,"ele_end":52.9,"class":"plat","label":"Plat (−2 à 2 %)","color":"#22a650"}},{"type":"Feature","geometry":{"type":"LineString","coordinates":[[3.89938,43.65629],[3.89924,43.65639],[3.89923,43.65643],[3.89958,43.65709],[3.90012,43.65824],[3.90038,43.65857],[3.90074,43.65895],[3.90091,43.65906]]},"properties":{"slope_pct":2.5,"start_km":2.362,"end_km":2.708,"ele_start":52.9,"ele_end":61.6,"class":"montee-faible","label":"Montée faible (2 à 4 %)","color":"#f2c418"}},{"type":"Feature","geometry":{"type":"LineString","coordinates":[[3.90091,43.65906],[3.90123,43.65902],[3.9015,43.65905],[3.90169,43.65914],[3.90173,43.65916],[3.90191,43.65935],[3.90213,43.65948],[3.90226,43.65952],[3.90358,43.65954],[3.90396,43.65955],[3.90408,43.65946],[3.90415,43.65946],[3.90426,43.65947],[3.90429,43.65956],[3.90442,43.6596],[3.90465,43.65958],[3.90513,43.6596],[3.90527,43.6596],[3.90563,43.6596],[3.90665,43.65947],[3.90673,43.65946],[3.90679,43.65942],[3.90678,43.65935],[3.90682,43.65934],[3.90697,43.65931],[3.90701,43.65931],[3.90716,43.65944],[3.90728,43.65946],[3.90823,43.6593],[3.90914,43.65915],[3.90993,43.65905],[3.91092,43.65898],[3.91137,43.65898]]},"properties":{"slope_pct":0.4,"start_km":2.708,"end_km":3.608,"ele_start":61.6,"ele_end":65.0,"class":"plat","label":"Plat (−2 à 2 %)","color":"#22a650"}},{"type":"Feature","geometry":{"type":"LineString","coordinates":[[3.91137,43.65898],[3.91154,43.65898],[3.9116,43.65896],[3.91165,43.65891],[3.9117,43.65892],[3.91178,43.65893],[3.91189,43.65896],[3.91191,43.65899],[3.91191,43.65904],[3.91192,43.65908],[3.91192,43.6591],[3.91216,43.65916],[3.91279,43.65927],[3.91318,43.65934],[3.91329,43.65937],[3.91352,43.65942],[3.91413,43.65959]]},"properties":{"slope_pct":-0.9,"start_km":3.608,"end_km":3.857,"ele_start":65.0,"ele_end":62.8,"class":"plat","label":"Plat (−2 à 2 %)","color":"#22a650"}},{"type":"Feature","geometry":{"type":"LineString","coordinates":[[3.91413,43.65959],[3.91463,43.65982],[3.91531,43.66016]]},"properties":{"slope_pct":-2.1,"start_km":3.857,"end_km":3.97,"ele_start":62.8,"ele_end":60.4,"class":"descente-legere","label":"Descente légère (−4 à −2 %)","color":"#7cb4f5"}},{"type":"Feature","geometry":{"type":"LineString","coordinates":[[3.91531,43.66016],[3.91543,43.66024],[3.9161,43.66037],[3.91731,43.6606],[3.91746,43.66061],[3.91767,43.66065],[3.9179,43.66069],[3.91795,43.6607],[3.91797,43.66078],[3.91863,43.66109]]},"properties":{"slope_pct":-0.4,"start_km":3.97,"end_km":4.266,"ele_start":60.4,"ele_end":59.3,"class":"plat","label":"Plat (−2 à 2 %)","color":"#22a650"}},{"type":"Feature","geometry":{"type":"LineString","coordinates":[[3.91863,43.66109],[3.91918,43.66128],[3.91942,43.66136],[3.91999,43.66154]]},"properties":{"slope_pct":-2.5,"start_km":4.266,"end_km":4.386,"ele_start":59.3,"ele_end":56.4,"class":"descente-legere","label":"Descente légère (−4 à −2 %)","color":"#7cb4f5"}},{"type":"Feature","geometry":{"type":"LineString","coordinates":[[3.91999,43.66154],[3.92074,43.66177],[3.92159,43.66203],[3.92224,43.66222],[3.92239,43.66229],[3.92257,43.66233],[3.92292,43.66233],[3.92414,43.66225],[3.92478,43.66211]]},"properties":{"slope_pct":-0.0,"start_km":4.386,"end_km":4.792,"ele_start":56.4,"ele_end":56.3,"class":"plat","label":"Plat (−2 à 2 %)","color":"#22a650"}},{"type":"Feature","geometry":{"type":"LineString","coordinates":[[3.92478,43.66211],[3.92531,43.66199],[3.92558,43.66186],[3.92563,43.66188],[3.9257,43.66191],[3.92575,43.66192],[3.92579,43.66185],[3.92641,43.66154]]},"properties":{"slope_pct":-5.1,"start_km":4.792,"end_km":4.946,"ele_start":56.3,"ele_end":48.5,"class":"descente","label":"Descente (−8 à −4 %)","color":"#2563eb"}},{"type":"Feature","geometry":{"type":"LineString","coordinates":[[3.92641,43.66154],[3.92652,43.66143],[3.92674,43.66142],[3.92683,43.66139],[3.92788,43.66082],[3.92834,43.66052],[3.92851,43.66038],[3.92857,43.66042],[3.92866,43.66047],[3.92869,43.6605],[3.92885,43.6605],[3.92927,43.6606],[3.92956,43.66066],[3.92962,43.66064],[3.92979,43.66058],[3.93032,43.66034],[3.93045,43.66027],[3.93075,43.6601],[3.93187,43.65956],[3.93206,43.65954],[3.93219,43.65952],[3.9323,43.65953],[3.93236,43.65953],[3.93239,43.65947],[3.93249,43.65943],[3.93393,43.65914],[3.93471,43.6591],[3.93484,43.65911],[3.9356,43.65919],[3.9358,43.65921],[3.93594,43.65918],[3.93619,43.65907],[3.93631,43.65905],[3.93632,43.65899],[3.93637,43.65889],[3.9364,43.65884],[3.93648,43.65891],[3.93703,43.65916]]},"properties":{"slope_pct":-0.6,"start_km":4.946,"end_km":5.937,"ele_start":48.5,"ele_end":42.9,"class":"plat","label":"Plat (−2 à 2 %)","color":"#22a650"}},{"type":"Feature","geometry":{"type":"LineString","coordinates":[[3.93703,43.65916],[3.93748,43.65933],[3.94151,43.66013]]},"properties":{"slope_pct":2.7,"start_km":5.937,"end_km":6.315,"ele_start":42.9,"ele_end":53.2,"class":"montee-faible","label":"Montée faible (2 à 4 %)","color":"#f2c418"}},{"type":"Feature","geometry":{"type":"LineString","coordinates":[[3.94151,43.66013],[3.94313,43.66044],[3.94349,43.66047],[3.94411,43.66048],[3.94545,43.66045],[3.94554,43.66046],[3.94568,43.66054],[3.94582,43.66048],[3.94611,43.66042],[3.94614,43.66042],[3.94619,43.66042],[3.94622,43.66042],[3.94691,43.66047],[3.94712,43.66045],[3.94765,43.66042],[3.94812,43.66033],[3.95016,43.65971],[3.95049,43.65957],[3.95056,43.6595],[3.95066,43.6593],[3.95071,43.65924],[3.95087,43.65918],[3.95101,43.65915],[3.9512,43.65913]]},"properties":{"slope_pct":0.0,"start_km":6.315,"end_km":7.15,"ele_start":53.2,"ele_end":53.4,"class":"plat","label":"Plat (−2 à 2 %)","color":"#22a650"}},{"type":"Feature","geometry":{"type":"LineString","coordinates":[[3.9512,43.65913],[3.95145,43.65921],[3.95166,43.65928],[3.95193,43.65928],[3.95481,43.65882],[3.95507,43.65877],[3.95884,43.65808],[3.95941,43.65804],[3.96062,43.65809]]},"properties":{"slope_pct":-1.0,"start_km":7.15,"end_km":7.927,"ele_start":53.4,"ele_end":45.2,"class":"plat","label":"Plat (−2 à 2 %)","color":"#22a650"}},{"type":"Feature","geometry":{"type":"LineString","coordinates":[[3.96062,43.65809],[3.96124,43.65812],[3.96132,43.65812],[3.96139,43.65817],[3.96268,43.65818]]},"properties":{"slope_pct":-2.2,"start_km":7.927,"end_km":8.095,"ele_start":45.2,"ele_end":41.5,"class":"descente-legere","label":"Descente légère (−4 à −2 %)","color":"#7cb4f5"}},{"type":"Feature","geometry":{"type":"LineString","coordinates":[[3.96268,43.65818],[3.96294,43.65813],[3.96299,43.65808],[3.96299,43.65802],[3.96304,43.65801],[3.96313,43.65798],[3.96318,43.65796],[3.96332,43.6582],[3.96335,43.65821],[3.96388,43.65817],[3.96451,43.65815],[3.96481,43.65814],[3.96492,43.65818],[3.96496,43.65814],[3.96503,43.65814],[3.96509,43.65816],[3.96511,43.65821],[3.96509,43.65825],[3.96516,43.65827],[3.96537,43.65844],[3.96571,43.65876],[3.96583,43.65882],[3.96596,43.65886],[3.96662,43.65895],[3.96668,43.65889],[3.96677,43.65889],[3.9668,43.6589],[3.9671,43.65893],[3.96723,43.65893],[3.96752,43.65906],[3.96848,43.65951],[3.96934,43.65978],[3.96992,43.65994],[3.97002,43.65997],[3.97007,43.66002],[3.9701,43.66001],[3.97018,43.66002],[3.97021,43.66008],[3.97034,43.66011],[3.97086,43.66027],[3.97157,43.66051]]},"properties":{"slope_pct":0.0,"start_km":8.095,"end_km":8.935,"ele_start":41.5,"ele_end":41.6,"class":"plat","label":"Plat (−2 à 2 %)","color":"#22a650"}},{"type":"Feature","geometry":{"type":"LineString","coordinates":[[3.97157,43.66051],[3.97508,43.66155],[3.97554,43.66169],[3.97676,43.66203],[3.97697,43.6621],[3.97767,43.66231],[3.97847,43.66257],[3.97859,43.66261],[3.97892,43.66268],[3.97901,43.66271],[3.97911,43.66273],[3.97988,43.66297],[3.98035,43.66316],[3.98062,43.66329],[3.98131,43.6635]]},"properties":{"slope_pct":0.2,"start_km":8.935,"end_km":9.787,"ele_start":41.6,"ele_end":43.0,"class":"plat","label":"Plat (−2 à 2 %)","color":"#22a650"}},{"type":"Feature","geometry":{"type":"LineString","coordinates":[[3.98131,43.6635],[3.98193,43.66373],[3.98203,43.66375],[3.98215,43.66386],[3.98295,43.66461],[3.98312,43.66473],[3.98348,43.66512],[3.98363,43.66528],[3.98367,43.6653],[3.98402,43.66551],[3.98387,43.6658],[3.98377,43.66614],[3.98375,43.66618],[3.98385,43.66632],[3.9839,43.6664],[3.98339,43.66697],[3.98316,43.66704],[3.983,43.66703],[3.98269,43.66682],[3.9826,43.66674],[3.98249,43.66672],[3.98236,43.66677],[3.98197,43.66728],[3.982,43.66739],[3.98211,43.66746],[3.98236,43.66747],[3.98276,43.66743],[3.98345,43.66746],[3.98358,43.66754],[3.98357,43.66762],[3.9834,43.66779],[3.98332,43.66795],[3.98344,43.66816],[3.98359,43.66831]]},"properties":{"slope_pct":-0.0,"start_km":9.787,"end_km":10.694,"ele_start":43.0,"ele_end":42.7,"class":"plat","label":"Plat (−2 à 2 %)","color":"#22a650"}},{"type":"Feature","geometry":{"type":"LineString","coordinates":[[3.98359,43.66831],[3.98357,43.6684],[3.984,43.66841],[3.98429,43.66847],[3.98449,43.66859],[3.98466,43.66865],[3.98496,43.6687],[3.98529,43.66887],[3.98562,43.66901],[3.98805,43.66965],[3.98898,43.66986],[3.98921,43.66987],[3.98945,43.66964],[3.9896,43.66916],[3.98966,43.66894],[3.98976,43.66884],[3.99006,43.66886],[3.99034,43.6689],[3.9905,43.66901],[3.99066,43.66934],[3.99077,43.66971]]},"properties":{"slope_pct":0.9,"start_km":10.694,"end_km":11.463,"ele_start":42.7,"ele_end":49.9,"class":"plat","label":"Plat (−2 à 2 %)","color":"#22a650"}},{"type":"Feature","geometry":{"type":"LineString","coordinates":[[3.99077,43.66971],[3.99085,43.66989],[3.99113,43.67013],[3.99117,43.67014],[3.99068,43.67073]]},"properties":{"slope_pct":2.7,"start_km":11.463,"end_km":11.598,"ele_start":49.9,"ele_end":53.6,"class":"montee-faible","label":"Montée faible (2 à 4 %)","color":"#f2c418"}},{"type":"Feature","geometry":{"type":"LineString","coordinates":[[3.99068,43.67073],[3.99064,43.67074],[3.99079,43.67085],[3.99082,43.67093],[3.99031,43.67165],[3.99034,43.6717],[3.99041,43.67192],[3.99044,43.67219],[3.9908,43.67253],[3.99093,43.67258],[3.99066,43.67303],[3.99042,43.67345],[3.99004,43.6744],[3.99002,43.67445],[3.98996,43.67462],[3.98989,43.67481],[3.9898,43.67504],[3.98973,43.67522],[3.98977,43.67522],[3.98958,43.6757],[3.98957,43.67573],[3.98941,43.67599],[3.98945,43.67605],[3.98943,43.67609],[3.98968,43.67629],[3.98991,43.67652],[3.99014,43.67685],[3.99029,43.6769],[3.99052,43.67689],[3.99139,43.67681]]},"properties":{"slope_pct":-0.7,"start_km":11.598,"end_km":12.458,"ele_start":53.6,"ele_end":47.7,"class":"plat","label":"Plat (−2 à 2 %)","color":"#22a650"}},{"type":"Feature","geometry":{"type":"LineString","coordinates":[[3.99139,43.67681],[3.99144,43.67681],[3.99347,43.67722],[3.99384,43.67732],[3.99429,43.67747],[3.99484,43.67758],[3.99602,43.67774],[3.997,43.67783],[3.99786,43.67795],[3.99885,43.67815],[3.99956,43.67849],[4.00042,43.67873],[4.0006,43.67877],[4.00234,43.67903]]},"properties":{"slope_pct":-0.6,"start_km":12.458,"end_km":13.379,"ele_start":47.7,"ele_end":42.1,"class":"plat","label":"Plat (−2 à 2 %)","color":"#22a650"}},{"type":"Feature","geometry":{"type":"LineString","coordinates":[[4.00234,43.67903],[4.00254,43.67909],[4.00318,43.67934],[4.00415,43.67982],[4.00426,43.67994],[4.00432,43.68036],[4.00427,43.68206],[4.00417,43.6822],[4.00365,43.68257],[4.00332,43.68292],[4.00313,43.68319],[4.00292,43.68366],[4.00288,43.68372],[4.00289,43.68379],[4.00356,43.68427],[4.00369,43.68431],[4.00385,43.68438],[4.00397,43.68437],[4.00445,43.68461],[4.0051,43.68477],[4.00558,43.68458],[4.00644,43.68445]]},"properties":{"slope_pct":-0.5,"start_km":13.379,"end_km":14.358,"ele_start":42.1,"ele_end":37.7,"class":"plat","label":"Plat (−2 à 2 %)","color":"#22a650"}},{"type":"Feature","geometry":{"type":"LineString","coordinates":[[4.00644,43.68445],[4.00674,43.68436],[4.00839,43.68269],[4.00884,43.68234],[4.00892,43.68227],[4.0095,43.68184],[4.00991,43.68158],[4.01022,43.68148],[4.01037,43.68125]]},"properties":{"slope_pct":-0.2,"start_km":14.358,"end_km":14.843,"ele_start":37.7,"ele_end":37.0,"class":"plat","label":"Plat (−2 à 2 %)","color":"#22a650"}},{"type":"Feature","geometry":{"type":"LineString","coordinates":[[4.01037,43.68125],[4.01053,43.68092],[4.01069,43.68074],[4.01077,43.68066],[4.01093,43.68057],[4.01141,43.68017]]},"properties":{"slope_pct":3.4,"start_km":14.843,"end_km":14.991,"ele_start":37.0,"ele_end":42.0,"class":"montee-faible","label":"Montée faible (2 à 4 %)","color":"#f2c418"}},{"type":"Feature","geometry":{"type":"LineString","coordinates":[[4.01141,43.68017],[4.01145,43.6801],[4.01141,43.67983],[4.0115,43.67966],[4.01237,43.67861]]},"properties":{"slope_pct":-0.2,"start_km":14.991,"end_km":15.186,"ele_start":42.0,"ele_end":41.6,"class":"plat","label":"Plat (−2 à 2 %)","color":"#22a650"}},{"type":"Feature","geometry":{"type":"LineString","coordinates":[[4.01237,43.67861],[4.01248,43.67843],[4.01263,43.67818],[4.01278,43.67801],[4.013,43.67794],[4.01439,43.6769]]},"properties":{"slope_pct":-3.1,"start_km":15.186,"end_km":15.44,"ele_start":41.6,"ele_end":33.9,"class":"descente-legere","label":"Descente légère (−4 à −2 %)","color":"#7cb4f5"}},{"type":"Feature","geometry":{"type":"LineString","coordinates":[[4.01439,43.6769],[4.01537,43.67649],[4.01591,43.67616],[4.01603,43.67606],[4.01647,43.6757],[4.01693,43.6755],[4.01741,43.67517],[4.01767,43.67505],[4.01777,43.67498],[4.01789,43.67499],[4.01867,43.67492],[4.01878,43.67503],[4.01919,43.67573],[4.01947,43.67609],[4.0199,43.67648],[4.02013,43.67679],[4.02027,43.67686],[4.02055,43.67694],[4.02072,43.67732],[4.02097,43.67756],[4.02169,43.67814],[4.02183,43.67831]]},"properties":{"slope_pct":-0.8,"start_km":15.44,"end_km":16.326,"ele_start":33.9,"ele_end":26.8,"class":"plat","label":"Plat (−2 à 2 %)","color":"#22a650"}},{"type":"Feature","geometry":{"type":"LineString","coordinates":[[4.02183,43.67831],[4.0223,43.67905],[4.02295,43.68017],[4.02304,43.68026],[4.02431,43.68227],[4.02561,43.68494],[4.02581,43.68537],[4.02609,43.68582]]},"properties":{"slope_pct":1.2,"start_km":16.326,"end_km":17.23,"ele_start":26.8,"ele_end":37.4,"class":"plat","label":"Plat (−2 à 2 %)","color":"#22a650"}},{"type":"Feature","geometry":{"type":"LineString","coordinates":[[4.02609,43.68582],[4.02678,43.68685]]},"properties":{"slope_pct":2.4,"start_km":17.23,"end_km":17.357,"ele_start":37.4,"ele_end":40.4,"class":"montee-faible","label":"Montée faible (2 à 4 %)","color":"#f2c418"}},{"type":"Feature","geometry":{"type":"LineString","coordinates":[[4.02678,43.68685],[4.02683,43.687],[4.02686,43.68713],[4.02691,43.68805],[4.0271,43.68807],[4.02742,43.68824],[4.02765,43.68827],[4.02798,43.68838],[4.02826,43.68856],[4.02851,43.68862],[4.0287,43.68872],[4.029,43.6888],[4.02925,43.68881],[4.02966,43.68879],[4.02996,43.6887],[4.03044,43.68853],[4.03073,43.68845],[4.03129,43.68831]]},"properties":{"slope_pct":0.7,"start_km":17.357,"end_km":17.877,"ele_start":40.4,"ele_end":44.3,"class":"plat","label":"Plat (−2 à 2 %)","color":"#22a650"}},{"type":"Feature","geometry":{"type":"LineString","coordinates":[[4.03129,43.68831],[4.03158,43.68835],[4.03188,43.68841],[4.0321,43.68845],[4.03256,43.68849],[4.03276,43.6885],[4.03288,43.68843],[4.03343,43.68829],[4.03372,43.68826],[4.03383,43.68821],[4.03393,43.68831],[4.03453,43.68884],[4.03463,43.68892]]},"properties":{"slope_pct":-3.1,"start_km":17.877,"end_km":18.191,"ele_start":44.3,"ele_end":34.6,"class":"descente-legere","label":"Descente légère (−4 à −2 %)","color":"#7cb4f5"}},{"type":"Feature","geometry":{"type":"LineString","coordinates":[[4.03463,43.68892],[4.03545,43.69005],[4.0357,43.69034],[4.03628,43.69067],[4.0366,43.69047],[4.03685,43.69038],[4.03704,43.69037],[4.03736,43.69042],[4.03767,43.69063],[4.03781,43.69077],[4.03797,43.69102],[4.03825,43.69126],[4.03823,43.69192],[4.03818,43.69197],[4.03782,43.69214],[4.03772,43.69229],[4.03762,43.69251],[4.03747,43.69286]]},"properties":{"slope_pct":0.4,"start_km":18.191,"end_km":18.848,"ele_start":34.6,"ele_end":37.1,"class":"plat","label":"Plat (−2 à 2 %)","color":"#22a650"}},{"type":"Feature","geometry":{"type":"LineString","coordinates":[[4.03747,43.69286],[4.03711,43.69368],[4.03713,43.69381]]},"properties":{"slope_pct":2.1,"start_km":18.848,"end_km":18.958,"ele_start":37.1,"ele_end":39.3,"class":"montee-faible","label":"Montée faible (2 à 4 %)","color":"#f2c418"}},{"type":"Feature","geometry":{"type":"LineString","coordinates":[[4.03713,43.69381],[4.03718,43.69385],[4.03749,43.69395],[4.03755,43.69403],[4.03755,43.69412],[4.03736,43.69468],[4.03737,43.69476],[4.03724,43.69502],[4.03747,43.69515],[4.03816,43.69564],[4.03899,43.69637],[4.03922,43.69659],[4.03963,43.69705],[4.03988,43.69731],[4.04047,43.69792],[4.04062,43.69811],[4.04214,43.69974],[4.04228,43.69989],[4.04289,43.70054]]},"properties":{"slope_pct":0.6,"start_km":18.958,"end_km":19.881,"ele_start":39.3,"ele_end":44.9,"class":"plat","label":"Plat (−2 à 2 %)","color":"#22a650"}},{"type":"Feature","geometry":{"type":"LineString","coordinates":[[4.04289,43.70054],[4.04346,43.70107],[4.04412,43.70155],[4.0443,43.70164],[4.04451,43.70179],[4.04593,43.70265],[4.04958,43.70477]]},"properties":{"slope_pct":-0.8,"start_km":19.881,"end_km":20.598,"ele_start":44.9,"ele_end":39.4,"class":"plat","label":"Plat (−2 à 2 %)","color":"#22a650"}},{"type":"Feature","geometry":{"type":"LineString","coordinates":[[4.04958,43.70477],[4.04974,43.70489],[4.04985,43.70493],[4.05366,43.70719],[4.05596,43.70853],[4.05611,43.70862],[4.0581,43.7098]]},"properties":{"slope_pct":0.2,"start_km":20.598,"end_km":21.482,"ele_start":39.4,"ele_end":40.8,"class":"plat","label":"Plat (−2 à 2 %)","color":"#22a650"}},{"type":"Feature","geometry":{"type":"LineString","coordinates":[[4.0581,43.7098],[4.05817,43.70984],[4.0631,43.71276],[4.06567,43.71425],[4.06584,43.71435],[4.06695,43.715]]},"properties":{"slope_pct":0.4,"start_km":21.482,"end_km":22.399,"ele_start":40.8,"ele_end":44.3,"class":"plat","label":"Plat (−2 à 2 %)","color":"#22a650"}},{"type":"Feature","geometry":{"type":"LineString","coordinates":[[4.06695,43.715],[4.06699,43.71504],[4.06696,43.71519],[4.06698,43.71522],[4.067,43.71525],[4.06717,43.71535],[4.06749,43.71542],[4.0677,43.7155],[4.06804,43.71564],[4.06921,43.71634],[4.07001,43.71687],[4.07061,43.7174],[4.07101,43.71782],[4.07146,43.71845],[4.0723,43.71982],[4.07278,43.72075]]},"properties":{"slope_pct":0.4,"start_km":22.399,"end_km":23.222,"ele_start":44.3,"ele_end":47.6,"class":"plat","label":"Plat (−2 à 2 %)","color":"#22a650"}},{"type":"Feature","geometry":{"type":"LineString","coordinates":[[4.07278,43.72075],[4.07315,43.72135],[4.0737,43.72242],[4.07414,43.72318],[4.07419,43.72329],[4.07457,43.72461]]},"properties":{"slope_pct":1.0,"start_km":23.222,"end_km":23.676,"ele_start":47.6,"ele_end":52.3,"class":"plat","label":"Plat (−2 à 2 %)","color":"#22a650"}},{"type":"Feature","geometry":{"type":"LineString","coordinates":[[4.07457,43.72461],[4.07477,43.72628]]},"properties":{"slope_pct":2.5,"start_km":23.676,"end_km":23.862,"ele_start":52.3,"ele_end":57.0,"class":"montee-faible","label":"Montée faible (2 à 4 %)","color":"#f2c418"}},{"type":"Feature","geometry":{"type":"LineString","coordinates":[[4.07477,43.72628],[4.07485,43.7276],[4.07486,43.7277],[4.07489,43.72817],[4.0751,43.73065],[4.07517,43.73093],[4.07512,43.73114],[4.07474,43.73269],[4.07435,43.73412]]},"properties":{"slope_pct":-0.7,"start_km":23.862,"end_km":24.741,"ele_start":57.0,"ele_end":50.7,"class":"plat","label":"Plat (−2 à 2 %)","color":"#22a650"}},{"type":"Feature","geometry":{"type":"LineString","coordinates":[[4.07435,43.73412],[4.0731,43.73842],[4.07304,43.73875],[4.07302,43.73889],[4.0731,43.73956]]},"properties":{"slope_pct":-1.4,"start_km":24.741,"end_km":25.358,"ele_start":50.7,"ele_end":42.2,"class":"plat","label":"Plat (−2 à 2 %)","color":"#22a650"}},{"type":"Feature","geometry":{"type":"LineString","coordinates":[[4.0731,43.73956],[4.07317,43.73985],[4.07349,43.7405]]},"properties":{"slope_pct":-2.8,"start_km":25.358,"end_km":25.468,"ele_start":42.2,"ele_end":39.1,"class":"descente-legere","label":"Descente légère (−4 à −2 %)","color":"#7cb4f5"}},{"type":"Feature","geometry":{"type":"LineString","coordinates":[[4.07349,43.7405],[4.07379,43.74091],[4.07411,43.74123],[4.07463,43.74164],[4.07522,43.74196],[4.07587,43.74224],[4.0766,43.74244],[4.07702,43.74251],[4.07745,43.74255],[4.07939,43.74268],[4.07948,43.7427],[4.07959,43.74277],[4.08018,43.74282],[4.08062,43.74293],[4.0807,43.7428],[4.08083,43.74278],[4.08175,43.74286],[4.08224,43.74295],[4.08268,43.74306],[4.08304,43.74318]]},"properties":{"slope_pct":-0.4,"start_km":25.468,"end_km":26.35,"ele_start":39.1,"ele_end":35.5,"class":"plat","label":"Plat (−2 à 2 %)","color":"#22a650"}},{"type":"Feature","geometry":{"type":"LineString","coordinates":[[4.08304,43.74318],[4.08366,43.7434],[4.08406,43.74359],[4.08481,43.74403],[4.08502,43.7442],[4.08527,43.74448],[4.08603,43.74525],[4.08638,43.74584],[4.08659,43.74644],[4.08667,43.74688],[4.08669,43.74739],[4.08658,43.7481],[4.0864,43.74903],[4.08637,43.74969],[4.08624,43.75072]]},"properties":{"slope_pct":-0.6,"start_km":26.35,"end_km":27.307,"ele_start":35.5,"ele_end":29.6,"class":"plat","label":"Plat (−2 à 2 %)","color":"#22a650"}},{"type":"Feature","geometry":{"type":"LineString","coordinates":[[4.08624,43.75072],[4.08605,43.75157],[4.08608,43.75161],[4.08607,43.7517],[4.08601,43.75204],[4.08595,43.75207],[4.08581,43.75208],[4.08571,43.75209],[4.08567,43.75213],[4.08554,43.75246],[4.0854,43.75353],[4.08547,43.75419],[4.08579,43.75528],[4.08581,43.75532],[4.08538,43.75572],[4.08526,43.75579],[4.08521,43.75585],[4.08511,43.75596],[4.0851,43.75599],[4.08456,43.75655],[4.08453,43.75652],[4.08413,43.75691],[4.08401,43.75697],[4.08401,43.75701],[4.08401,43.75709],[4.08326,43.7582]]},"properties":{"slope_pct":0.5,"start_km":27.307,"end_km":28.238,"ele_start":29.6,"ele_end":34.5,"class":"plat","label":"Plat (−2 à 2 %)","color":"#22a650"}},{"type":"Feature","geometry":{"type":"LineString","coordinates":[[4.08326,43.7582],[4.08304,43.75852],[4.08294,43.75866],[4.08286,43.75878],[4.08272,43.75899],[4.0825,43.75931],[4.08255,43.75935],[4.08251,43.75942],[4.08259,43.75948],[4.08297,43.75988],[4.08256,43.76019]]},"properties":{"slope_pct":-1.2,"start_km":28.238,"end_km":28.501,"ele_start":34.5,"ele_end":31.3,"class":"plat","label":"Plat (−2 à 2 %)","color":"#22a650"}},{"type":"Feature","geometry":{"type":"LineString","coordinates":[[4.08256,43.76019],[4.08241,43.76033],[4.08233,43.76046],[4.08223,43.76076],[4.08153,43.76123]]},"properties":{"slope_pct":-2.2,"start_km":28.501,"end_km":28.648,"ele_start":31.3,"ele_end":28.0,"class":"descente-legere","label":"Descente légère (−4 à −2 %)","color":"#7cb4f5"}},{"type":"Feature","geometry":{"type":"LineString","coordinates":[[4.08153,43.76123],[4.08118,43.76136],[4.08125,43.76158],[4.08134,43.7619],[4.08141,43.76216],[4.08128,43.76221],[4.08124,43.76223],[4.08039,43.76246],[4.07969,43.76274],[4.07923,43.76295],[4.07912,43.763],[4.07874,43.76318],[4.07858,43.76328],[4.07817,43.76362],[4.0781,43.76365],[4.07768,43.76374],[4.07726,43.76403],[4.07688,43.76437],[4.0764,43.76467],[4.07579,43.76513],[4.07545,43.76559],[4.07543,43.76561],[4.07518,43.76592],[4.07498,43.76646],[4.07486,43.76691]]},"properties":{"slope_pct":0.9,"start_km":28.648,"end_km":29.553,"ele_start":28.0,"ele_end":35.9,"class":"plat","label":"Plat (−2 à 2 %)","color":"#22a650"}},{"type":"Feature","geometry":{"type":"LineString","coordinates":[[4.07486,43.76691],[4.07458,43.76763],[4.07447,43.76774],[4.07453,43.76774],[4.07456,43.76781],[4.07449,43.7679],[4.07436,43.76824],[4.07441,43.76831],[4.07459,43.76845],[4.07467,43.76872],[4.07477,43.76892],[4.07491,43.76904],[4.0751,43.76915],[4.07568,43.76929]]},"properties":{"slope_pct":-0.5,"start_km":29.553,"end_km":29.885,"ele_start":35.9,"ele_end":34.4,"class":"plat","label":"Plat (−2 à 2 %)","color":"#22a650"}},{"type":"Feature","geometry":{"type":"LineString","coordinates":[[4.07568,43.76929],[4.07763,43.76955]]},"properties":{"slope_pct":-3.5,"start_km":29.885,"end_km":30.044,"ele_start":34.4,"ele_end":28.9,"class":"descente-legere","label":"Descente légère (−4 à −2 %)","color":"#7cb4f5"}},{"type":"Feature","geometry":{"type":"LineString","coordinates":[[4.07763,43.76955],[4.07733,43.76973],[4.07654,43.77074],[4.07651,43.77101],[4.07619,43.77173],[4.0761,43.77195],[4.07607,43.77212],[4.07592,43.77298],[4.07766,43.77312],[4.07776,43.77315],[4.07912,43.77329],[4.07918,43.77327],[4.08035,43.77323],[4.08056,43.77322],[4.08064,43.77324],[4.08077,43.77423]]},"properties":{"slope_pct":-0.6,"start_km":30.044,"end_km":30.953,"ele_start":28.9,"ele_end":23.8,"class":"plat","label":"Plat (−2 à 2 %)","color":"#22a650"}},{"type":"Feature","geometry":{"type":"LineString","coordinates":[[4.08077,43.77423],[4.08085,43.77461],[4.08079,43.77468],[4.0856,43.77362],[4.08572,43.77367],[4.08665,43.77517],[4.08675,43.77553],[4.08678,43.77571],[4.0867,43.77622],[4.08659,43.77651],[4.08642,43.77679],[4.08619,43.7773]]},"properties":{"slope_pct":-0.1,"start_km":30.953,"end_km":31.848,"ele_start":23.8,"ele_end":23.1,"class":"plat","label":"Plat (−2 à 2 %)","color":"#22a650"}},{"type":"Feature","geometry":{"type":"LineString","coordinates":[[4.08619,43.7773],[4.08609,43.77761],[4.08603,43.77794],[4.08601,43.77841],[4.08594,43.77869],[4.08584,43.77879],[4.0859,43.7788],[4.08614,43.77884],[4.08628,43.77884],[4.08634,43.7788],[4.08645,43.77877],[4.08658,43.77879],[4.08667,43.77885],[4.0868,43.77888],[4.08714,43.7789],[4.08741,43.77889],[4.0876,43.77892],[4.0877,43.77896],[4.08779,43.779],[4.08791,43.77917],[4.08801,43.78022],[4.08805,43.78062],[4.08802,43.78176],[4.0881,43.78184],[4.08817,43.78187],[4.08846,43.782],[4.0886,43.78206],[4.08935,43.78238],[4.08944,43.78244],[4.08885,43.78301],[4.08844,43.78344]]},"properties":{"slope_pct":0.4,"start_km":31.848,"end_km":32.768,"ele_start":23.1,"ele_end":26.9,"class":"plat","label":"Plat (−2 à 2 %)","color":"#22a650"}},{"type":"Feature","geometry":{"type":"LineString","coordinates":[[4.08844,43.78344],[4.08827,43.78363],[4.08799,43.78394],[4.08713,43.78486],[4.08729,43.78492],[4.08737,43.78495],[4.08729,43.78492],[4.08713,43.78486],[4.08799,43.78394],[4.08827,43.78363],[4.08844,43.78344],[4.08885,43.78301],[4.08944,43.78244],[4.08935,43.78238],[4.0886,43.78206],[4.08846,43.782],[4.08817,43.78187],[4.0881,43.78184],[4.08802,43.78176],[4.08757,43.78175],[4.08737,43.78179],[4.08721,43.78185],[4.08714,43.78194],[4.08717,43.78204],[4.08715,43.78213],[4.08709,43.78217],[4.087,43.78218],[4.08695,43.78217],[4.08685,43.78213],[4.0868,43.78208],[4.08674,43.78202],[4.08671,43.78197],[4.08658,43.78193],[4.0864,43.78189],[4.08621,43.78144],[4.08613,43.78138],[4.08603,43.78135],[4.08551,43.78129]]},"properties":{"slope_pct":-0.1,"start_km":32.768,"end_km":33.753,"ele_start":26.9,"ele_end":25.6,"class":"plat","label":"Plat (−2 à 2 %)","color":"#22a650"}},{"type":"Feature","geometry":{"type":"LineString","coordinates":[[4.08551,43.78129],[4.08543,43.78106],[4.08508,43.78068],[4.08473,43.78033],[4.08442,43.77996],[4.08429,43.77972],[4.08402,43.77931],[4.08385,43.77916],[4.08373,43.77909],[4.08368,43.77905],[4.08331,43.77873],[4.08272,43.77822],[4.08263,43.77819],[4.08246,43.77818],[4.08235,43.77786],[4.0822,43.77754],[4.082,43.77688],[4.08174,43.7764],[4.08156,43.77615],[4.08134,43.77598],[4.08105,43.77574],[4.08105,43.77574],[4.08095,43.77552],[4.08074,43.77499]]},"properties":{"slope_pct":-0.2,"start_km":33.753,"end_km":34.573,"ele_start":25.6,"ele_end":24.0,"class":"plat","label":"Plat (−2 à 2 %)","color":"#22a650"}},{"type":"Feature","geometry":{"type":"LineString","coordinates":[[4.08074,43.77499],[4.08073,43.77486],[4.08079,43.77468],[4.08085,43.77461],[4.08077,43.77423],[4.08064,43.77324],[4.08056,43.77322],[4.07918,43.77327],[4.07912,43.77329],[4.07776,43.77315],[4.07766,43.77312],[4.07592,43.77298],[4.07607,43.77212],[4.0761,43.77195],[4.07619,43.77173],[4.07651,43.77101],[4.07654,43.77074],[4.07733,43.76973]]},"properties":{"slope_pct":0.5,"start_km":34.573,"end_km":35.537,"ele_start":24.0,"ele_end":28.4,"class":"plat","label":"Plat (−2 à 2 %)","color":"#22a650"}},{"type":"Feature","geometry":{"type":"LineString","coordinates":[[4.07733,43.76973],[4.07763,43.76955],[4.07568,43.76929]]},"properties":{"slope_pct":3.1,"start_km":35.537,"end_km":35.727,"ele_start":28.4,"ele_end":34.4,"class":"montee-faible","label":"Montée faible (2 à 4 %)","color":"#f2c418"}},{"type":"Feature","geometry":{"type":"LineString","coordinates":[[4.07568,43.76929],[4.0751,43.76915],[4.07491,43.76904],[4.07477,43.76892],[4.07467,43.76872],[4.07459,43.76845],[4.07441,43.76831],[4.07436,43.76824],[4.07449,43.7679],[4.07456,43.76781],[4.07453,43.76774],[4.07447,43.76774],[4.07399,43.76782],[4.07353,43.76765],[4.07322,43.76747],[4.07299,43.76742],[4.0729,43.76742],[4.07274,43.76737],[4.0724,43.7672],[4.07212,43.76712],[4.07192,43.76711],[4.07161,43.76703],[4.07113,43.76686],[4.07085,43.76669],[4.07068,43.76665],[4.07057,43.76666],[4.07045,43.76674],[4.07038,43.76682],[4.0703,43.76703]]},"properties":{"slope_pct":0.2,"start_km":35.727,"end_km":36.359,"ele_start":34.4,"ele_end":35.6,"class":"plat","label":"Plat (−2 à 2 %)","color":"#22a650"}},{"type":"Feature","geometry":{"type":"LineString","coordinates":[[4.0703,43.76703],[4.07019,43.76714],[4.07009,43.7672],[4.07,43.76719],[4.06973,43.76709],[4.06935,43.76689],[4.06849,43.7663],[4.06846,43.76613],[4.06852,43.76604],[4.06837,43.76583],[4.06762,43.76518]]},"properties":{"slope_pct":-3.1,"start_km":36.359,"end_km":36.699,"ele_start":35.6,"ele_end":25.2,"class":"descente-legere","label":"Descente légère (−4 à −2 %)","color":"#7cb4f5"}},{"type":"Feature","geometry":{"type":"LineString","coordinates":[[4.06762,43.76518],[4.06757,43.76503],[4.06787,43.76479],[4.06816,43.76468],[4.06823,43.76465],[4.06839,43.76457]]},"properties":{"slope_pct":1.9,"start_km":36.699,"end_km":36.801,"ele_start":25.2,"ele_end":27.1,"class":"plat","label":"Plat (−2 à 2 %)","color":"#22a650"}},{"type":"Feature","geometry":{"type":"LineString","coordinates":[[4.06839,43.76457],[4.06834,43.76449],[4.06833,43.76443],[4.06842,43.76436],[4.06834,43.76429],[4.06838,43.76418],[4.06832,43.76407],[4.06807,43.76377]]},"properties":{"slope_pct":2.0,"start_km":36.801,"end_km":36.902,"ele_start":27.1,"ele_end":29.1,"class":"montee-faible","label":"Montée faible (2 à 4 %)","color":"#f2c418"}},{"type":"Feature","geometry":{"type":"LineString","coordinates":[[4.06807,43.76377],[4.06803,43.76369],[4.06798,43.76358],[4.06775,43.76334],[4.06762,43.76313],[4.06761,43.7631],[4.06756,43.763],[4.06745,43.76248],[4.06751,43.76222],[4.06752,43.76172],[4.06741,43.76122],[4.06741,43.76104],[4.06752,43.76053],[4.06752,43.76035],[4.06739,43.75973],[4.06755,43.75915],[4.06754,43.75902],[4.0674,43.75912],[4.0656,43.75985],[4.06437,43.76026]]},"properties":{"slope_pct":0.5,"start_km":36.902,"end_km":37.736,"ele_start":29.1,"ele_end":33.7,"class":"plat","label":"Plat (−2 à 2 %)","color":"#22a650"}},{"type":"Feature","geometry":{"type":"LineString","coordinates":[[4.06437,43.76026],[4.06426,43.76008],[4.0641,43.75934],[4.06377,43.7589],[4.06352,43.75875],[4.06299,43.75852],[4.06271,43.75837],[4.06255,43.75824],[4.06214,43.75782],[4.06176,43.75731],[4.06172,43.75718],[4.06172,43.75671]]},"properties":{"slope_pct":2.7,"start_km":37.736,"end_km":38.208,"ele_start":33.7,"ele_end":46.6,"class":"montee-faible","label":"Montée faible (2 à 4 %)","color":"#f2c418"}},{"type":"Feature","geometry":{"type":"LineString","coordinates":[[4.06172,43.75671],[4.06159,43.75615],[4.06148,43.7561],[4.06092,43.75648]]},"properties":{"slope_pct":-0.3,"start_km":38.208,"end_km":38.344,"ele_start":46.6,"ele_end":46.2,"class":"plat","label":"Plat (−2 à 2 %)","color":"#22a650"}},{"type":"Feature","geometry":{"type":"LineString","coordinates":[[4.06092,43.75648],[4.06089,43.7565],[4.06031,43.75698],[4.06023,43.75698],[4.06007,43.75687],[4.05998,43.75689],[4.05986,43.75705],[4.05966,43.75723],[4.05934,43.75765],[4.05881,43.75808]]},"properties":{"slope_pct":-3.2,"start_km":38.344,"end_km":38.612,"ele_start":46.2,"ele_end":37.6,"class":"descente-legere","label":"Descente légère (−4 à −2 %)","color":"#7cb4f5"}},{"type":"Feature","geometry":{"type":"LineString","coordinates":[[4.05881,43.75808],[4.05866,43.75815],[4.05849,43.75819],[4.05826,43.7582],[4.05825,43.75804],[4.05817,43.75736],[4.05809,43.757],[4.05789,43.75662],[4.05784,43.75649]]},"properties":{"slope_pct":1.1,"start_km":38.612,"end_km":38.854,"ele_start":37.6,"ele_end":40.3,"class":"plat","label":"Plat (−2 à 2 %)","color":"#22a650"}},{"type":"Feature","geometry":{"type":"LineString","coordinates":[[4.05784,43.75649],[4.05785,43.75577],[4.05776,43.75538]]},"properties":{"slope_pct":3.1,"start_km":38.854,"end_km":38.977,"ele_start":40.3,"ele_end":44.1,"class":"montee-faible","label":"Montée faible (2 à 4 %)","color":"#f2c418"}},{"type":"Feature","geometry":{"type":"LineString","coordinates":[[4.05776,43.75538],[4.05764,43.75522],[4.05753,43.75505],[4.05703,43.75453],[4.05657,43.75411],[4.05642,43.75386],[4.05613,43.75322]]},"properties":{"slope_pct":6.2,"start_km":38.977,"end_km":39.253,"ele_start":44.1,"ele_end":61.3,"class":"montee-moderee","label":"Montée modérée (4 à 7 %)","color":"#f59e0b"}},{"type":"Feature","geometry":{"type":"LineString","coordinates":[[4.05613,43.75322],[4.0557,43.7526],[4.05567,43.75246],[4.05568,43.75233],[4.05583,43.7517],[4.05585,43.75123]]},"properties":{"slope_pct":2.9,"start_km":39.253,"end_km":39.484,"ele_start":61.3,"ele_end":67.9,"class":"montee-faible","label":"Montée faible (2 à 4 %)","color":"#f2c418"}},{"type":"Feature","geometry":{"type":"LineString","coordinates":[[4.05585,43.75123],[4.05556,43.75046],[4.05558,43.75033],[4.05551,43.75025],[4.05541,43.74981],[4.05528,43.74948],[4.05462,43.74841],[4.05434,43.74806],[4.0538,43.74806],[4.05346,43.74797],[4.05308,43.74773],[4.05227,43.74735],[4.05207,43.74723],[4.05182,43.74697],[4.05147,43.74672],[4.05096,43.74643],[4.05039,43.74601],[4.04978,43.74568],[4.04901,43.74506],[4.04852,43.7448]]},"properties":{"slope_pct":-0.7,"start_km":39.484,"end_km":40.466,"ele_start":67.9,"ele_end":61.1,"class":"plat","label":"Plat (−2 à 2 %)","color":"#22a650"}},{"type":"Feature","geometry":{"type":"LineString","coordinates":[[4.04852,43.7448],[4.04736,43.74403],[4.04709,43.7438],[4.04666,43.74359],[4.04554,43.74329],[4.04467,43.74312],[4.04388,43.74273],[4.04207,43.74178],[4.04129,43.74124],[4.0408,43.74095],[4.0388,43.73979]]},"properties":{"slope_pct":-0.3,"start_km":40.466,"end_km":41.437,"ele_start":61.1,"ele_end":57.7,"class":"plat","label":"Plat (−2 à 2 %)","color":"#22a650"}},{"type":"Feature","geometry":{"type":"LineString","coordinates":[[4.0388,43.73979],[4.03853,43.73968],[4.03772,43.73944],[4.03762,43.7394],[4.03533,43.7387],[4.03355,43.73817],[4.03312,43.73799],[4.03282,43.73783],[4.03223,43.73742],[4.03183,43.73718],[4.03076,43.73668],[4.02992,43.73597]]},"properties":{"slope_pct":0.8,"start_km":41.437,"end_km":42.28,"ele_start":57.7,"ele_end":64.9,"class":"plat","label":"Plat (−2 à 2 %)","color":"#22a650"}},{"type":"Feature","geometry":{"type":"LineString","coordinates":[[4.02992,43.73597],[4.02966,43.73574],[4.02975,43.73568],[4.02979,43.73558],[4.03005,43.73462],[4.03029,43.7335],[4.03035,43.73304],[4.03041,43.73285],[4.03082,43.73205],[4.03103,43.73156],[4.03105,43.73147],[4.03097,43.73134],[4.03083,43.73133],[4.03067,43.73127],[4.03008,43.73102],[4.02994,43.73096],[4.02964,43.73075]]},"properties":{"slope_pct":2.8,"start_km":42.28,"end_km":42.947,"ele_start":64.9,"ele_end":83.6,"class":"montee-faible","label":"Montée faible (2 à 4 %)","color":"#f2c418"}},{"type":"Feature","geometry":{"type":"LineString","coordinates":[[4.02964,43.73075],[4.02938,43.73056],[4.02921,43.73037],[4.02912,43.73028],[4.02908,43.73024],[4.02908,43.73024],[4.02855,43.72999]]},"properties":{"slope_pct":7.5,"start_km":42.947,"end_km":43.071,"ele_start":83.6,"ele_end":92.8,"class":"montee-soutenue","label":"Montée soutenue (7 à 10 %)","color":"#ea580c"}},{"type":"Feature","geometry":{"type":"LineString","coordinates":[[4.02855,43.72999],[4.02802,43.72974],[4.02773,43.72955],[4.02767,43.72946],[4.027,43.72968]]},"properties":{"slope_pct":4.4,"start_km":43.071,"end_km":43.224,"ele_start":92.8,"ele_end":99.5,"class":"montee-moderee","label":"Montée modérée (4 à 7 %)","color":"#f59e0b"}},{"type":"Feature","geometry":{"type":"LineString","coordinates":[[4.027,43.72968],[4.02665,43.72977],[4.02629,43.72993],[4.02553,43.72993],[4.02475,43.72983],[4.02464,43.72977],[4.02464,43.72972],[4.0246,43.72961],[4.02447,43.72944],[4.02445,43.72919],[4.02427,43.72904],[4.02407,43.72881],[4.02402,43.72876],[4.02388,43.72865],[4.02376,43.72853],[4.02374,43.72852],[4.02366,43.72843],[4.02358,43.72843],[4.02328,43.72854],[4.02322,43.72852],[4.02285,43.72802],[4.02254,43.72776],[4.02241,43.7276],[4.02237,43.72747],[4.02237,43.72738],[4.0224,43.72611]]},"properties":{"slope_pct":-0.9,"start_km":43.224,"end_km":43.924,"ele_start":99.5,"ele_end":93.1,"class":"plat","label":"Plat (−2 à 2 %)","color":"#22a650"}},{"type":"Feature","geometry":{"type":"LineString","coordinates":[[4.0224,43.72611],[4.0224,43.7258],[4.02241,43.72431],[4.02241,43.72304]]},"properties":{"slope_pct":-3.2,"start_km":43.924,"end_km":44.265,"ele_start":93.1,"ele_end":82.2,"class":"descente-legere","label":"Descente légère (−4 à −2 %)","color":"#7cb4f5"}},{"type":"Feature","geometry":{"type":"LineString","coordinates":[[4.02241,43.72304],[4.02226,43.72302],[4.02208,43.72296],[4.02031,43.72218]]},"properties":{"slope_pct":1.7,"start_km":44.265,"end_km":44.46,"ele_start":82.2,"ele_end":85.7,"class":"plat","label":"Plat (−2 à 2 %)","color":"#22a650"}},{"type":"Feature","geometry":{"type":"LineString","coordinates":[[4.02031,43.72218],[4.01959,43.72179],[4.019,43.72112]]},"properties":{"slope_pct":2.7,"start_km":44.46,"end_km":44.621,"ele_start":85.7,"ele_end":90.0,"class":"montee-faible","label":"Montée faible (2 à 4 %)","color":"#f2c418"}},{"type":"Feature","geometry":{"type":"LineString","coordinates":[[4.019,43.72112],[4.01816,43.72033]]},"properties":{"slope_pct":0.7,"start_km":44.621,"end_km":44.732,"ele_start":90.0,"ele_end":90.7,"class":"plat","label":"Plat (−2 à 2 %)","color":"#22a650"}},{"type":"Feature","geometry":{"type":"LineString","coordinates":[[4.01816,43.72033],[4.01793,43.7203],[4.01735,43.7202],[4.01689,43.71996]]},"properties":{"slope_pct":-2.6,"start_km":44.732,"end_km":44.844,"ele_start":90.7,"ele_end":87.8,"class":"descente-legere","label":"Descente légère (−4 à −2 %)","color":"#7cb4f5"}},{"type":"Feature","geometry":{"type":"LineString","coordinates":[[4.01689,43.71996],[4.01675,43.71932],[4.01671,43.71925],[4.01655,43.719],[4.01635,43.71879],[4.01601,43.71845],[4.01587,43.71833],[4.01584,43.71821]]},"properties":{"slope_pct":-4.3,"start_km":44.844,"end_km":45.061,"ele_start":87.8,"ele_end":78.5,"class":"descente","label":"Descente (−8 à −4 %)","color":"#2563eb"}},{"type":"Feature","geometry":{"type":"LineString","coordinates":[[4.01584,43.71821],[4.01518,43.71725]]},"properties":{"slope_pct":-3.9,"start_km":45.061,"end_km":45.18,"ele_start":78.5,"ele_end":73.8,"class":"descente-legere","label":"Descente légère (−4 à −2 %)","color":"#7cb4f5"}},{"type":"Feature","geometry":{"type":"LineString","coordinates":[[4.01518,43.71725],[4.01511,43.717],[4.01516,43.71641],[4.01414,43.71485]]},"properties":{"slope_pct":-4.2,"start_km":45.18,"end_km":45.467,"ele_start":73.8,"ele_end":61.8,"class":"descente","label":"Descente (−8 à −4 %)","color":"#2563eb"}},{"type":"Feature","geometry":{"type":"LineString","coordinates":[[4.01414,43.71485],[4.01401,43.71456],[4.01397,43.71409],[4.01387,43.71398],[4.01345,43.71365],[4.0129,43.71253]]},"properties":{"slope_pct":-2.3,"start_km":45.467,"end_km":45.749,"ele_start":61.8,"ele_end":55.4,"class":"descente-legere","label":"Descente légère (−4 à −2 %)","color":"#7cb4f5"}},{"type":"Feature","geometry":{"type":"LineString","coordinates":[[4.0129,43.71253],[4.01294,43.71226],[4.01366,43.71096],[4.0137,43.71049],[4.01366,43.71014],[4.0138,43.70947],[4.01387,43.70905],[4.01407,43.70797],[4.01407,43.70752],[4.01404,43.70676],[4.01398,43.70676],[4.01394,43.70681],[4.01391,43.70693],[4.01392,43.7071],[4.01387,43.70715],[4.01364,43.70722],[4.01337,43.70728],[4.01289,43.70726],[4.01273,43.70714],[4.01279,43.70701],[4.01278,43.70683],[4.0124,43.70639]]},"properties":{"slope_pct":-0.8,"start_km":45.749,"end_km":46.648,"ele_start":55.4,"ele_end":48.4,"class":"plat","label":"Plat (−2 à 2 %)","color":"#22a650"}},{"type":"Feature","geometry":{"type":"LineString","coordinates":[[4.0124,43.70639],[4.01201,43.70619],[4.0117,43.70613],[4.01145,43.70617],[4.01121,43.70617],[4.01105,43.70614],[4.01098,43.70611],[4.01072,43.70593],[4.01068,43.7059],[4.01054,43.70561],[4.01032,43.7055],[4.01023,43.7054],[4.01027,43.7051],[4.01021,43.70487],[4.01028,43.70478],[4.01024,43.70467],[4.01017,43.70461],[4.01008,43.70459],[4.00983,43.70466],[4.00955,43.70474],[4.00924,43.70474],[4.00929,43.70481],[4.00928,43.7049],[4.00914,43.7051],[4.00914,43.70521],[4.00929,43.7054],[4.00972,43.70618],[4.00981,43.70631],[4.00985,43.70647],[4.00983,43.70663],[4.00991,43.70672],[4.01031,43.70703],[4.01081,43.70758],[4.011,43.70788]]},"properties":{"slope_pct":1.1,"start_km":46.648,"end_km":47.439,"ele_start":48.4,"ele_end":57.0,"class":"plat","label":"Plat (−2 à 2 %)","color":"#22a650"}},{"type":"Feature","geometry":{"type":"LineString","coordinates":[[4.011,43.70788],[4.01096,43.70795],[4.01074,43.70812],[4.0107,43.70824],[4.0107,43.70827],[4.01025,43.70869],[4.00941,43.70926],[4.00892,43.70954]]},"properties":{"slope_pct":2.9,"start_km":47.439,"end_km":47.693,"ele_start":57.0,"ele_end":64.4,"class":"montee-faible","label":"Montée faible (2 à 4 %)","color":"#f2c418"}},{"type":"Feature","geometry":{"type":"LineString","coordinates":[[4.00892,43.70954],[4.00859,43.70978],[4.0085,43.7099],[4.008,43.71028]]},"properties":{"slope_pct":4.7,"start_km":47.693,"end_km":47.803,"ele_start":64.4,"ele_end":69.5,"class":"montee-moderee","label":"Montée modérée (4 à 7 %)","color":"#f59e0b"}},{"type":"Feature","geometry":{"type":"LineString","coordinates":[[4.008,43.71028],[4.00702,43.71127]]},"properties":{"slope_pct":3.8,"start_km":47.803,"end_km":47.939,"ele_start":69.5,"ele_end":74.7,"class":"montee-faible","label":"Montée faible (2 à 4 %)","color":"#f2c418"}},{"type":"Feature","geometry":{"type":"LineString","coordinates":[[4.00702,43.71127],[4.00696,43.71141],[4.0066,43.7115],[4.00612,43.71163],[4.00602,43.71177],[4.00573,43.712],[4.00555,43.71213],[4.00518,43.71241],[4.0046,43.71283],[4.00437,43.71295],[4.00439,43.71288],[4.00449,43.7125],[4.0045,43.71243],[4.0045,43.71226]]},"properties":{"slope_pct":1.3,"start_km":47.939,"end_km":48.31,"ele_start":74.7,"ele_end":79.6,"class":"plat","label":"Plat (−2 à 2 %)","color":"#22a650"}},{"type":"Feature","geometry":{"type":"LineString","coordinates":[[4.0045,43.71226],[4.00449,43.71214],[4.00446,43.71198],[4.0045,43.71166],[4.00449,43.71131]]},"properties":{"slope_pct":-2.1,"start_km":48.31,"end_km":48.416,"ele_start":79.6,"ele_end":77.4,"class":"descente-legere","label":"Descente légère (−4 à −2 %)","color":"#7cb4f5"}},{"type":"Feature","geometry":{"type":"LineString","coordinates":[[4.00449,43.71131],[4.00462,43.71096],[4.00512,43.71022]]},"properties":{"slope_pct":-4.8,"start_km":48.416,"end_km":48.548,"ele_start":77.4,"ele_end":71.0,"class":"descente","label":"Descente (−8 à −4 %)","color":"#2563eb"}},{"type":"Feature","geometry":{"type":"LineString","coordinates":[[4.00512,43.71022],[4.00529,43.70997],[4.0053,43.70973],[4.0053,43.70961],[4.00526,43.70945],[4.0052,43.70923],[4.00508,43.70926],[4.00502,43.70923],[4.00498,43.70914],[4.00474,43.70843],[4.00458,43.7079],[4.0046,43.70784],[4.00452,43.70779],[4.0041,43.70734],[4.00361,43.7065],[4.00277,43.70498]]},"properties":{"slope_pct":-2.9,"start_km":48.548,"end_km":49.188,"ele_start":71.0,"ele_end":52.4,"class":"descente-legere","label":"Descente légère (−4 à −2 %)","color":"#7cb4f5"}},{"type":"Feature","geometry":{"type":"LineString","coordinates":[[4.00277,43.70498],[4.00277,43.70485],[4.00266,43.70461],[4.00262,43.70438],[4.00258,43.70433],[4.0019,43.7036],[4.00166,43.70337],[4.00125,43.70275],[4.00096,43.70237],[4.00059,43.70201],[4.00039,43.70182],[4.00038,43.70181],[4.00025,43.70173],[4.00023,43.70164],[4.0002,43.70157],[4.00003,43.70143],[3.99975,43.70107],[3.99972,43.70102],[3.99965,43.70089],[3.99964,43.70072],[3.9995,43.70041],[3.99946,43.70024],[3.9993,43.70011],[3.99923,43.70008],[3.99917,43.69996],[3.99923,43.69985],[3.99899,43.69917],[3.99892,43.69867],[3.99878,43.69819]]},"properties":{"slope_pct":0.0,"start_km":49.188,"end_km":50.031,"ele_start":52.4,"ele_end":52.6,"class":"plat","label":"Plat (−2 à 2 %)","color":"#22a650"}},{"type":"Feature","geometry":{"type":"LineString","coordinates":[[3.99878,43.69819],[3.99868,43.69799],[3.99846,43.6979],[3.99822,43.69772],[3.99801,43.69729]]},"properties":{"slope_pct":3.1,"start_km":50.031,"end_km":50.155,"ele_start":52.6,"ele_end":56.5,"class":"montee-faible","label":"Montée faible (2 à 4 %)","color":"#f2c418"}},{"type":"Feature","geometry":{"type":"LineString","coordinates":[[3.99801,43.69729],[3.99782,43.69719],[3.99774,43.69742],[3.99721,43.6981],[3.99709,43.69821],[3.9969,43.6983],[3.99609,43.69852]]},"properties":{"slope_pct":1.8,"start_km":50.155,"end_km":50.389,"ele_start":56.5,"ele_end":60.8,"class":"plat","label":"Plat (−2 à 2 %)","color":"#22a650"}},{"type":"Feature","geometry":{"type":"LineString","coordinates":[[3.99609,43.69852],[3.9952,43.69883],[3.99498,43.69889],[3.99446,43.69893],[3.99379,43.69915],[3.99326,43.69929]]},"properties":{"slope_pct":2.7,"start_km":50.389,"end_km":50.634,"ele_start":60.8,"ele_end":67.3,"class":"montee-faible","label":"Montée faible (2 à 4 %)","color":"#f2c418"}},{"type":"Feature","geometry":{"type":"LineString","coordinates":[[3.99326,43.69929],[3.99279,43.69937],[3.9913,43.69982],[3.99114,43.69982],[3.99092,43.69987],[3.99031,43.69977],[3.98981,43.69973]]},"properties":{"slope_pct":0.1,"start_km":50.634,"end_km":50.925,"ele_start":67.3,"ele_end":67.5,"class":"plat","label":"Plat (−2 à 2 %)","color":"#22a650"}},{"type":"Feature","geometry":{"type":"LineString","coordinates":[[3.98981,43.69973],[3.98856,43.69958]]},"properties":{"slope_pct":2.2,"start_km":50.925,"end_km":51.027,"ele_start":67.5,"ele_end":69.7,"class":"montee-faible","label":"Montée faible (2 à 4 %)","color":"#f2c418"}},{"type":"Feature","geometry":{"type":"LineString","coordinates":[[3.98856,43.69958],[3.98805,43.69944],[3.98742,43.69931],[3.98667,43.69938],[3.98629,43.69941],[3.98565,43.69938],[3.98519,43.69943],[3.98456,43.69942],[3.98344,43.69926],[3.98277,43.69929],[3.98263,43.69926],[3.98255,43.69921],[3.98245,43.69894],[3.98239,43.69887],[3.98258,43.69845],[3.98263,43.69821],[3.98294,43.69655]]},"properties":{"slope_pct":0.8,"start_km":51.027,"end_km":51.824,"ele_start":69.7,"ele_end":76.5,"class":"plat","label":"Plat (−2 à 2 %)","color":"#22a650"}},{"type":"Feature","geometry":{"type":"LineString","coordinates":[[3.98294,43.69655],[3.98292,43.69637],[3.98288,43.6961],[3.98283,43.69603],[3.98253,43.69606],[3.98236,43.69599],[3.98224,43.69591]]},"properties":{"slope_pct":2.2,"start_km":51.824,"end_km":51.936,"ele_start":76.5,"ele_end":78.9,"class":"montee-faible","label":"Montée faible (2 à 4 %)","color":"#f2c418"}},{"type":"Feature","geometry":{"type":"LineString","coordinates":[[3.98224,43.69591],[3.98207,43.69573],[3.98154,43.69537],[3.98131,43.69516]]},"properties":{"slope_pct":-1.8,"start_km":51.936,"end_km":52.048,"ele_start":78.9,"ele_end":76.8,"class":"plat","label":"Plat (−2 à 2 %)","color":"#22a650"}},{"type":"Feature","geometry":{"type":"LineString","coordinates":[[3.98131,43.69516],[3.98107,43.69509],[3.98098,43.69496],[3.98086,43.69468],[3.98072,43.69452],[3.9805,43.69449]]},"properties":{"slope_pct":-4.2,"start_km":52.048,"end_km":52.157,"ele_start":76.8,"ele_end":72.2,"class":"descente","label":"Descente (−8 à −4 %)","color":"#2563eb"}},{"type":"Feature","geometry":{"type":"LineString","coordinates":[[3.9805,43.69449],[3.97998,43.69462],[3.97974,43.69465],[3.97927,43.69477],[3.97867,43.69497],[3.97831,43.69506],[3.9777,43.69517],[3.97722,43.6953],[3.97689,43.69536],[3.97621,43.69546],[3.97448,43.69574],[3.97438,43.69558],[3.97467,43.69519],[3.97435,43.69528],[3.97352,43.69541],[3.97241,43.69539],[3.97166,43.69532],[3.97121,43.69536],[3.9711,43.69532],[3.97111,43.69513],[3.97097,43.69507],[3.96993,43.69478]]},"properties":{"slope_pct":-0.5,"start_km":52.157,"end_km":53.146,"ele_start":72.2,"ele_end":66.9,"class":"plat","label":"Plat (−2 à 2 %)","color":"#22a650"}},{"type":"Feature","geometry":{"type":"LineString","coordinates":[[3.96993,43.69478],[3.96982,43.69468],[3.96975,43.69463],[3.96906,43.69446],[3.96729,43.69385],[3.96656,43.69379],[3.96614,43.69383],[3.96525,43.69385],[3.96492,43.69391],[3.96478,43.69391],[3.96469,43.69391],[3.96408,43.69423],[3.96358,43.69441],[3.96331,43.6945],[3.9626,43.69463],[3.96168,43.69474],[3.96123,43.69482],[3.96118,43.69472],[3.96104,43.69471],[3.96023,43.6951],[3.95998,43.69532],[3.95998,43.69541],[3.95955,43.69565],[3.95923,43.69586]]},"properties":{"slope_pct":-0.4,"start_km":53.146,"end_km":54.117,"ele_start":66.9,"ele_end":63.1,"class":"plat","label":"Plat (−2 à 2 %)","color":"#22a650"}},{"type":"Feature","geometry":{"type":"LineString","coordinates":[[3.95923,43.69586],[3.95869,43.69601],[3.95851,43.69597],[3.95843,43.69601],[3.95839,43.69606],[3.95828,43.69607],[3.95802,43.69606],[3.95787,43.69603],[3.95799,43.69589],[3.95805,43.69574],[3.95818,43.69551],[3.95835,43.69517],[3.95837,43.69504],[3.95829,43.69466],[3.95801,43.69398],[3.95777,43.69342],[3.95764,43.6929],[3.95739,43.69242],[3.95728,43.6922],[3.95717,43.69188],[3.95708,43.69161],[3.95681,43.69121],[3.95628,43.6905],[3.95596,43.68997],[3.95601,43.68986],[3.95617,43.68971],[3.95641,43.68931]]},"properties":{"slope_pct":0.2,"start_km":54.117,"end_km":55.036,"ele_start":63.1,"ele_end":64.5,"class":"plat","label":"Plat (−2 à 2 %)","color":"#22a650"}},{"type":"Feature","geometry":{"type":"LineString","coordinates":[[3.95641,43.68931],[3.95646,43.68911],[3.95646,43.68875],[3.95653,43.68848],[3.95652,43.68833]]},"properties":{"slope_pct":-2.3,"start_km":55.036,"end_km":55.145,"ele_start":64.5,"ele_end":62.0,"class":"descente-legere","label":"Descente légère (−4 à −2 %)","color":"#7cb4f5"}},{"type":"Feature","geometry":{"type":"LineString","coordinates":[[3.95652,43.68833],[3.95652,43.68825],[3.95644,43.68808],[3.95645,43.68786],[3.95641,43.68764],[3.95643,43.68735],[3.95664,43.68682],[3.95663,43.68659],[3.95675,43.68639],[3.95667,43.68627],[3.95649,43.68623],[3.95586,43.68659],[3.95579,43.68661],[3.95571,43.68659],[3.95505,43.68616],[3.95442,43.68571],[3.9538,43.68505],[3.95327,43.68453],[3.95298,43.68434],[3.95233,43.68401],[3.95209,43.68386]]},"properties":{"slope_pct":-0.5,"start_km":55.145,"end_km":55.898,"ele_start":62.0,"ele_end":58.4,"class":"plat","label":"Plat (−2 à 2 %)","color":"#22a650"}},{"type":"Feature","geometry":{"type":"LineString","coordinates":[[3.95209,43.68386],[3.95146,43.68333],[3.95146,43.68328],[3.95147,43.68325],[3.95166,43.68301]]},"properties":{"slope_pct":4.1,"start_km":55.898,"end_km":56.015,"ele_start":58.4,"ele_end":63.2,"class":"montee-moderee","label":"Montée modérée (4 à 7 %)","color":"#f59e0b"}},{"type":"Feature","geometry":{"type":"LineString","coordinates":[[3.95166,43.68301],[3.95176,43.68281],[3.95182,43.68257],[3.95293,43.68152],[3.95395,43.68019],[3.95432,43.67948],[3.95441,43.67913],[3.95458,43.6789],[3.95464,43.67881],[3.95487,43.6783],[3.955,43.67801],[3.95502,43.6775],[3.95475,43.67703],[3.95479,43.67664],[3.95504,43.6761]]},"properties":{"slope_pct":0.5,"start_km":56.015,"end_km":56.859,"ele_start":63.2,"ele_end":67.1,"class":"plat","label":"Plat (−2 à 2 %)","color":"#22a650"}},{"type":"Feature","geometry":{"type":"LineString","coordinates":[[3.95504,43.6761],[3.95547,43.67536],[3.95402,43.67589],[3.95291,43.67622],[3.95287,43.67624],[3.95201,43.67673],[3.95134,43.67717],[3.95064,43.67773],[3.95055,43.67778],[3.9502,43.67796],[3.94978,43.67821],[3.94944,43.67836],[3.94933,43.67841],[3.94894,43.67834]]},"properties":{"slope_pct":1.1,"start_km":56.859,"end_km":57.586,"ele_start":67.1,"ele_end":75.4,"class":"plat","label":"Plat (−2 à 2 %)","color":"#22a650"}},{"type":"Feature","geometry":{"type":"LineString","coordinates":[[3.94894,43.67834],[3.94858,43.6784],[3.94834,43.67835],[3.94808,43.67822],[3.94793,43.67813],[3.94774,43.67803],[3.94746,43.67773],[3.94746,43.67767],[3.94713,43.67745],[3.94672,43.67717]]},"properties":{"slope_pct":2.5,"start_km":57.586,"end_km":57.824,"ele_start":75.4,"ele_end":81.3,"class":"montee-faible","label":"Montée faible (2 à 4 %)","color":"#f2c418"}},{"type":"Feature","geometry":{"type":"LineString","coordinates":[[3.94672,43.67717],[3.94642,43.67702],[3.94629,43.67697],[3.94594,43.67676],[3.94513,43.67657]]},"properties":{"slope_pct":-4.7,"start_km":57.824,"end_km":57.97,"ele_start":81.3,"ele_end":74.4,"class":"descente","label":"Descente (−8 à −4 %)","color":"#2563eb"}},{"type":"Feature","geometry":{"type":"LineString","coordinates":[[3.94513,43.67657],[3.94447,43.67646],[3.94395,43.67645],[3.9437,43.67642]]},"properties":{"slope_pct":-8.0,"start_km":57.97,"end_km":58.087,"ele_start":74.4,"ele_end":65.1,"class":"descente-forte","label":"Descente forte (< −8 %)","color":"#1e3a8a"}},{"type":"Feature","geometry":{"type":"LineString","coordinates":[[3.9437,43.67642],[3.94367,43.67631],[3.9434,43.67596],[3.94296,43.67585],[3.94241,43.67571]]},"properties":{"slope_pct":-5.2,"start_km":58.087,"end_km":58.228,"ele_start":65.1,"ele_end":57.6,"class":"descente","label":"Descente (−8 à −4 %)","color":"#2563eb"}},{"type":"Feature","geometry":{"type":"LineString","coordinates":[[3.94241,43.67571],[3.9422,43.67578],[3.94113,43.67742],[3.9403,43.67838],[3.94006,43.67866],[3.94001,43.67871],[3.93995,43.67872],[3.93971,43.67865],[3.93944,43.67859],[3.93846,43.67845],[3.93836,43.67844],[3.93735,43.67829],[3.93686,43.67829],[3.93578,43.67831],[3.93563,43.67816]]},"properties":{"slope_pct":0.2,"start_km":58.228,"end_km":58.984,"ele_start":57.6,"ele_end":59.0,"class":"plat","label":"Plat (−2 à 2 %)","color":"#22a650"}},{"type":"Feature","geometry":{"type":"LineString","coordinates":[[3.93563,43.67816],[3.93527,43.67822],[3.9352,43.67823],[3.9352,43.67826],[3.93228,43.67871],[3.93168,43.6788],[3.93147,43.67884],[3.93128,43.67888],[3.93049,43.67901],[3.93038,43.67903],[3.93027,43.67904],[3.92929,43.67923],[3.92831,43.67955],[3.92794,43.67969],[3.92776,43.67977],[3.92767,43.67981],[3.9276,43.67981],[3.92714,43.68002],[3.92612,43.68045],[3.92598,43.68053],[3.92585,43.68058],[3.92564,43.68062],[3.92561,43.68065],[3.92555,43.68067],[3.9255,43.68062],[3.92503,43.68078],[3.92488,43.68083]]},"properties":{"slope_pct":0.1,"start_km":58.984,"end_km":59.916,"ele_start":59.0,"ele_end":59.6,"class":"plat","label":"Plat (−2 à 2 %)","color":"#22a650"}},{"type":"Feature","geometry":{"type":"LineString","coordinates":[[3.92488,43.68083],[3.92366,43.68124],[3.92363,43.6812],[3.92354,43.68124],[3.92321,43.68137],[3.92241,43.68176],[3.92232,43.68176],[3.92217,43.68172],[3.92199,43.68147],[3.92196,43.68148],[3.92192,43.68144],[3.92169,43.68109],[3.92113,43.68026],[3.92043,43.67921],[3.92001,43.67862],[3.91976,43.67828],[3.91944,43.67795],[3.91744,43.67601]]},"properties":{"slope_pct":-0.0,"start_km":59.916,"end_km":60.91,"ele_start":59.6,"ele_end":59.3,"class":"plat","label":"Plat (−2 à 2 %)","color":"#22a650"}},{"type":"Feature","geometry":{"type":"LineString","coordinates":[[3.91744,43.67601],[3.91686,43.67546],[3.91615,43.67477],[3.9161,43.67475],[3.91605,43.67474],[3.91401,43.67277],[3.91357,43.67227],[3.91333,43.67188],[3.91334,43.67178],[3.91344,43.67163],[3.91344,43.67157],[3.91344,43.67149],[3.91344,43.67145],[3.91336,43.67139],[3.91332,43.67129],[3.91313,43.67125],[3.91299,43.67119],[3.91287,43.67103],[3.91262,43.67061],[3.91197,43.66983]]},"properties":{"slope_pct":-0.4,"start_km":60.91,"end_km":61.751,"ele_start":59.3,"ele_end":55.6,"class":"plat","label":"Plat (−2 à 2 %)","color":"#22a650"}},{"type":"Feature","geometry":{"type":"LineString","coordinates":[[3.91197,43.66983],[3.91084,43.66857],[3.91059,43.66837],[3.90962,43.6677],[3.90958,43.66759],[3.90959,43.66743],[3.90956,43.66739],[3.9095,43.66734],[3.90943,43.6673],[3.90908,43.6673],[3.90894,43.66726],[3.90758,43.66623]]},"properties":{"slope_pct":-0.1,"start_km":61.751,"end_km":62.304,"ele_start":55.6,"ele_end":54.9,"class":"plat","label":"Plat (−2 à 2 %)","color":"#22a650"}},{"type":"Feature","geometry":{"type":"LineString","coordinates":[[3.90758,43.66623],[3.90711,43.66591],[3.90668,43.66574],[3.90634,43.66568],[3.90601,43.66566],[3.90444,43.66564]]},"properties":{"slope_pct":3.5,"start_km":62.304,"end_km":62.576,"ele_start":54.9,"ele_end":64.3,"class":"montee-faible","label":"Montée faible (2 à 4 %)","color":"#f2c418"}},{"type":"Feature","geometry":{"type":"LineString","coordinates":[[3.90444,43.66564],[3.90416,43.6656],[3.90394,43.66553],[3.90368,43.6654],[3.90348,43.66515],[3.90342,43.66489],[3.90341,43.66442],[3.90336,43.66422]]},"properties":{"slope_pct":0.1,"start_km":62.576,"end_km":62.781,"ele_start":64.3,"ele_end":64.5,"class":"plat","label":"Plat (−2 à 2 %)","color":"#22a650"}},{"type":"Feature","geometry":{"type":"LineString","coordinates":[[3.90336,43.66422],[3.90325,43.66398],[3.90283,43.66302]]},"properties":{"slope_pct":-2.5,"start_km":62.781,"end_km":62.92,"ele_start":64.5,"ele_end":61.0,"class":"descente-legere","label":"Descente légère (−4 à −2 %)","color":"#7cb4f5"}},{"type":"Feature","geometry":{"type":"LineString","coordinates":[[3.90283,43.66302],[3.90285,43.66287],[3.90289,43.66282],[3.90296,43.66278],[3.90306,43.66271],[3.90309,43.66261],[3.90309,43.66253],[3.90307,43.66244],[3.90294,43.66234],[3.90262,43.66228],[3.90254,43.6622],[3.90224,43.6613],[3.90184,43.66064],[3.90164,43.66008],[3.90165,43.66003],[3.90159,43.66004],[3.90156,43.66005],[3.90141,43.66008],[3.90137,43.66009],[3.901,43.66006],[3.90089,43.66003],[3.90053,43.65984],[3.90018,43.65985],[3.90001,43.65988],[3.89975,43.65996],[3.89965,43.66004],[3.89963,43.66011],[3.89958,43.66013],[3.89953,43.66014],[3.89952,43.66011],[3.89947,43.66012],[3.89941,43.66007],[3.89928,43.66004],[3.89886,43.66009],[3.89833,43.66012],[3.898,43.66006],[3.89768,43.66007],[3.89667,43.66018],[3.89656,43.66017],[3.89656,43.66014],[3.8965,43.66014],[3.89644,43.66019],[3.89633,43.6602],[3.89629,43.66018],[3.89621,43.6602],[3.89582,43.66023],[3.89555,43.66025],[3.89554,43.66028]]},"properties":{"slope_pct":0.2,"start_km":62.92,"end_km":63.829,"ele_start":61.0,"ele_end":62.8,"class":"plat","label":"Plat (−2 à 2 %)","color":"#22a650"}},{"type":"Feature","geometry":{"type":"LineString","coordinates":[[3.89554,43.66028],[3.89543,43.66027],[3.8954,43.66027],[3.89528,43.66026],[3.89426,43.65996],[3.89353,43.6598],[3.89227,43.65949]]},"properties":{"slope_pct":1.0,"start_km":63.829,"end_km":64.106,"ele_start":62.8,"ele_end":65.6,"class":"plat","label":"Plat (−2 à 2 %)","color":"#22a650"}},{"type":"Feature","geometry":{"type":"LineString","coordinates":[[3.89227,43.65949],[3.89179,43.65966],[3.89175,43.65967],[3.89135,43.65978],[3.89117,43.65975],[3.89064,43.65945]]},"properties":{"slope_pct":5.2,"start_km":64.106,"end_km":64.256,"ele_start":65.6,"ele_end":73.5,"class":"montee-moderee","label":"Montée modérée (4 à 7 %)","color":"#f59e0b"}},{"type":"Feature","geometry":{"type":"LineString","coordinates":[[3.89064,43.65945],[3.89054,43.6594],[3.89025,43.65923],[3.89008,43.65917],[3.88993,43.65911],[3.88992,43.65909],[3.88988,43.65901],[3.88984,43.65894],[3.88984,43.6589],[3.8895,43.65861]]},"properties":{"slope_pct":3.9,"start_km":64.256,"end_km":64.393,"ele_start":73.5,"ele_end":78.9,"class":"montee-faible","label":"Montée faible (2 à 4 %)","color":"#f2c418"}},{"type":"Feature","geometry":{"type":"LineString","coordinates":[[3.8895,43.65861],[3.88949,43.6586],[3.88923,43.65846],[3.88885,43.65828],[3.88833,43.65811],[3.88771,43.65782],[3.8876,43.65777],[3.88699,43.65756],[3.88698,43.65754],[3.88671,43.65744],[3.88656,43.65736],[3.88644,43.65729],[3.88629,43.65721],[3.88606,43.65705],[3.88597,43.657]]},"properties":{"slope_pct":-5.4,"start_km":64.393,"end_km":64.731,"ele_start":78.9,"ele_end":60.7,"class":"descente","label":"Descente (−8 à −4 %)","color":"#2563eb"}},{"type":"Feature","geometry":{"type":"LineString","coordinates":[[3.88597,43.657],[3.88578,43.65687],[3.88544,43.6568],[3.88487,43.6567],[3.88455,43.65662]]},"properties":{"slope_pct":-3.2,"start_km":64.731,"end_km":64.854,"ele_start":60.7,"ele_end":56.7,"class":"descente-legere","label":"Descente légère (−4 à −2 %)","color":"#7cb4f5"}},{"type":"Feature","geometry":{"type":"LineString","coordinates":[[3.88455,43.65662],[3.88394,43.65651],[3.88365,43.65639],[3.8826,43.65599],[3.88234,43.65589],[3.88126,43.65548],[3.8812,43.65544],[3.88107,43.65538],[3.88102,43.65537],[3.88096,43.65533],[3.88098,43.65526],[3.88095,43.65525],[3.8809,43.65523],[3.88084,43.65521]]},"properties":{"slope_pct":-1.0,"start_km":64.854,"end_km":65.198,"ele_start":56.7,"ele_end":53.1,"class":"plat","label":"Plat (−2 à 2 %)","color":"#22a650"}}]}
