{"type":"FeatureCollection","generator":"tools/slope_colors.py","format_version":1,"source_gpx":"2026-07-24_3137638203_TMP - Clapiers - La Gardiole.gpx","source_sha256":"bc042068c8a47dc24aab65546dd0d7ab5579d0ed4b61326117b9e0c038f7f152","params_fingerprint":"9b5318af1abbe178","params":{"segment_length_m":100.0,"smoothing_window_m":150.0,"resample_step_m":10.0,"max_merged_length_m":1000.0,"classes":[{"key":"descente-forte","label":"Descente forte (< −8 %)","min":null,"max":-8.0,"color":"#1e3a8a"},{"key":"descente","label":"Descente (−8 à −4 %)","min":-8.0,"max":-4.0,"color":"#2563eb"},{"key":"descente-legere","label":"Descente légère (−4 à −2 %)","min":-4.0,"max":-2.0,"color":"#7cb4f5"},{"key":"plat","label":"Plat (−2 à 2 %)","min":-2.0,"max":2.0,"color":"#22a650"},{"key":"montee-faible","label":"Montée faible (2 à 4 %)","min":2.0,"max":4.0,"color":"#f2c418"},{"key":"montee-moderee","label":"Montée modérée (4 à 7 %)","min":4.0,"max":7.0,"color":"#f59e0b"},{"key":"montee-soutenue","label":"Montée soutenue (7 à 10 %)","min":7.0,"max":10.0,"color":"#ea580c"},{"key":"montee-forte","label":"Montée forte (≥ 10 %)","min":10.0,"max":null,"color":"#dc2626"}]},"legend":[{"key":"descente-forte","label":"Descente forte (< −8 %)","min":null,"max":-8.0,"color":"#1e3a8a"},{"key":"descente","label":"Descente (−8 à −4 %)","min":-8.0,"max":-4.0,"color":"#2563eb"},{"key":"descente-legere","label":"Descente légère (−4 à −2 %)","min":-4.0,"max":-2.0,"color":"#7cb4f5"},{"key":"plat","label":"Plat (−2 à 2 %)","min":-2.0,"max":2.0,"color":"#22a650"},{"key":"montee-faible","label":"Montée faible (2 à 4 %)","min":2.0,"max":4.0,"color":"#f2c418"},{"key":"montee-moderee","label":"Montée modérée (4 à 7 %)","min":4.0,"max":7.0,"color":"#f59e0b"},{"key":"montee-soutenue","label":"Montée soutenue (7 à 10 %)","min":7.0,"max":10.0,"color":"#ea580c"},{"key":"montee-forte","label":"Montée forte (≥ 10 %)","min":10.0,"max":null,"color":"#dc2626"}],"stats":{"distance_km":70.0,"elevation_valid_ratio":1.0,"elevation_ok":true,"smoothed_gain_m":692,"max_slope_pct":9.0,"min_slope_pct":-9.0},"features":[{"type":"Feature","geometry":{"type":"LineString","coordinates":[[3.88102,43.65523],[3.88113,43.65524],[3.88117,43.65528],[3.88116,43.65534],[3.88107,43.65538],[3.88102,43.65537],[3.88092,43.65543],[3.88082,43.65558],[3.88069,43.65557],[3.88068,43.65546],[3.88053,43.65542],[3.88043,43.65539],[3.87983,43.65523],[3.8795,43.65515],[3.87928,43.65509],[3.87877,43.65494],[3.87867,43.65489],[3.87829,43.65492],[3.87647,43.65497],[3.87531,43.65499],[3.87528,43.65493],[3.87475,43.65486]]},"properties":{"slope_pct":-0.9,"start_km":0.0,"end_km":0.58,"ele_start":52.6,"ele_end":47.2,"class":"plat","label":"Plat (−2 à 2 %)","color":"#22a650"}},{"type":"Feature","geometry":{"type":"LineString","coordinates":[[3.87475,43.65486],[3.87471,43.65485],[3.87469,43.65479],[3.87479,43.65445],[3.87478,43.65441],[3.87473,43.65438],[3.8738,43.65391],[3.87368,43.65378],[3.87351,43.65365],[3.87295,43.65317]]},"properties":{"slope_pct":-2.2,"start_km":0.58,"end_km":0.838,"ele_start":47.2,"ele_end":41.6,"class":"descente-legere","label":"Descente légère (−4 à −2 %)","color":"#7cb4f5"}},{"type":"Feature","geometry":{"type":"LineString","coordinates":[[3.87295,43.65317],[3.87192,43.65236],[3.87139,43.65208],[3.87081,43.6518],[3.87026,43.65158],[3.8695,43.65129],[3.86891,43.65111],[3.86811,43.65091],[3.86709,43.65078],[3.8668,43.65071],[3.86655,43.65061],[3.86636,43.65051],[3.86624,43.65043],[3.8662,43.65039],[3.86617,43.65037],[3.86602,43.65027],[3.866,43.65026],[3.86595,43.65027],[3.86586,43.65028],[3.8657,43.65037],[3.86553,43.65055],[3.86512,43.65062],[3.86389,43.65052]]},"properties":{"slope_pct":0.1,"start_km":0.838,"end_km":1.683,"ele_start":41.6,"ele_end":42.4,"class":"plat","label":"Plat (−2 à 2 %)","color":"#22a650"}},{"type":"Feature","geometry":{"type":"LineString","coordinates":[[3.86389,43.65052],[3.86363,43.65051],[3.86308,43.65047],[3.85962,43.65012]]},"properties":{"slope_pct":3.6,"start_km":1.683,"end_km":2.029,"ele_start":42.4,"ele_end":54.9,"class":"montee-faible","label":"Montée faible (2 à 4 %)","color":"#f2c418"}},{"type":"Feature","geometry":{"type":"LineString","coordinates":[[3.85962,43.65012],[3.85743,43.64959],[3.85707,43.64946],[3.8565,43.64921],[3.85605,43.64895]]},"properties":{"slope_pct":0.9,"start_km":2.029,"end_km":2.347,"ele_start":54.9,"ele_end":57.7,"class":"plat","label":"Plat (−2 à 2 %)","color":"#22a650"}},{"type":"Feature","geometry":{"type":"LineString","coordinates":[[3.85605,43.64895],[3.85557,43.64858],[3.85537,43.64838],[3.855,43.64795],[3.85476,43.64758],[3.85447,43.64693],[3.85417,43.64634],[3.85403,43.64609],[3.85364,43.64566],[3.85345,43.64552],[3.85298,43.64522],[3.85294,43.64512],[3.85294,43.64504],[3.853,43.64497]]},"properties":{"slope_pct":2.7,"start_km":2.347,"end_km":2.868,"ele_start":57.7,"ele_end":71.7,"class":"montee-faible","label":"Montée faible (2 à 4 %)","color":"#f2c418"}},{"type":"Feature","geometry":{"type":"LineString","coordinates":[[3.853,43.64497],[3.85298,43.64494],[3.85295,43.64491],[3.85289,43.64485],[3.85287,43.64483],[3.85238,43.64481],[3.85221,43.64477],[3.85178,43.64455],[3.85026,43.64369],[3.8498,43.64347],[3.84919,43.64324],[3.84885,43.64306]]},"properties":{"slope_pct":-0.0,"start_km":2.868,"end_km":3.271,"ele_start":71.7,"ele_end":71.6,"class":"plat","label":"Plat (−2 à 2 %)","color":"#22a650"}},{"type":"Feature","geometry":{"type":"LineString","coordinates":[[3.84885,43.64306],[3.84858,43.64291],[3.84838,43.64275],[3.84804,43.64238],[3.84779,43.642],[3.84775,43.64187],[3.84774,43.64163],[3.84767,43.64153]]},"properties":{"slope_pct":-4.5,"start_km":3.271,"end_km":3.473,"ele_start":71.6,"ele_end":62.5,"class":"descente","label":"Descente (−8 à −4 %)","color":"#2563eb"}},{"type":"Feature","geometry":{"type":"LineString","coordinates":[[3.84767,43.64153],[3.84766,43.64113],[3.84781,43.64084],[3.84786,43.64082],[3.84785,43.64076],[3.84785,43.64071],[3.84779,43.64069]]},"properties":{"slope_pct":-2.8,"start_km":3.473,"end_km":3.575,"ele_start":62.5,"ele_end":59.6,"class":"descente-legere","label":"Descente légère (−4 à −2 %)","color":"#7cb4f5"}},{"type":"Feature","geometry":{"type":"LineString","coordinates":[[3.84779,43.64069],[3.84761,43.64043],[3.8476,43.64023],[3.84759,43.639]]},"properties":{"slope_pct":-1.7,"start_km":3.575,"end_km":3.765,"ele_start":59.6,"ele_end":56.3,"class":"plat","label":"Plat (−2 à 2 %)","color":"#22a650"}},{"type":"Feature","geometry":{"type":"LineString","coordinates":[[3.84759,43.639],[3.84765,43.63888],[3.8476,43.63885],[3.84756,43.63883],[3.84756,43.63868],[3.84756,43.63866],[3.84757,43.63857],[3.84757,43.63854],[3.84757,43.63838],[3.84749,43.63838],[3.84727,43.63838],[3.84717,43.63838]]},"properties":{"slope_pct":-2.6,"start_km":3.765,"end_km":3.872,"ele_start":56.3,"ele_end":53.5,"class":"descente-legere","label":"Descente légère (−4 à −2 %)","color":"#7cb4f5"}},{"type":"Feature","geometry":{"type":"LineString","coordinates":[[3.84717,43.63838],[3.84713,43.63836],[3.84707,43.63831],[3.8469,43.63822],[3.84642,43.63807],[3.84619,43.63791],[3.84517,43.63689],[3.84513,43.63692],[3.84502,43.63696],[3.84484,43.63679],[3.84479,43.63683],[3.84477,43.63685],[3.84474,43.63687],[3.84454,43.63663],[3.84435,43.63631],[3.84421,43.63605],[3.84395,43.63558],[3.84379,43.63539],[3.8436,43.63511],[3.84354,43.63498],[3.84359,43.63483],[3.84321,43.63405],[3.84317,43.63398],[3.84315,43.63394],[3.84313,43.63391],[3.84308,43.63381],[3.84306,43.63376],[3.84303,43.63343],[3.84295,43.63299],[3.84272,43.63242],[3.84227,43.63183],[3.84219,43.63177],[3.84172,43.63165],[3.84155,43.63166],[3.84152,43.63164],[3.84148,43.63161],[3.84151,43.63153],[3.8415,43.63143],[3.84142,43.63132]]},"properties":{"slope_pct":0.0,"start_km":3.872,"end_km":4.866,"ele_start":53.5,"ele_end":53.9,"class":"plat","label":"Plat (−2 à 2 %)","color":"#22a650"}},{"type":"Feature","geometry":{"type":"LineString","coordinates":[[3.84142,43.63132],[3.84134,43.63128],[3.84135,43.63126],[3.84136,43.63124],[3.84139,43.63111],[3.84137,43.63108],[3.84135,43.63105],[3.84108,43.63076],[3.84167,43.63043],[3.84162,43.63014],[3.8416,43.63007],[3.84163,43.63004],[3.84162,43.62998],[3.84158,43.62974],[3.84145,43.62937],[3.84135,43.62917],[3.84118,43.62895],[3.84061,43.6283]]},"properties":{"slope_pct":1.0,"start_km":4.866,"end_km":5.258,"ele_start":53.9,"ele_end":58.0,"class":"plat","label":"Plat (−2 à 2 %)","color":"#22a650"}},{"type":"Feature","geometry":{"type":"LineString","coordinates":[[3.84061,43.6283],[3.84022,43.62793],[3.8399,43.62767],[3.83947,43.62734],[3.83879,43.62696],[3.83868,43.62694],[3.83852,43.62688],[3.83794,43.62663],[3.83791,43.62661],[3.83682,43.62581],[3.83673,43.62577],[3.83611,43.62577],[3.83594,43.6257],[3.8357,43.6255]]},"properties":{"slope_pct":2.7,"start_km":5.258,"end_km":5.777,"ele_start":58.0,"ele_end":72.0,"class":"montee-faible","label":"Montée faible (2 à 4 %)","color":"#f2c418"}},{"type":"Feature","geometry":{"type":"LineString","coordinates":[[3.8357,43.6255],[3.83555,43.62534],[3.83499,43.62505],[3.83482,43.62498],[3.83467,43.62496],[3.83427,43.62507],[3.83421,43.62499],[3.83418,43.62495],[3.83432,43.6249],[3.83407,43.6245],[3.83415,43.62446],[3.83457,43.6242],[3.83436,43.62363],[3.83436,43.62347],[3.83442,43.62326],[3.83454,43.62311],[3.83469,43.62301],[3.83486,43.62291],[3.83507,43.62284],[3.83527,43.62268],[3.83518,43.62263],[3.83516,43.62259],[3.83514,43.62256],[3.83511,43.62251],[3.83503,43.62242],[3.83511,43.62236],[3.83513,43.62232],[3.8346,43.62189],[3.83448,43.62176],[3.83427,43.62141],[3.83409,43.62123],[3.83333,43.62063],[3.83271,43.6201],[3.83274,43.62009],[3.83269,43.62004],[3.83257,43.62001],[3.83245,43.61997],[3.8324,43.61988],[3.8324,43.61984],[3.83244,43.61977],[3.8325,43.61973],[3.83254,43.61972],[3.83264,43.61971],[3.83265,43.61963],[3.83263,43.61951],[3.83245,43.61915]]},"properties":{"slope_pct":0.2,"start_km":5.777,"end_km":6.752,"ele_start":72.0,"ele_end":73.5,"class":"plat","label":"Plat (−2 à 2 %)","color":"#22a650"}},{"type":"Feature","geometry":{"type":"LineString","coordinates":[[3.83245,43.61915],[3.8322,43.61868],[3.83197,43.61836],[3.83184,43.61816],[3.83178,43.61815],[3.83119,43.61729]]},"properties":{"slope_pct":-1.1,"start_km":6.752,"end_km":6.984,"ele_start":73.5,"ele_end":71.0,"class":"plat","label":"Plat (−2 à 2 %)","color":"#22a650"}},{"type":"Feature","geometry":{"type":"LineString","coordinates":[[3.83119,43.61729],[3.83038,43.61638]]},"properties":{"slope_pct":-2.5,"start_km":6.984,"end_km":7.104,"ele_start":71.0,"ele_end":68.0,"class":"descente-legere","label":"Descente légère (−4 à −2 %)","color":"#7cb4f5"}},{"type":"Feature","geometry":{"type":"LineString","coordinates":[[3.83038,43.61638],[3.8301,43.61597],[3.83007,43.61594],[3.82997,43.61582],[3.82963,43.61536],[3.82962,43.6153],[3.82921,43.61478],[3.82913,43.61461],[3.82902,43.6146],[3.82863,43.6146],[3.82869,43.61453],[3.82877,43.61436],[3.8288,43.61432],[3.82883,43.61424],[3.8291,43.61374],[3.82939,43.61368],[3.82939,43.61359],[3.82916,43.61326],[3.82912,43.61294],[3.8292,43.61274],[3.82945,43.61254],[3.82951,43.61242],[3.82961,43.61203],[3.82967,43.61189],[3.82932,43.61186],[3.82897,43.61179],[3.8288,43.6115]]},"properties":{"slope_pct":-1.3,"start_km":7.104,"end_km":7.801,"ele_start":68.0,"ele_end":59.2,"class":"plat","label":"Plat (−2 à 2 %)","color":"#22a650"}},{"type":"Feature","geometry":{"type":"LineString","coordinates":[[3.8288,43.6115],[3.82869,43.61136],[3.82856,43.61123],[3.8285,43.61116],[3.82845,43.61116],[3.82816,43.6106]]},"properties":{"slope_pct":3.6,"start_km":7.801,"end_km":7.916,"ele_start":59.2,"ele_end":63.3,"class":"montee-faible","label":"Montée faible (2 à 4 %)","color":"#f2c418"}},{"type":"Feature","geometry":{"type":"LineString","coordinates":[[3.82816,43.6106],[3.82797,43.61026],[3.82783,43.61],[3.82779,43.60992],[3.82755,43.60941]]},"properties":{"slope_pct":4.8,"start_km":7.916,"end_km":8.057,"ele_start":63.3,"ele_end":70.1,"class":"montee-moderee","label":"Montée modérée (4 à 7 %)","color":"#f59e0b"}},{"type":"Feature","geometry":{"type":"LineString","coordinates":[[3.82755,43.60941],[3.82748,43.60924],[3.82743,43.60913],[3.82697,43.60813],[3.8267,43.60754],[3.82659,43.60743],[3.82644,43.60714]]},"properties":{"slope_pct":-0.6,"start_km":8.057,"end_km":8.325,"ele_start":70.1,"ele_end":68.6,"class":"plat","label":"Plat (−2 à 2 %)","color":"#22a650"}},{"type":"Feature","geometry":{"type":"LineString","coordinates":[[3.82644,43.60714],[3.8265,43.60713],[3.82645,43.60705],[3.8262,43.6065],[3.82611,43.60624]]},"properties":{"slope_pct":5.6,"start_km":8.325,"end_km":8.434,"ele_start":68.6,"ele_end":74.7,"class":"montee-moderee","label":"Montée modérée (4 à 7 %)","color":"#f59e0b"}},{"type":"Feature","geometry":{"type":"LineString","coordinates":[[3.82611,43.60624],[3.82606,43.60611],[3.826,43.60596],[3.8259,43.60569],[3.82561,43.60522]]},"properties":{"slope_pct":1.0,"start_km":8.434,"end_km":8.554,"ele_start":74.7,"ele_end":75.8,"class":"plat","label":"Plat (−2 à 2 %)","color":"#22a650"}},{"type":"Feature","geometry":{"type":"LineString","coordinates":[[3.82561,43.60522],[3.82536,43.60483],[3.82519,43.60449],[3.82503,43.60394]]},"properties":{"slope_pct":-3.1,"start_km":8.554,"end_km":8.705,"ele_start":75.8,"ele_end":71.2,"class":"descente-legere","label":"Descente légère (−4 à −2 %)","color":"#7cb4f5"}},{"type":"Feature","geometry":{"type":"LineString","coordinates":[[3.82503,43.60394],[3.82497,43.60374],[3.8246,43.60305],[3.8245,43.60287],[3.82445,43.60277],[3.82371,43.60133]]},"properties":{"slope_pct":0.0,"start_km":8.705,"end_km":9.013,"ele_start":71.2,"ele_end":71.3,"class":"plat","label":"Plat (−2 à 2 %)","color":"#22a650"}},{"type":"Feature","geometry":{"type":"LineString","coordinates":[[3.82371,43.60133],[3.82332,43.60043],[3.82329,43.6001],[3.82332,43.59971],[3.82342,43.59946]]},"properties":{"slope_pct":-4.9,"start_km":9.013,"end_km":9.228,"ele_start":71.3,"ele_end":60.8,"class":"descente","label":"Descente (−8 à −4 %)","color":"#2563eb"}},{"type":"Feature","geometry":{"type":"LineString","coordinates":[[3.82342,43.59946],[3.82353,43.59929],[3.82359,43.59898],[3.82357,43.59876],[3.82348,43.59833],[3.82296,43.59794],[3.82285,43.59781],[3.82266,43.59722]]},"properties":{"slope_pct":-2.8,"start_km":9.228,"end_km":9.501,"ele_start":60.8,"ele_end":53.1,"class":"descente-legere","label":"Descente légère (−4 à −2 %)","color":"#7cb4f5"}},{"type":"Feature","geometry":{"type":"LineString","coordinates":[[3.82266,43.59722],[3.82263,43.59705],[3.82264,43.59676],[3.8226,43.59672],[3.82234,43.59663],[3.8221,43.59642],[3.8218,43.59569],[3.82165,43.59494],[3.82158,43.59477],[3.82141,43.59466],[3.82104,43.59428],[3.82068,43.59401]]},"properties":{"slope_pct":-5.9,"start_km":9.501,"end_km":9.912,"ele_start":53.1,"ele_end":28.9,"class":"descente","label":"Descente (−8 à −4 %)","color":"#2563eb"}},{"type":"Feature","geometry":{"type":"LineString","coordinates":[[3.82068,43.59401],[3.82095,43.59365],[3.82112,43.59347],[3.82139,43.59324]]},"properties":{"slope_pct":-2.0,"start_km":9.912,"end_km":10.015,"ele_start":28.9,"ele_end":26.8,"class":"descente-legere","label":"Descente légère (−4 à −2 %)","color":"#7cb4f5"}},{"type":"Feature","geometry":{"type":"LineString","coordinates":[[3.82139,43.59324],[3.82137,43.59314],[3.82097,43.59333],[3.82086,43.59344],[3.82076,43.59363],[3.82067,43.59364],[3.82054,43.59364],[3.82045,43.5936],[3.8203,43.59326],[3.82016,43.59317],[3.82012,43.59309],[3.82007,43.59299],[3.81793,43.5926],[3.81786,43.59255],[3.81782,43.59221],[3.81774,43.59213],[3.81705,43.59194],[3.81664,43.59179],[3.81593,43.5916],[3.81555,43.59154],[3.8146,43.59128],[3.81417,43.59115],[3.81344,43.59084],[3.81282,43.59046]]},"properties":{"slope_pct":-0.2,"start_km":10.015,"end_km":10.88,"ele_start":26.8,"ele_end":25.4,"class":"plat","label":"Plat (−2 à 2 %)","color":"#22a650"}},{"type":"Feature","geometry":{"type":"LineString","coordinates":[[3.81282,43.59046],[3.81231,43.59004],[3.81093,43.58855],[3.81068,43.58836],[3.81043,43.58821],[3.8101,43.58814],[3.80999,43.5881],[3.8098,43.58799],[3.80964,43.58795],[3.8093,43.58802],[3.80902,43.58811],[3.80871,43.5883],[3.80668,43.58976]]},"properties":{"slope_pct":1.2,"start_km":10.88,"end_km":11.584,"ele_start":25.4,"ele_end":33.5,"class":"plat","label":"Plat (−2 à 2 %)","color":"#22a650"}},{"type":"Feature","geometry":{"type":"LineString","coordinates":[[3.80668,43.58976],[3.80579,43.59038],[3.80534,43.59063],[3.80505,43.59074],[3.80477,43.59084],[3.80445,43.59091],[3.80396,43.59097]]},"properties":{"slope_pct":3.3,"start_km":11.584,"end_km":11.848,"ele_start":33.5,"ele_end":42.3,"class":"montee-faible","label":"Montée faible (2 à 4 %)","color":"#f2c418"}},{"type":"Feature","geometry":{"type":"LineString","coordinates":[[3.80396,43.59097],[3.80381,43.59098],[3.80364,43.59098],[3.80323,43.59096],[3.80283,43.5909],[3.80249,43.59082],[3.80213,43.59069],[3.80108,43.59022],[3.80096,43.59016],[3.80083,43.5901],[3.80077,43.59008],[3.80073,43.59006],[3.79969,43.58953],[3.79563,43.58755],[3.79391,43.58672]]},"properties":{"slope_pct":-1.0,"start_km":11.848,"end_km":12.796,"ele_start":42.3,"ele_end":32.8,"class":"plat","label":"Plat (−2 à 2 %)","color":"#22a650"}},{"type":"Feature","geometry":{"type":"LineString","coordinates":[[3.79391,43.58672],[3.79312,43.58643],[3.79259,43.58628],[3.79185,43.58612],[3.79146,43.58606],[3.79136,43.58604],[3.79089,43.586],[3.79038,43.58597],[3.79,43.58597],[3.78973,43.58601],[3.78958,43.58599],[3.78947,43.58598],[3.78871,43.58599]]},"properties":{"slope_pct":0.4,"start_km":12.796,"end_km":13.231,"ele_start":32.8,"ele_end":34.4,"class":"plat","label":"Plat (−2 à 2 %)","color":"#22a650"}},{"type":"Feature","geometry":{"type":"LineString","coordinates":[[3.78871,43.58599],[3.788,43.58597],[3.78741,43.58591]]},"properties":{"slope_pct":2.0,"start_km":13.231,"end_km":13.336,"ele_start":34.4,"ele_end":36.5,"class":"montee-faible","label":"Montée faible (2 à 4 %)","color":"#f2c418"}},{"type":"Feature","geometry":{"type":"LineString","coordinates":[[3.78741,43.58591],[3.7835,43.58503],[3.78287,43.58493],[3.78222,43.58491],[3.78094,43.58489],[3.78017,43.58489],[3.77941,43.58498],[3.77907,43.58505],[3.77888,43.58509],[3.77853,43.58519],[3.77828,43.58528],[3.77783,43.58547]]},"properties":{"slope_pct":0.3,"start_km":13.336,"end_km":14.136,"ele_start":36.5,"ele_end":38.7,"class":"plat","label":"Plat (−2 à 2 %)","color":"#22a650"}},{"type":"Feature","geometry":{"type":"LineString","coordinates":[[3.77783,43.58547],[3.77558,43.58662],[3.77486,43.58692],[3.7748,43.58694],[3.77432,43.58709],[3.77406,43.58716],[3.77386,43.58721],[3.77225,43.58757],[3.77068,43.58792],[3.77043,43.58798],[3.76977,43.58812],[3.76971,43.58814],[3.76965,43.58815],[3.769,43.5883],[3.76832,43.58843],[3.76821,43.58845],[3.76803,43.58846],[3.7678,43.58846],[3.7678,43.58848]]},"properties":{"slope_pct":1.0,"start_km":14.136,"end_km":15.024,"ele_start":38.7,"ele_end":47.2,"class":"plat","label":"Plat (−2 à 2 %)","color":"#22a650"}},{"type":"Feature","geometry":{"type":"LineString","coordinates":[[3.7678,43.58848],[3.76775,43.58855],[3.76769,43.58855],[3.76762,43.58851],[3.76749,43.58848],[3.7672,43.58846],[3.76639,43.58837],[3.76623,43.58831],[3.76594,43.58821],[3.7651,43.58788],[3.76396,43.58739],[3.76323,43.58707],[3.76315,43.58704],[3.76298,43.58702],[3.7628,43.58696],[3.76267,43.58687],[3.76236,43.58672],[3.7618,43.58644],[3.76177,43.58647],[3.76077,43.58602],[3.76069,43.58599],[3.76025,43.58579],[3.76015,43.5858],[3.76007,43.58579],[3.75964,43.5856],[3.75903,43.58534],[3.75882,43.58522],[3.7583,43.58492],[3.75792,43.58476]]},"properties":{"slope_pct":0.6,"start_km":15.024,"end_km":15.945,"ele_start":47.2,"ele_end":52.3,"class":"plat","label":"Plat (−2 à 2 %)","color":"#22a650"}},{"type":"Feature","geometry":{"type":"LineString","coordinates":[[3.75792,43.58476],[3.75776,43.58474],[3.7577,43.58477],[3.75761,43.58476],[3.75759,43.58475],[3.75757,43.58469],[3.75758,43.58467],[3.75753,43.58456],[3.75648,43.5841],[3.75632,43.58404],[3.75574,43.58379],[3.75548,43.58363],[3.7554,43.58365],[3.75528,43.5836],[3.75526,43.58352],[3.75504,43.58347],[3.75371,43.58288],[3.75333,43.58272],[3.75235,43.58229],[3.75056,43.5815],[3.75049,43.58147],[3.75032,43.5814],[3.75014,43.58132],[3.75002,43.58126],[3.74987,43.5812],[3.74984,43.58118],[3.74972,43.58113],[3.74915,43.58085],[3.74899,43.58079],[3.74868,43.58062],[3.74837,43.58047],[3.74822,43.5804],[3.74766,43.58014]]},"properties":{"slope_pct":0.3,"start_km":15.945,"end_km":16.937,"ele_start":52.3,"ele_end":54.9,"class":"plat","label":"Plat (−2 à 2 %)","color":"#22a650"}},{"type":"Feature","geometry":{"type":"LineString","coordinates":[[3.74766,43.58014],[3.74739,43.58002],[3.74621,43.57946],[3.746,43.57936],[3.74585,43.5793],[3.74411,43.57848],[3.74376,43.57824],[3.74357,43.57812],[3.74334,43.57796],[3.74216,43.57689],[3.74134,43.57616],[3.74069,43.57557],[3.73977,43.57478]]},"properties":{"slope_pct":0.6,"start_km":16.937,"end_km":17.818,"ele_start":54.9,"ele_end":60.2,"class":"plat","label":"Plat (−2 à 2 %)","color":"#22a650"}},{"type":"Feature","geometry":{"type":"LineString","coordinates":[[3.73977,43.57478],[3.73939,43.57451],[3.73751,43.57347],[3.73671,43.57301],[3.7355,43.57237],[3.73428,43.57169],[3.73318,43.57108],[3.73155,43.57014]]},"properties":{"slope_pct":0.3,"start_km":17.818,"end_km":18.658,"ele_start":60.2,"ele_end":62.5,"class":"plat","label":"Plat (−2 à 2 %)","color":"#22a650"}},{"type":"Feature","geometry":{"type":"LineString","coordinates":[[3.73155,43.57014],[3.72889,43.56854],[3.72883,43.5685],[3.72871,43.56835],[3.72845,43.5682],[3.72819,43.56801],[3.72787,43.56778],[3.72748,43.56743],[3.72732,43.56728],[3.72713,43.56702],[3.72749,43.56714],[3.72751,43.56709],[3.7276,43.56699],[3.72849,43.56653],[3.72865,43.56647],[3.7293,43.5663],[3.72994,43.56613],[3.73042,43.5659],[3.73062,43.56577],[3.73066,43.56575],[3.73072,43.56573],[3.73111,43.56564],[3.73134,43.56542],[3.73065,43.5649]]},"properties":{"slope_pct":-1.3,"start_km":18.658,"end_km":19.644,"ele_start":62.5,"ele_end":49.2,"class":"plat","label":"Plat (−2 à 2 %)","color":"#22a650"}},{"type":"Feature","geometry":{"type":"LineString","coordinates":[[3.73065,43.5649],[3.73032,43.5646],[3.72984,43.56401]]},"properties":{"slope_pct":-1.0,"start_km":19.644,"end_km":19.762,"ele_start":49.2,"ele_end":48.0,"class":"plat","label":"Plat (−2 à 2 %)","color":"#22a650"}},{"type":"Feature","geometry":{"type":"LineString","coordinates":[[3.72984,43.56401],[3.72971,43.56377],[3.72975,43.5636],[3.72921,43.56255],[3.72913,43.56226],[3.72913,43.56197],[3.72905,43.56196],[3.72899,43.56196],[3.72903,43.56162]]},"properties":{"slope_pct":-3.1,"start_km":19.762,"end_km":20.049,"ele_start":48.0,"ele_end":39.1,"class":"descente-legere","label":"Descente légère (−4 à −2 %)","color":"#7cb4f5"}},{"type":"Feature","geometry":{"type":"LineString","coordinates":[[3.72903,43.56162],[3.72901,43.56139],[3.72892,43.5612],[3.72879,43.56101],[3.72864,43.56086],[3.7284,43.56068]]},"properties":{"slope_pct":1.1,"start_km":20.049,"end_km":20.17,"ele_start":39.1,"ele_end":40.5,"class":"plat","label":"Plat (−2 à 2 %)","color":"#22a650"}},{"type":"Feature","geometry":{"type":"LineString","coordinates":[[3.7284,43.56068],[3.72812,43.56053],[3.72809,43.56049],[3.72809,43.56041],[3.72814,43.5603],[3.7282,43.56027],[3.72834,43.56025],[3.72843,43.56026],[3.72844,43.5602],[3.72855,43.55952]]},"properties":{"slope_pct":2.1,"start_km":20.17,"end_km":20.332,"ele_start":40.5,"ele_end":43.9,"class":"montee-faible","label":"Montée faible (2 à 4 %)","color":"#f2c418"}},{"type":"Feature","geometry":{"type":"LineString","coordinates":[[3.72855,43.55952],[3.72859,43.55905],[3.72857,43.559],[3.72862,43.55798],[3.72859,43.55768],[3.72853,43.55752],[3.72859,43.55752],[3.72861,43.55747],[3.7287,43.55742],[3.7287,43.55736],[3.7286,43.55692],[3.72845,43.55648],[3.72824,43.55593],[3.72806,43.55559],[3.72766,43.55486],[3.72742,43.5545],[3.72725,43.55436],[3.72712,43.55416],[3.72711,43.55412],[3.72644,43.55335],[3.72627,43.55324],[3.72618,43.55316],[3.72608,43.55316],[3.72591,43.55318],[3.72589,43.55319],[3.72584,43.55315],[3.72573,43.55296],[3.72497,43.5525]]},"properties":{"slope_pct":0.3,"start_km":20.332,"end_km":21.231,"ele_start":43.9,"ele_end":46.9,"class":"plat","label":"Plat (−2 à 2 %)","color":"#22a650"}},{"type":"Feature","geometry":{"type":"LineString","coordinates":[[3.72497,43.5525],[3.72395,43.55201],[3.72334,43.55177],[3.72289,43.5517],[3.72268,43.55161],[3.72258,43.55156],[3.72234,43.55147],[3.72111,43.55121],[3.71964,43.55093],[3.7184,43.55069],[3.71836,43.55065],[3.71818,43.55061],[3.71801,43.55061],[3.71723,43.55049],[3.71692,43.55049],[3.71685,43.55046],[3.71683,43.55039],[3.71682,43.55034],[3.71685,43.55027],[3.71685,43.5502],[3.71663,43.54995],[3.71648,43.54987],[3.71629,43.54985],[3.71627,43.54974]]},"properties":{"slope_pct":0.6,"start_km":21.231,"end_km":22.037,"ele_start":46.9,"ele_end":51.4,"class":"plat","label":"Plat (−2 à 2 %)","color":"#22a650"}},{"type":"Feature","geometry":{"type":"LineString","coordinates":[[3.71627,43.54974],[3.71626,43.54968],[3.71627,43.5496],[3.71644,43.54952],[3.71654,43.54947],[3.71831,43.54876],[3.71838,43.54873],[3.71889,43.54852],[3.71939,43.54831],[3.71957,43.54824],[3.71975,43.54818],[3.72004,43.54809],[3.72111,43.54751],[3.72238,43.54695],[3.72269,43.54682],[3.72347,43.54662],[3.72349,43.54655],[3.72344,43.54625],[3.72327,43.54575],[3.72321,43.54547],[3.72296,43.5448],[3.72275,43.544]]},"properties":{"slope_pct":0.7,"start_km":22.037,"end_km":23.021,"ele_start":51.4,"ele_end":58.0,"class":"plat","label":"Plat (−2 à 2 %)","color":"#22a650"}},{"type":"Feature","geometry":{"type":"LineString","coordinates":[[3.72275,43.544],[3.72258,43.54352],[3.7226,43.54345],[3.72301,43.54312],[3.72342,43.5425],[3.7238,43.5422]]},"properties":{"slope_pct":2.3,"start_km":23.021,"end_km":23.255,"ele_start":58.0,"ele_end":63.5,"class":"montee-faible","label":"Montée faible (2 à 4 %)","color":"#f2c418"}},{"type":"Feature","geometry":{"type":"LineString","coordinates":[[3.7238,43.5422],[3.72414,43.54188],[3.72434,43.54163],[3.72452,43.54134],[3.72453,43.54133],[3.72481,43.54081],[3.72489,43.54058],[3.72492,43.54014],[3.72515,43.53944],[3.72517,43.53933],[3.72515,43.53921],[3.72508,43.53885],[3.72509,43.53878],[3.72517,43.53863],[3.72528,43.53851],[3.72574,43.53817],[3.72605,43.5379],[3.72626,43.53769],[3.72672,43.53733]]},"properties":{"slope_pct":0.8,"start_km":23.255,"end_km":23.87,"ele_start":63.5,"ele_end":68.6,"class":"plat","label":"Plat (−2 à 2 %)","color":"#22a650"}},{"type":"Feature","geometry":{"type":"LineString","coordinates":[[3.72672,43.53733],[3.72753,43.53686],[3.72808,43.53661],[3.72906,43.53612],[3.72957,43.53592]]},"properties":{"slope_pct":-2.5,"start_km":23.87,"end_km":24.148,"ele_start":68.6,"ele_end":61.5,"class":"descente-legere","label":"Descente légère (−4 à −2 %)","color":"#7cb4f5"}},{"type":"Feature","geometry":{"type":"LineString","coordinates":[[3.72957,43.53592],[3.73042,43.53564],[3.73157,43.53519],[3.73028,43.53445],[3.72995,43.53428],[3.72912,43.53378],[3.72872,43.53345],[3.72719,43.53245],[3.72627,43.53185],[3.7252,43.53112],[3.72451,43.53069],[3.72409,43.53041]]},"properties":{"slope_pct":-0.8,"start_km":24.148,"end_km":25.133,"ele_start":61.5,"ele_end":53.5,"class":"plat","label":"Plat (−2 à 2 %)","color":"#22a650"}},{"type":"Feature","geometry":{"type":"LineString","coordinates":[[3.72409,43.53041],[3.72344,43.52996],[3.72261,43.52945],[3.72294,43.52873],[3.72331,43.52775],[3.72331,43.52754],[3.72317,43.52713],[3.72318,43.52699],[3.72323,43.52669],[3.72319,43.52614],[3.72322,43.52517],[3.72325,43.52497],[3.72336,43.5247],[3.72334,43.52422],[3.72337,43.5241],[3.72317,43.524],[3.72304,43.52395],[3.72302,43.5239],[3.72308,43.52365],[3.72312,43.52339]]},"properties":{"slope_pct":-0.4,"start_km":25.133,"end_km":25.996,"ele_start":53.5,"ele_end":50.1,"class":"plat","label":"Plat (−2 à 2 %)","color":"#22a650"}},{"type":"Feature","geometry":{"type":"LineString","coordinates":[[3.72312,43.52339],[3.72311,43.52306],[3.72302,43.52222]]},"properties":{"slope_pct":-2.0,"start_km":25.996,"end_km":26.126,"ele_start":50.1,"ele_end":47.5,"class":"descente-legere","label":"Descente légère (−4 à −2 %)","color":"#7cb4f5"}},{"type":"Feature","geometry":{"type":"LineString","coordinates":[[3.72302,43.52222],[3.72296,43.522],[3.72271,43.52142],[3.72216,43.5206],[3.72144,43.51965],[3.72116,43.51914],[3.72106,43.51881],[3.7209,43.51824],[3.72039,43.51741],[3.71963,43.51675],[3.71856,43.51568],[3.71787,43.51505],[3.71768,43.51489]]},"properties":{"slope_pct":-0.4,"start_km":26.126,"end_km":27.06,"ele_start":47.5,"ele_end":43.7,"class":"plat","label":"Plat (−2 à 2 %)","color":"#22a650"}},{"type":"Feature","geometry":{"type":"LineString","coordinates":[[3.71768,43.51489],[3.71728,43.5147],[3.7169,43.51439],[3.71674,43.51416],[3.71669,43.51393],[3.71678,43.51293]]},"properties":{"slope_pct":-1.3,"start_km":27.06,"end_km":27.311,"ele_start":43.7,"ele_end":40.5,"class":"plat","label":"Plat (−2 à 2 %)","color":"#22a650"}},{"type":"Feature","geometry":{"type":"LineString","coordinates":[[3.71678,43.51293],[3.71664,43.51217],[3.71652,43.51165]]},"properties":{"slope_pct":-2.8,"start_km":27.311,"end_km":27.455,"ele_start":40.5,"ele_end":36.4,"class":"descente-legere","label":"Descente légère (−4 à −2 %)","color":"#7cb4f5"}},{"type":"Feature","geometry":{"type":"LineString","coordinates":[[3.71652,43.51165],[3.71645,43.5109],[3.71644,43.51077],[3.7168,43.5098]]},"properties":{"slope_pct":0.6,"start_km":27.455,"end_km":27.664,"ele_start":36.4,"ele_end":37.8,"class":"plat","label":"Plat (−2 à 2 %)","color":"#22a650"}},{"type":"Feature","geometry":{"type":"LineString","coordinates":[[3.7168,43.5098],[3.71714,43.50901],[3.71724,43.50868]]},"properties":{"slope_pct":2.3,"start_km":27.664,"end_km":27.794,"ele_start":37.8,"ele_end":40.7,"class":"montee-faible","label":"Montée faible (2 à 4 %)","color":"#f2c418"}},{"type":"Feature","geometry":{"type":"LineString","coordinates":[[3.71724,43.50868],[3.71712,43.50856],[3.71706,43.50845],[3.71694,43.50814],[3.71612,43.50697],[3.71547,43.50621],[3.71514,43.50562]]},"properties":{"slope_pct":-0.7,"start_km":27.794,"end_km":28.175,"ele_start":40.7,"ele_end":38.0,"class":"plat","label":"Plat (−2 à 2 %)","color":"#22a650"}},{"type":"Feature","geometry":{"type":"LineString","coordinates":[[3.71514,43.50562],[3.71511,43.50551],[3.71517,43.50528],[3.71514,43.50518],[3.71509,43.50514],[3.71456,43.50464]]},"properties":{"slope_pct":2.5,"start_km":28.175,"end_km":28.301,"ele_start":38.0,"ele_end":41.1,"class":"montee-faible","label":"Montée faible (2 à 4 %)","color":"#f2c418"}},{"type":"Feature","geometry":{"type":"LineString","coordinates":[[3.71456,43.50464],[3.7144,43.50448],[3.71413,43.50419],[3.71403,43.50414],[3.71352,43.50364],[3.71297,43.50305],[3.71269,43.50265],[3.71258,43.50241],[3.7128,43.50229],[3.71339,43.50196]]},"properties":{"slope_pct":-0.8,"start_km":28.301,"end_km":28.681,"ele_start":41.1,"ele_end":38.2,"class":"plat","label":"Plat (−2 à 2 %)","color":"#22a650"}},{"type":"Feature","geometry":{"type":"LineString","coordinates":[[3.71339,43.50196],[3.71348,43.5019],[3.71364,43.50162],[3.7138,43.50165],[3.71423,43.50165],[3.71488,43.50156],[3.7152,43.50149],[3.71533,43.50146],[3.7155,43.50141],[3.71643,43.50098]]},"properties":{"slope_pct":2.7,"start_km":28.681,"end_km":28.968,"ele_start":38.2,"ele_end":45.9,"class":"montee-faible","label":"Montée faible (2 à 4 %)","color":"#f2c418"}},{"type":"Feature","geometry":{"type":"LineString","coordinates":[[3.71643,43.50098],[3.71665,43.50086],[3.71701,43.50072],[3.71766,43.5006]]},"properties":{"slope_pct":0.2,"start_km":28.968,"end_km":29.078,"ele_start":45.9,"ele_end":46.0,"class":"plat","label":"Plat (−2 à 2 %)","color":"#22a650"}},{"type":"Feature","geometry":{"type":"LineString","coordinates":[[3.71766,43.5006],[3.71761,43.50053],[3.71712,43.50007],[3.71747,43.49977],[3.71751,43.49969],[3.71754,43.49946],[3.71728,43.49935],[3.7169,43.49905]]},"properties":{"slope_pct":-2.6,"start_km":29.078,"end_km":29.3,"ele_start":46.0,"ele_end":40.3,"class":"descente-legere","label":"Descente légère (−4 à −2 %)","color":"#7cb4f5"}},{"type":"Feature","geometry":{"type":"LineString","coordinates":[[3.7169,43.49905],[3.71665,43.49867],[3.71714,43.49848],[3.71794,43.49818]]},"properties":{"slope_pct":4.0,"start_km":29.3,"end_km":29.464,"ele_start":40.3,"ele_end":46.8,"class":"montee-faible","label":"Montée faible (2 à 4 %)","color":"#f2c418"}},{"type":"Feature","geometry":{"type":"LineString","coordinates":[[3.71794,43.49818],[3.71843,43.49801],[3.71861,43.49798],[3.71883,43.49783],[3.7191,43.4975]]},"properties":{"slope_pct":9.0,"start_km":29.464,"end_km":29.591,"ele_start":46.8,"ele_end":58.2,"class":"montee-soutenue","label":"Montée soutenue (7 à 10 %)","color":"#ea580c"}},{"type":"Feature","geometry":{"type":"LineString","coordinates":[[3.7191,43.4975],[3.71933,43.49735],[3.71998,43.49682]]},"properties":{"slope_pct":6.1,"start_km":29.591,"end_km":29.694,"ele_start":58.2,"ele_end":64.5,"class":"montee-moderee","label":"Montée modérée (4 à 7 %)","color":"#f59e0b"}},{"type":"Feature","geometry":{"type":"LineString","coordinates":[[3.71998,43.49682],[3.72054,43.4962],[3.72065,43.4961],[3.72079,43.4958],[3.72091,43.49553],[3.72103,43.49539],[3.7215,43.49515],[3.72163,43.49508],[3.72175,43.49499],[3.7218,43.4949],[3.72165,43.49467],[3.72158,43.49452],[3.72153,43.49422],[3.72143,43.49387],[3.72147,43.49326]]},"properties":{"slope_pct":1.5,"start_km":29.694,"end_km":30.148,"ele_start":64.5,"ele_end":71.2,"class":"plat","label":"Plat (−2 à 2 %)","color":"#22a650"}},{"type":"Feature","geometry":{"type":"LineString","coordinates":[[3.72147,43.49326],[3.72166,43.49278],[3.72174,43.49265],[3.72202,43.49234],[3.72243,43.4921],[3.72252,43.492],[3.72268,43.4916],[3.72278,43.49152],[3.72281,43.49149],[3.72368,43.49047],[3.72399,43.49007],[3.72427,43.48984],[3.72438,43.48975],[3.72453,43.48969],[3.7246,43.48972],[3.72452,43.48997],[3.7246,43.49018],[3.72472,43.49035],[3.72486,43.49048],[3.72503,43.49058]]},"properties":{"slope_pct":5.7,"start_km":30.148,"end_km":30.739,"ele_start":71.2,"ele_end":105.1,"class":"montee-moderee","label":"Montée modérée (4 à 7 %)","color":"#f59e0b"}},{"type":"Feature","geometry":{"type":"LineString","coordinates":[[3.72503,43.49058],[3.72564,43.49075],[3.72617,43.49095],[3.72663,43.491],[3.72693,43.49099],[3.72706,43.49094],[3.72743,43.49079]]},"properties":{"slope_pct":8.5,"start_km":30.739,"end_km":30.948,"ele_start":105.1,"ele_end":122.9,"class":"montee-soutenue","label":"Montée soutenue (7 à 10 %)","color":"#ea580c"}},{"type":"Feature","geometry":{"type":"LineString","coordinates":[[3.72743,43.49079],[3.72763,43.49074],[3.72774,43.49068],[3.72777,43.4906],[3.72774,43.49043],[3.72775,43.49028],[3.72809,43.48982],[3.72832,43.4891],[3.72857,43.48859],[3.72855,43.48854],[3.72834,43.48848],[3.72824,43.48842],[3.72821,43.48839],[3.72819,43.48835],[3.72816,43.48813],[3.7281,43.48809],[3.72797,43.4881],[3.7277,43.4882]]},"properties":{"slope_pct":5.7,"start_km":30.948,"end_km":31.33,"ele_start":122.9,"ele_end":144.7,"class":"montee-moderee","label":"Montée modérée (4 à 7 %)","color":"#f59e0b"}},{"type":"Feature","geometry":{"type":"LineString","coordinates":[[3.7277,43.4882],[3.72753,43.48824],[3.72731,43.48825],[3.72696,43.48821],[3.72591,43.48827],[3.72575,43.48825],[3.72563,43.48817],[3.72561,43.48809],[3.7256,43.48802],[3.7256,43.48774],[3.72573,43.48724]]},"properties":{"slope_pct":-0.8,"start_km":31.33,"end_km":31.608,"ele_start":144.7,"ele_end":142.4,"class":"plat","label":"Plat (−2 à 2 %)","color":"#22a650"}},{"type":"Feature","geometry":{"type":"LineString","coordinates":[[3.72573,43.48724],[3.72577,43.48693],[3.72584,43.4868],[3.72608,43.4866],[3.7262,43.4866],[3.72632,43.48664],[3.7266,43.48683]]},"properties":{"slope_pct":3.6,"start_km":31.608,"end_km":31.738,"ele_start":142.4,"ele_end":147.0,"class":"montee-faible","label":"Montée faible (2 à 4 %)","color":"#f2c418"}},{"type":"Feature","geometry":{"type":"LineString","coordinates":[[3.7266,43.48683],[3.72672,43.48693],[3.72712,43.48726],[3.7272,43.48737],[3.72744,43.48759],[3.72759,43.48765],[3.72777,43.48766],[3.72804,43.48756],[3.72849,43.48734],[3.7286,43.48732]]},"properties":{"slope_pct":4.8,"start_km":31.738,"end_km":31.953,"ele_start":147.0,"ele_end":157.5,"class":"montee-moderee","label":"Montée modérée (4 à 7 %)","color":"#f59e0b"}},{"type":"Feature","geometry":{"type":"LineString","coordinates":[[3.7286,43.48732],[3.72868,43.48736],[3.72885,43.48782],[3.72892,43.4879],[3.72905,43.48798],[3.72986,43.48813]]},"properties":{"slope_pct":7.4,"start_km":31.953,"end_km":32.105,"ele_start":157.5,"ele_end":168.7,"class":"montee-soutenue","label":"Montée soutenue (7 à 10 %)","color":"#ea580c"}},{"type":"Feature","geometry":{"type":"LineString","coordinates":[[3.72986,43.48813],[3.7303,43.48817],[3.73039,43.48822],[3.73041,43.48829],[3.7302,43.48878],[3.73021,43.48891],[3.73031,43.48908],[3.73075,43.48951],[3.73101,43.4897],[3.73114,43.48977],[3.73132,43.4898],[3.73201,43.48982],[3.73213,43.4898],[3.73224,43.48973],[3.73228,43.48962],[3.73223,43.48944],[3.73214,43.48927],[3.73197,43.48901],[3.7318,43.48853],[3.73171,43.48839],[3.73162,43.48827],[3.7316,43.488],[3.73154,43.4878],[3.73148,43.48773],[3.73101,43.48736]]},"properties":{"slope_pct":5.1,"start_km":32.105,"end_km":32.737,"ele_start":168.7,"ele_end":201.1,"class":"montee-moderee","label":"Montée modérée (4 à 7 %)","color":"#f59e0b"}},{"type":"Feature","geometry":{"type":"LineString","coordinates":[[3.73101,43.48736],[3.73089,43.48723],[3.73085,43.48706],[3.73088,43.48685],[3.73095,43.48662],[3.73109,43.48633],[3.73123,43.48602],[3.73128,43.48586],[3.73139,43.48568],[3.73155,43.48546],[3.73175,43.4854],[3.73209,43.48546],[3.7324,43.48549],[3.73259,43.48545],[3.73271,43.4854],[3.73292,43.48525]]},"properties":{"slope_pct":3.7,"start_km":32.737,"end_km":33.083,"ele_start":201.1,"ele_end":213.9,"class":"montee-faible","label":"Montée faible (2 à 4 %)","color":"#f2c418"}},{"type":"Feature","geometry":{"type":"LineString","coordinates":[[3.73292,43.48525],[3.73301,43.48511],[3.73306,43.48496],[3.73314,43.48443],[3.73323,43.48418]]},"properties":{"slope_pct":4.2,"start_km":33.083,"end_km":33.205,"ele_start":213.9,"ele_end":219.0,"class":"montee-moderee","label":"Montée modérée (4 à 7 %)","color":"#f59e0b"}},{"type":"Feature","geometry":{"type":"LineString","coordinates":[[3.73323,43.48418],[3.73327,43.48414],[3.73333,43.48408],[3.73348,43.48394],[3.7336,43.48384],[3.73366,43.48378],[3.73379,43.48358],[3.73386,43.48342],[3.73392,43.483],[3.734,43.48271],[3.73404,43.48263],[3.73418,43.48248]]},"properties":{"slope_pct":0.0,"start_km":33.205,"end_km":33.415,"ele_start":219.0,"ele_end":219.1,"class":"plat","label":"Plat (−2 à 2 %)","color":"#22a650"}},{"type":"Feature","geometry":{"type":"LineString","coordinates":[[3.73418,43.48248],[3.73441,43.48237],[3.73448,43.48235],[3.7347,43.48231],[3.73497,43.48231],[3.73536,43.4824]]},"properties":{"slope_pct":-2.6,"start_km":33.415,"end_km":33.516,"ele_start":219.1,"ele_end":216.4,"class":"descente-legere","label":"Descente légère (−4 à −2 %)","color":"#7cb4f5"}},{"type":"Feature","geometry":{"type":"LineString","coordinates":[[3.73536,43.4824],[3.73651,43.48271],[3.73679,43.48275],[3.73692,43.48272],[3.73907,43.48186],[3.73938,43.48178],[3.73987,43.48174],[3.74025,43.48171],[3.74046,43.48173],[3.74047,43.48186],[3.7404,43.48218],[3.7404,43.4825],[3.74059,43.48316],[3.74067,43.48336],[3.74102,43.48394],[3.74137,43.48463],[3.74178,43.48522],[3.74254,43.4861]]},"properties":{"slope_pct":-0.0,"start_km":33.516,"end_km":34.487,"ele_start":216.4,"ele_end":216.2,"class":"plat","label":"Plat (−2 à 2 %)","color":"#22a650"}},{"type":"Feature","geometry":{"type":"LineString","coordinates":[[3.74254,43.4861],[3.74263,43.4863],[3.74295,43.48658],[3.74306,43.48673],[3.74313,43.48705],[3.74333,43.48738],[3.74417,43.48828],[3.7444,43.48842],[3.74468,43.48856],[3.74502,43.48864],[3.74597,43.48866],[3.74654,43.48871],[3.74675,43.48874],[3.74714,43.48889],[3.74739,43.48909],[3.74749,43.48917],[3.74775,43.48945],[3.74779,43.49002],[3.74777,43.49076],[3.74803,43.49134],[3.7483,43.49193],[3.74852,43.49229]]},"properties":{"slope_pct":-0.3,"start_km":34.487,"end_km":35.428,"ele_start":216.2,"ele_end":212.9,"class":"plat","label":"Plat (−2 à 2 %)","color":"#22a650"}},{"type":"Feature","geometry":{"type":"LineString","coordinates":[[3.74852,43.49229],[3.74897,43.49288],[3.74908,43.49307],[3.74925,43.49324],[3.7495,43.49346],[3.75043,43.49405],[3.75104,43.4944],[3.75131,43.49459],[3.7515,43.49488]]},"properties":{"slope_pct":0.4,"start_km":35.428,"end_km":35.809,"ele_start":212.9,"ele_end":214.6,"class":"plat","label":"Plat (−2 à 2 %)","color":"#22a650"}},{"type":"Feature","geometry":{"type":"LineString","coordinates":[[3.7515,43.49488],[3.75158,43.49498],[3.75174,43.49518],[3.75176,43.49521],[3.75184,43.4954],[3.75198,43.49581]]},"properties":{"slope_pct":-3.8,"start_km":35.809,"end_km":35.92,"ele_start":214.6,"ele_end":210.4,"class":"descente-legere","label":"Descente légère (−4 à −2 %)","color":"#7cb4f5"}},{"type":"Feature","geometry":{"type":"LineString","coordinates":[[3.75198,43.49581],[3.75206,43.49605],[3.75219,43.49631],[3.75227,43.49661],[3.75231,43.497]]},"properties":{"slope_pct":-6.9,"start_km":35.92,"end_km":36.056,"ele_start":210.4,"ele_end":201.1,"class":"descente","label":"Descente (−8 à −4 %)","color":"#2563eb"}},{"type":"Feature","geometry":{"type":"LineString","coordinates":[[3.75231,43.497],[3.75299,43.49813]]},"properties":{"slope_pct":-9.0,"start_km":36.056,"end_km":36.193,"ele_start":201.1,"ele_end":188.7,"class":"descente-forte","label":"Descente forte (< −8 %)","color":"#1e3a8a"}},{"type":"Feature","geometry":{"type":"LineString","coordinates":[[3.75299,43.49813],[3.75342,43.49833],[3.75388,43.49849],[3.75397,43.49858],[3.75425,43.49949]]},"properties":{"slope_pct":-7.1,"start_km":36.193,"end_km":36.391,"ele_start":188.7,"ele_end":174.5,"class":"descente","label":"Descente (−8 à −4 %)","color":"#2563eb"}},{"type":"Feature","geometry":{"type":"LineString","coordinates":[[3.75425,43.49949],[3.75443,43.49986],[3.75466,43.50009],[3.75537,43.50057]]},"properties":{"slope_pct":-8.4,"start_km":36.391,"end_km":36.545,"ele_start":174.5,"ele_end":161.6,"class":"descente-forte","label":"Descente forte (< −8 %)","color":"#1e3a8a"}},{"type":"Feature","geometry":{"type":"LineString","coordinates":[[3.75537,43.50057],[3.75562,43.5008],[3.7557,43.50097],[3.75568,43.5012],[3.75554,43.5016]]},"properties":{"slope_pct":-1.9,"start_km":36.545,"end_km":36.669,"ele_start":161.6,"ele_end":159.3,"class":"plat","label":"Plat (−2 à 2 %)","color":"#22a650"}},{"type":"Feature","geometry":{"type":"LineString","coordinates":[[3.75554,43.5016],[3.75439,43.50235]]},"properties":{"slope_pct":2.1,"start_km":36.669,"end_km":36.794,"ele_start":159.3,"ele_end":161.9,"class":"montee-faible","label":"Montée faible (2 à 4 %)","color":"#f2c418"}},{"type":"Feature","geometry":{"type":"LineString","coordinates":[[3.75439,43.50235],[3.75419,43.50246],[3.7538,43.50257],[3.75373,43.50262],[3.75372,43.50268],[3.7538,43.50285],[3.75373,43.50306],[3.75355,43.50322],[3.75348,43.50328],[3.75337,43.50339],[3.75328,43.50361],[3.75337,43.50375],[3.75353,43.50391]]},"properties":{"slope_pct":-6.3,"start_km":36.794,"end_km":37.018,"ele_start":161.9,"ele_end":147.7,"class":"descente","label":"Descente (−8 à −4 %)","color":"#2563eb"}},{"type":"Feature","geometry":{"type":"LineString","coordinates":[[3.75353,43.50391],[3.75417,43.50428],[3.75485,43.50481],[3.75503,43.50486],[3.7555,43.5048],[3.75571,43.50484],[3.75589,43.50491],[3.75598,43.50502]]},"properties":{"slope_pct":0.8,"start_km":37.018,"end_km":37.266,"ele_start":147.7,"ele_end":149.7,"class":"plat","label":"Plat (−2 à 2 %)","color":"#22a650"}},{"type":"Feature","geometry":{"type":"LineString","coordinates":[[3.75598,43.50502],[3.75622,43.5053],[3.7564,43.50557],[3.75655,43.50566],[3.75681,43.50572],[3.75697,43.5058],[3.75706,43.5059],[3.75714,43.50604],[3.75683,43.50668],[3.75678,43.50689],[3.75678,43.5072],[3.75679,43.50732],[3.7568,43.50809]]},"properties":{"slope_pct":-5.4,"start_km":37.266,"end_km":37.652,"ele_start":149.7,"ele_end":128.6,"class":"descente","label":"Descente (−8 à −4 %)","color":"#2563eb"}},{"type":"Feature","geometry":{"type":"LineString","coordinates":[[3.7568,43.50809],[3.757,43.50838],[3.75709,43.5085],[3.75728,43.50872],[3.7574,43.50898],[3.75757,43.50919],[3.75779,43.50929],[3.75805,43.50935],[3.75857,43.50941]]},"properties":{"slope_pct":-3.2,"start_km":37.652,"end_km":37.875,"ele_start":128.6,"ele_end":121.4,"class":"descente-legere","label":"Descente légère (−4 à −2 %)","color":"#7cb4f5"}},{"type":"Feature","geometry":{"type":"LineString","coordinates":[[3.75857,43.50941],[3.75906,43.50939],[3.75956,43.50944],[3.76034,43.50966],[3.76082,43.50974],[3.76229,43.50981]]},"properties":{"slope_pct":-5.2,"start_km":37.875,"end_km":38.181,"ele_start":121.4,"ele_end":105.4,"class":"descente","label":"Descente (−8 à −4 %)","color":"#2563eb"}},{"type":"Feature","geometry":{"type":"LineString","coordinates":[[3.76229,43.50981],[3.76256,43.50985],[3.7628,43.50991],[3.76298,43.51],[3.76348,43.51041],[3.7636,43.5106],[3.76369,43.5108],[3.76378,43.51125],[3.76385,43.51145]]},"properties":{"slope_pct":-3.2,"start_km":38.181,"end_km":38.423,"ele_start":105.4,"ele_end":97.7,"class":"descente-legere","label":"Descente légère (−4 à −2 %)","color":"#7cb4f5"}},{"type":"Feature","geometry":{"type":"LineString","coordinates":[[3.76385,43.51145],[3.76397,43.5117],[3.76436,43.51231]]},"properties":{"slope_pct":-4.2,"start_km":38.423,"end_km":38.527,"ele_start":97.7,"ele_end":93.3,"class":"descente","label":"Descente (−8 à −4 %)","color":"#2563eb"}},{"type":"Feature","geometry":{"type":"LineString","coordinates":[[3.76436,43.51231],[3.76467,43.51277],[3.76478,43.51298],[3.76496,43.51327],[3.7652,43.51353],[3.76618,43.51441]]},"properties":{"slope_pct":-2.5,"start_km":38.527,"end_km":38.805,"ele_start":93.3,"ele_end":86.3,"class":"descente-legere","label":"Descente légère (−4 à −2 %)","color":"#7cb4f5"}},{"type":"Feature","geometry":{"type":"LineString","coordinates":[[3.76618,43.51441],[3.76646,43.51459],[3.76705,43.51482],[3.76777,43.51498],[3.76808,43.51503],[3.76825,43.51506],[3.7692,43.51542],[3.76952,43.51562],[3.76965,43.51575],[3.76984,43.51582],[3.76988,43.51586],[3.76999,43.51595],[3.77002,43.51597],[3.77014,43.51601],[3.77027,43.51601],[3.77063,43.51592],[3.77092,43.51579],[3.77126,43.51554],[3.77142,43.51546],[3.77182,43.51535],[3.77211,43.51536],[3.77244,43.51546]]},"properties":{"slope_pct":-1.1,"start_km":38.805,"end_km":39.388,"ele_start":86.3,"ele_end":79.8,"class":"plat","label":"Plat (−2 à 2 %)","color":"#22a650"}},{"type":"Feature","geometry":{"type":"LineString","coordinates":[[3.77244,43.51546],[3.7725,43.51551],[3.77297,43.51585],[3.77323,43.51614],[3.7734,43.5165]]},"properties":{"slope_pct":2.3,"start_km":39.388,"end_km":39.53,"ele_start":79.8,"ele_end":83.1,"class":"montee-faible","label":"Montée faible (2 à 4 %)","color":"#f2c418"}},{"type":"Feature","geometry":{"type":"LineString","coordinates":[[3.7734,43.5165],[3.77344,43.51668],[3.77345,43.51683],[3.77339,43.51731],[3.77346,43.51743],[3.77387,43.51779],[3.77426,43.51817],[3.77467,43.51839],[3.77503,43.51874],[3.77512,43.51876],[3.77519,43.51874]]},"properties":{"slope_pct":0.8,"start_km":39.53,"end_km":39.843,"ele_start":83.1,"ele_end":85.4,"class":"plat","label":"Plat (−2 à 2 %)","color":"#22a650"}},{"type":"Feature","geometry":{"type":"LineString","coordinates":[[3.77519,43.51874],[3.77552,43.51851],[3.77612,43.51827],[3.77634,43.51822]]},"properties":{"slope_pct":-3.4,"start_km":39.843,"end_km":39.954,"ele_start":85.4,"ele_end":81.6,"class":"descente-legere","label":"Descente légère (−4 à −2 %)","color":"#7cb4f5"}},{"type":"Feature","geometry":{"type":"LineString","coordinates":[[3.77634,43.51822],[3.77693,43.51816],[3.77718,43.51818],[3.77771,43.51834]]},"properties":{"slope_pct":1.5,"start_km":39.954,"end_km":40.068,"ele_start":81.6,"ele_end":83.4,"class":"plat","label":"Plat (−2 à 2 %)","color":"#22a650"}},{"type":"Feature","geometry":{"type":"LineString","coordinates":[[3.77771,43.51834],[3.7782,43.5185],[3.77881,43.51875],[3.77903,43.51885]]},"properties":{"slope_pct":4.6,"start_km":40.068,"end_km":40.189,"ele_start":83.4,"ele_end":88.9,"class":"montee-moderee","label":"Montée modérée (4 à 7 %)","color":"#f59e0b"}},{"type":"Feature","geometry":{"type":"LineString","coordinates":[[3.77903,43.51885],[3.77942,43.5192],[3.77958,43.51937],[3.78006,43.52007]]},"properties":{"slope_pct":2.2,"start_km":40.189,"end_km":40.349,"ele_start":88.9,"ele_end":92.4,"class":"montee-faible","label":"Montée faible (2 à 4 %)","color":"#f2c418"}},{"type":"Feature","geometry":{"type":"LineString","coordinates":[[3.78006,43.52007],[3.7803,43.52034],[3.78052,43.52054],[3.78078,43.5207],[3.78114,43.52086],[3.78189,43.52111],[3.78275,43.52139],[3.78409,43.52193],[3.78438,43.52208],[3.78456,43.52225],[3.78472,43.52248],[3.78482,43.52253],[3.78492,43.52254],[3.78524,43.52242],[3.78549,43.52239],[3.78584,43.52242],[3.78638,43.52252],[3.78723,43.52273]]},"properties":{"slope_pct":0.1,"start_km":40.349,"end_km":41.036,"ele_start":92.4,"ele_end":92.8,"class":"plat","label":"Plat (−2 à 2 %)","color":"#22a650"}},{"type":"Feature","geometry":{"type":"LineString","coordinates":[[3.78723,43.52273],[3.78766,43.52291],[3.78776,43.52299],[3.78784,43.52305],[3.78799,43.52326],[3.78812,43.52367]]},"properties":{"slope_pct":4.6,"start_km":41.036,"end_km":41.17,"ele_start":92.8,"ele_end":98.9,"class":"montee-moderee","label":"Montée modérée (4 à 7 %)","color":"#f59e0b"}},{"type":"Feature","geometry":{"type":"LineString","coordinates":[[3.78812,43.52367],[3.78836,43.52412],[3.78876,43.52466]]},"properties":{"slope_pct":3.6,"start_km":41.17,"end_km":41.292,"ele_start":98.9,"ele_end":103.3,"class":"montee-faible","label":"Montée faible (2 à 4 %)","color":"#f2c418"}},{"type":"Feature","geometry":{"type":"LineString","coordinates":[[3.78876,43.52466],[3.78886,43.52481],[3.78895,43.52501],[3.78895,43.5252],[3.78899,43.52524],[3.78908,43.52562],[3.78904,43.5258],[3.78887,43.52611],[3.78892,43.5262],[3.78979,43.52622]]},"properties":{"slope_pct":0.5,"start_km":41.292,"end_km":41.542,"ele_start":103.3,"ele_end":104.7,"class":"plat","label":"Plat (−2 à 2 %)","color":"#22a650"}},{"type":"Feature","geometry":{"type":"LineString","coordinates":[[3.78979,43.52622],[3.7906,43.52663],[3.79058,43.52671],[3.79052,43.52675],[3.79015,43.52667],[3.79,43.52667],[3.78989,43.5267],[3.78988,43.52677],[3.79044,43.52704],[3.79043,43.52709],[3.79037,43.52713],[3.78963,43.52704],[3.78955,43.52708],[3.78951,43.52713],[3.78956,43.52719],[3.78995,43.52732],[3.79027,43.52755],[3.79043,43.52771]]},"properties":{"slope_pct":6.1,"start_km":41.542,"end_km":41.94,"ele_start":104.7,"ele_end":128.9,"class":"montee-moderee","label":"Montée modérée (4 à 7 %)","color":"#f59e0b"}},{"type":"Feature","geometry":{"type":"LineString","coordinates":[[3.79043,43.52771],[3.79073,43.52784],[3.79112,43.52789],[3.79136,43.5279],[3.79159,43.52788],[3.79202,43.52782],[3.79217,43.52782],[3.79227,43.52786],[3.79229,43.52786],[3.79239,43.52797],[3.79241,43.52804],[3.79223,43.52874]]},"properties":{"slope_pct":3.0,"start_km":41.94,"end_km":42.198,"ele_start":128.9,"ele_end":136.6,"class":"montee-faible","label":"Montée faible (2 à 4 %)","color":"#f2c418"}},{"type":"Feature","geometry":{"type":"LineString","coordinates":[[3.79223,43.52874],[3.79225,43.5289],[3.79234,43.52902],[3.7925,43.52913],[3.79277,43.52927],[3.79383,43.52967],[3.79414,43.52975],[3.7946,43.52981],[3.79488,43.52984],[3.79539,43.52976],[3.79609,43.52943],[3.79622,43.52944],[3.79628,43.52947],[3.79644,43.52961]]},"properties":{"slope_pct":0.5,"start_km":42.198,"end_km":42.604,"ele_start":136.6,"ele_end":138.7,"class":"plat","label":"Plat (−2 à 2 %)","color":"#22a650"}},{"type":"Feature","geometry":{"type":"LineString","coordinates":[[3.79644,43.52961],[3.79658,43.52981],[3.79669,43.53034],[3.79677,43.53039],[3.79692,43.53041]]},"properties":{"slope_pct":2.1,"start_km":42.604,"end_km":42.71,"ele_start":138.7,"ele_end":140.9,"class":"montee-faible","label":"Montée faible (2 à 4 %)","color":"#f2c418"}},{"type":"Feature","geometry":{"type":"LineString","coordinates":[[3.79692,43.53041],[3.79717,43.5304],[3.79731,43.53043],[3.79744,43.53052],[3.79767,43.53084],[3.79782,43.53117]]},"properties":{"slope_pct":-2.7,"start_km":42.71,"end_km":42.835,"ele_start":140.9,"ele_end":137.5,"class":"descente-legere","label":"Descente légère (−4 à −2 %)","color":"#7cb4f5"}},{"type":"Feature","geometry":{"type":"LineString","coordinates":[[3.79782,43.53117],[3.79806,43.5314],[3.79816,43.53144],[3.79825,43.53143],[3.79844,43.5312],[3.79851,43.53116],[3.79861,43.53115],[3.79879,43.53125],[3.79891,43.53123],[3.799,43.53115],[3.79903,43.53109],[3.79908,43.53095],[3.79908,43.53076],[3.79899,43.53042],[3.79901,43.53036],[3.79909,43.53034],[3.79917,43.53045],[3.79941,43.53064],[3.79978,43.53088],[3.80047,43.53148],[3.80057,43.53166],[3.8006,43.53178],[3.80076,43.53181],[3.80095,43.53189],[3.801,43.53216],[3.80106,43.5322],[3.80114,43.5322],[3.80122,43.53218],[3.8013,43.53213],[3.8014,43.53202],[3.80143,43.53202],[3.80148,43.53202],[3.8015,43.53211],[3.80141,43.53225],[3.80143,43.53228],[3.8015,43.53229],[3.80169,43.5322],[3.80177,43.53214]]},"properties":{"slope_pct":-6.7,"start_km":42.835,"end_km":43.445,"ele_start":137.5,"ele_end":96.7,"class":"descente","label":"Descente (−8 à −4 %)","color":"#2563eb"}},{"type":"Feature","geometry":{"type":"LineString","coordinates":[[3.80177,43.53214],[3.80184,43.53203],[3.8019,43.532],[3.80199,43.53209],[3.80197,43.5322],[3.80197,43.53221],[3.80182,43.53246],[3.80122,43.53283],[3.80056,43.53309],[3.80032,43.53314],[3.80029,43.53322],[3.80029,43.53327],[3.80036,43.53334]]},"properties":{"slope_pct":-0.7,"start_km":43.445,"end_km":43.688,"ele_start":96.7,"ele_end":95.0,"class":"plat","label":"Plat (−2 à 2 %)","color":"#22a650"}},{"type":"Feature","geometry":{"type":"LineString","coordinates":[[3.80036,43.53334],[3.80083,43.53344],[3.80194,43.53352]]},"properties":{"slope_pct":-5.7,"start_km":43.688,"end_km":43.817,"ele_start":95.0,"ele_end":87.6,"class":"descente","label":"Descente (−8 à −4 %)","color":"#2563eb"}},{"type":"Feature","geometry":{"type":"LineString","coordinates":[[3.80194,43.53352],[3.80233,43.53356],[3.80316,43.53358],[3.80342,43.53365]]},"properties":{"slope_pct":0.2,"start_km":43.817,"end_km":43.939,"ele_start":87.6,"ele_end":87.8,"class":"plat","label":"Plat (−2 à 2 %)","color":"#22a650"}},{"type":"Feature","geometry":{"type":"LineString","coordinates":[[3.80342,43.53365],[3.80354,43.53373],[3.80357,43.53378],[3.80356,43.53384],[3.8035,43.53385],[3.80327,43.53375],[3.80263,43.53376],[3.80247,43.53381],[3.80246,43.53383],[3.80253,43.53388],[3.80296,43.53395],[3.80308,43.534],[3.80322,43.53413],[3.80331,43.53431]]},"properties":{"slope_pct":6.3,"start_km":43.939,"end_km":44.153,"ele_start":87.8,"ele_end":101.2,"class":"montee-moderee","label":"Montée modérée (4 à 7 %)","color":"#f59e0b"}},{"type":"Feature","geometry":{"type":"LineString","coordinates":[[3.80331,43.53431],[3.80344,43.53476],[3.8036,43.53502],[3.80365,43.53517],[3.8037,43.53544]]},"properties":{"slope_pct":7.1,"start_km":44.153,"end_km":44.284,"ele_start":101.2,"ele_end":110.5,"class":"montee-soutenue","label":"Montée soutenue (7 à 10 %)","color":"#ea580c"}},{"type":"Feature","geometry":{"type":"LineString","coordinates":[[3.8037,43.53544],[3.80362,43.53559],[3.80349,43.53573],[3.80328,43.53588],[3.80286,43.53617]]},"properties":{"slope_pct":0.8,"start_km":44.284,"end_km":44.391,"ele_start":110.5,"ele_end":111.4,"class":"plat","label":"Plat (−2 à 2 %)","color":"#22a650"}},{"type":"Feature","geometry":{"type":"LineString","coordinates":[[3.80286,43.53617],[3.80286,43.53621],[3.80297,43.53622],[3.80342,43.5361],[3.80373,43.53602],[3.80452,43.53601]]},"properties":{"slope_pct":-2.0,"start_km":44.391,"end_km":44.534,"ele_start":111.4,"ele_end":108.5,"class":"descente-legere","label":"Descente légère (−4 à −2 %)","color":"#7cb4f5"}},{"type":"Feature","geometry":{"type":"LineString","coordinates":[[3.80452,43.53601],[3.80498,43.53605],[3.80543,43.53612],[3.80568,43.53619],[3.80586,43.53626]]},"properties":{"slope_pct":-0.3,"start_km":44.534,"end_km":44.646,"ele_start":108.5,"ele_end":108.1,"class":"plat","label":"Plat (−2 à 2 %)","color":"#22a650"}},{"type":"Feature","geometry":{"type":"LineString","coordinates":[[3.80586,43.53626],[3.80592,43.53633],[3.80598,43.53666],[3.80581,43.53704],[3.8058,43.53741]]},"properties":{"slope_pct":-6.9,"start_km":44.646,"end_km":44.778,"ele_start":108.1,"ele_end":98.9,"class":"descente","label":"Descente (−8 à −4 %)","color":"#2563eb"}},{"type":"Feature","geometry":{"type":"LineString","coordinates":[[3.8058,43.53741],[3.80585,43.5376],[3.80593,43.53772],[3.80604,43.5378],[3.80623,43.5379],[3.80646,43.538],[3.80677,43.53819]]},"properties":{"slope_pct":-8.2,"start_km":44.778,"end_km":44.9,"ele_start":98.9,"ele_end":88.9,"class":"descente-forte","label":"Descente forte (< −8 %)","color":"#1e3a8a"}},{"type":"Feature","geometry":{"type":"LineString","coordinates":[[3.80677,43.53819],[3.80721,43.53889],[3.80723,43.5391]]},"properties":{"slope_pct":-7.8,"start_km":44.9,"end_km":45.009,"ele_start":88.9,"ele_end":80.4,"class":"descente","label":"Descente (−8 à −4 %)","color":"#2563eb"}},{"type":"Feature","geometry":{"type":"LineString","coordinates":[[3.80723,43.5391],[3.80721,43.53919],[3.80708,43.53931],[3.8067,43.53943],[3.80635,43.53966],[3.80619,43.54002]]},"properties":{"slope_pct":-8.2,"start_km":45.009,"end_km":45.149,"ele_start":80.4,"ele_end":69.0,"class":"descente-forte","label":"Descente forte (< −8 %)","color":"#1e3a8a"}},{"type":"Feature","geometry":{"type":"LineString","coordinates":[[3.80619,43.54002],[3.80618,43.54023],[3.80618,43.54025],[3.80617,43.54031],[3.80605,43.54055],[3.8057,43.54114]]},"properties":{"slope_pct":-5.6,"start_km":45.149,"end_km":45.281,"ele_start":69.0,"ele_end":61.6,"class":"descente","label":"Descente (−8 à −4 %)","color":"#2563eb"}},{"type":"Feature","geometry":{"type":"LineString","coordinates":[[3.8057,43.54114],[3.80554,43.54122],[3.80542,43.54123],[3.80522,43.54117],[3.80426,43.54062]]},"properties":{"slope_pct":0.9,"start_km":45.281,"end_km":45.423,"ele_start":61.6,"ele_end":62.9,"class":"plat","label":"Plat (−2 à 2 %)","color":"#22a650"}},{"type":"Feature","geometry":{"type":"LineString","coordinates":[[3.80426,43.54062],[3.80373,43.54042],[3.80196,43.54014]]},"properties":{"slope_pct":5.2,"start_km":45.423,"end_km":45.618,"ele_start":62.9,"ele_end":73.0,"class":"montee-moderee","label":"Montée modérée (4 à 7 %)","color":"#f59e0b"}},{"type":"Feature","geometry":{"type":"LineString","coordinates":[[3.80196,43.54014],[3.80169,43.5401],[3.8015,43.54011],[3.80138,43.54013],[3.80066,43.5407],[3.79926,43.54178]]},"properties":{"slope_pct":-0.8,"start_km":45.618,"end_km":45.916,"ele_start":73.0,"ele_end":70.5,"class":"plat","label":"Plat (−2 à 2 %)","color":"#22a650"}},{"type":"Feature","geometry":{"type":"LineString","coordinates":[[3.79926,43.54178],[3.79897,43.54192],[3.79829,43.54213],[3.79765,43.54229]]},"properties":{"slope_pct":2.6,"start_km":45.916,"end_km":46.059,"ele_start":70.5,"ele_end":74.2,"class":"montee-faible","label":"Montée faible (2 à 4 %)","color":"#f2c418"}},{"type":"Feature","geometry":{"type":"LineString","coordinates":[[3.79765,43.54229],[3.79686,43.54246],[3.79684,43.5425],[3.79671,43.54289]]},"properties":{"slope_pct":-2.2,"start_km":46.059,"end_km":46.175,"ele_start":74.2,"ele_end":71.7,"class":"descente-legere","label":"Descente légère (−4 à −2 %)","color":"#7cb4f5"}},{"type":"Feature","geometry":{"type":"LineString","coordinates":[[3.79671,43.54289],[3.79655,43.54321],[3.79642,43.54356],[3.79638,43.54387]]},"properties":{"slope_pct":-6.2,"start_km":46.175,"end_km":46.287,"ele_start":71.7,"ele_end":64.6,"class":"descente","label":"Descente (−8 à −4 %)","color":"#2563eb"}},{"type":"Feature","geometry":{"type":"LineString","coordinates":[[3.79638,43.54387],[3.7964,43.54407],[3.79641,43.54415],[3.79666,43.54509]]},"properties":{"slope_pct":-3.0,"start_km":46.287,"end_km":46.424,"ele_start":64.6,"ele_end":60.5,"class":"descente-legere","label":"Descente légère (−4 à −2 %)","color":"#7cb4f5"}},{"type":"Feature","geometry":{"type":"LineString","coordinates":[[3.79666,43.54509],[3.79639,43.54494],[3.79617,43.54476],[3.79579,43.54432],[3.79565,43.54421],[3.79525,43.54411],[3.79448,43.54385]]},"properties":{"slope_pct":4.5,"start_km":46.424,"end_km":46.655,"ele_start":60.5,"ele_end":70.9,"class":"montee-moderee","label":"Montée modérée (4 à 7 %)","color":"#f59e0b"}},{"type":"Feature","geometry":{"type":"LineString","coordinates":[[3.79448,43.54385],[3.79341,43.54338]]},"properties":{"slope_pct":-1.1,"start_km":46.655,"end_km":46.756,"ele_start":70.9,"ele_end":69.8,"class":"plat","label":"Plat (−2 à 2 %)","color":"#22a650"}},{"type":"Feature","geometry":{"type":"LineString","coordinates":[[3.79341,43.54338],[3.79197,43.54268],[3.79161,43.54234],[3.79155,43.54224],[3.7913,43.54212],[3.79111,43.54202],[3.79075,43.54191],[3.79042,43.54184],[3.79015,43.54183],[3.78931,43.5419]]},"properties":{"slope_pct":-5.0,"start_km":46.756,"end_km":47.148,"ele_start":69.8,"ele_end":50.1,"class":"descente","label":"Descente (−8 à −4 %)","color":"#2563eb"}},{"type":"Feature","geometry":{"type":"LineString","coordinates":[[3.78931,43.5419],[3.7891,43.54186],[3.78899,43.54182],[3.78892,43.54179],[3.78869,43.54186],[3.78819,43.54203],[3.78788,43.54214]]},"properties":{"slope_pct":-3.9,"start_km":47.148,"end_km":47.274,"ele_start":50.1,"ele_end":45.2,"class":"descente-legere","label":"Descente légère (−4 à −2 %)","color":"#7cb4f5"}},{"type":"Feature","geometry":{"type":"LineString","coordinates":[[3.78788,43.54214],[3.78778,43.5421],[3.78771,43.54206],[3.78751,43.54189],[3.78731,43.54157],[3.78665,43.54105],[3.78618,43.54075],[3.786,43.54072],[3.78582,43.54075],[3.78572,43.54082],[3.78559,43.54097]]},"properties":{"slope_pct":0.1,"start_km":47.274,"end_km":47.544,"ele_start":45.2,"ele_end":45.4,"class":"plat","label":"Plat (−2 à 2 %)","color":"#22a650"}},{"type":"Feature","geometry":{"type":"LineString","coordinates":[[3.78559,43.54097],[3.78543,43.54106],[3.7854,43.54116],[3.78544,43.54128],[3.78542,43.54136],[3.7853,43.54155],[3.78523,43.54165],[3.78513,43.54179],[3.78491,43.54191],[3.7847,43.54199],[3.78436,43.54219],[3.78419,43.54246]]},"properties":{"slope_pct":-4.7,"start_km":47.544,"end_km":47.757,"ele_start":45.4,"ele_end":35.5,"class":"descente","label":"Descente (−8 à −4 %)","color":"#2563eb"}},{"type":"Feature","geometry":{"type":"LineString","coordinates":[[3.78419,43.54246],[3.78446,43.54286],[3.78459,43.54302],[3.78442,43.54328],[3.78426,43.54343],[3.78391,43.54377],[3.78349,43.5442]]},"properties":{"slope_pct":-3.8,"start_km":47.757,"end_km":47.985,"ele_start":35.5,"ele_end":26.9,"class":"descente-legere","label":"Descente légère (−4 à −2 %)","color":"#7cb4f5"}},{"type":"Feature","geometry":{"type":"LineString","coordinates":[[3.78349,43.5442],[3.78341,43.54428],[3.78334,43.54441],[3.78335,43.54453],[3.78344,43.54469],[3.78375,43.54499]]},"properties":{"slope_pct":0.0,"start_km":47.985,"end_km":48.087,"ele_start":26.9,"ele_end":26.9,"class":"plat","label":"Plat (−2 à 2 %)","color":"#22a650"}},{"type":"Feature","geometry":{"type":"LineString","coordinates":[[3.78375,43.54499],[3.7839,43.54515],[3.78395,43.54534],[3.78397,43.54547],[3.78383,43.54558],[3.78279,43.54631]]},"properties":{"slope_pct":2.9,"start_km":48.087,"end_km":48.277,"ele_start":26.9,"ele_end":32.4,"class":"montee-faible","label":"Montée faible (2 à 4 %)","color":"#f2c418"}},{"type":"Feature","geometry":{"type":"LineString","coordinates":[[3.78279,43.54631],[3.78204,43.54703],[3.78139,43.54783]]},"properties":{"slope_pct":1.7,"start_km":48.277,"end_km":48.48,"ele_start":32.4,"ele_end":35.8,"class":"plat","label":"Plat (−2 à 2 %)","color":"#22a650"}},{"type":"Feature","geometry":{"type":"LineString","coordinates":[[3.78139,43.54783],[3.78066,43.54859]]},"properties":{"slope_pct":2.1,"start_km":48.48,"end_km":48.584,"ele_start":35.8,"ele_end":38.0,"class":"montee-faible","label":"Montée faible (2 à 4 %)","color":"#f2c418"}},{"type":"Feature","geometry":{"type":"LineString","coordinates":[[3.78066,43.54859],[3.78004,43.54901],[3.77996,43.54895],[3.7796,43.54915],[3.77912,43.54941],[3.77931,43.54965],[3.77958,43.54998],[3.77978,43.55023],[3.77972,43.55026],[3.77952,43.55036],[3.77919,43.55054],[3.77868,43.5508],[3.77843,43.55093],[3.77835,43.55097],[3.77766,43.55133],[3.77759,43.55139],[3.77739,43.55157],[3.77722,43.55176],[3.7772,43.55177],[3.77711,43.55186],[3.77699,43.55191],[3.7766,43.55198]]},"properties":{"slope_pct":-0.2,"start_km":48.584,"end_km":49.18,"ele_start":38.0,"ele_end":36.7,"class":"plat","label":"Plat (−2 à 2 %)","color":"#22a650"}},{"type":"Feature","geometry":{"type":"LineString","coordinates":[[3.7766,43.55198],[3.7765,43.55209],[3.77649,43.55215],[3.77642,43.5522],[3.77638,43.55222],[3.77633,43.55225],[3.77624,43.5523],[3.77591,43.55242],[3.77585,43.55244],[3.77574,43.5525],[3.77558,43.5526],[3.7755,43.55259],[3.7752,43.55243],[3.77516,43.5524],[3.77469,43.5521],[3.77448,43.55201],[3.77422,43.5519],[3.77407,43.55196],[3.77405,43.55196],[3.77396,43.55199],[3.77345,43.55204],[3.77341,43.55208],[3.77312,43.55218]]},"properties":{"slope_pct":-2.7,"start_km":49.18,"end_km":49.522,"ele_start":36.7,"ele_end":27.4,"class":"descente-legere","label":"Descente légère (−4 à −2 %)","color":"#7cb4f5"}},{"type":"Feature","geometry":{"type":"LineString","coordinates":[[3.77312,43.55218],[3.77174,43.55264],[3.77054,43.55305],[3.77035,43.55314],[3.76941,43.55358],[3.76899,43.55375],[3.7688,43.55382],[3.76851,43.5539],[3.76832,43.55393],[3.76686,43.5542],[3.76668,43.55423],[3.76631,43.55424],[3.76576,43.55426],[3.76504,43.55433],[3.76471,43.55437],[3.76446,43.55443],[3.76396,43.55461],[3.76363,43.5547]]},"properties":{"slope_pct":0.1,"start_km":49.522,"end_km":50.347,"ele_start":27.4,"ele_end":28.3,"class":"plat","label":"Plat (−2 à 2 %)","color":"#22a650"}},{"type":"Feature","geometry":{"type":"LineString","coordinates":[[3.76363,43.5547],[3.76335,43.55474],[3.76308,43.55474],[3.7613,43.55461],[3.76109,43.55458],[3.76091,43.55451],[3.7603,43.55415],[3.75983,43.55398],[3.75953,43.55392],[3.75922,43.55392],[3.75861,43.55396],[3.75611,43.55465],[3.75591,43.5547],[3.75607,43.55513],[3.75649,43.55605],[3.75658,43.5562],[3.75713,43.5571]]},"properties":{"slope_pct":0.3,"start_km":50.347,"end_km":51.291,"ele_start":28.3,"ele_end":30.6,"class":"plat","label":"Plat (−2 à 2 %)","color":"#22a650"}},{"type":"Feature","geometry":{"type":"LineString","coordinates":[[3.75713,43.5571],[3.75732,43.55726],[3.75751,43.55735],[3.75752,43.55741],[3.7574,43.55747],[3.75725,43.55766],[3.75686,43.55804],[3.75653,43.55848],[3.75637,43.55871],[3.75552,43.55967],[3.75518,43.55999],[3.75495,43.56028],[3.75439,43.56138],[3.75415,43.56189],[3.7537,43.56266],[3.75365,43.56275],[3.75345,43.56313],[3.75321,43.56375]]},"properties":{"slope_pct":0.6,"start_km":51.291,"end_km":52.132,"ele_start":30.6,"ele_end":35.3,"class":"plat","label":"Plat (−2 à 2 %)","color":"#22a650"}},{"type":"Feature","geometry":{"type":"LineString","coordinates":[[3.75321,43.56375],[3.75298,43.56449],[3.75291,43.56554],[3.75298,43.56587],[3.75309,43.56626],[3.75432,43.56683],[3.7566,43.56773],[3.75715,43.56791],[3.75891,43.56847],[3.75972,43.56869],[3.76047,43.56883]]},"properties":{"slope_pct":-0.2,"start_km":52.132,"end_km":53.077,"ele_start":35.3,"ele_end":33.8,"class":"plat","label":"Plat (−2 à 2 %)","color":"#22a650"}},{"type":"Feature","geometry":{"type":"LineString","coordinates":[[3.76047,43.56883],[3.76138,43.56894],[3.76156,43.56896],[3.76201,43.56899]]},"properties":{"slope_pct":0.7,"start_km":53.077,"end_km":53.202,"ele_start":33.8,"ele_end":34.8,"class":"plat","label":"Plat (−2 à 2 %)","color":"#22a650"}},{"type":"Feature","geometry":{"type":"LineString","coordinates":[[3.76201,43.56899],[3.7639,43.56883]]},"properties":{"slope_pct":2.3,"start_km":53.202,"end_km":53.356,"ele_start":34.8,"ele_end":38.4,"class":"montee-faible","label":"Montée faible (2 à 4 %)","color":"#f2c418"}},{"type":"Feature","geometry":{"type":"LineString","coordinates":[[3.7639,43.56883],[3.76449,43.56885],[3.76482,43.56888],[3.76534,43.569],[3.76633,43.56913],[3.76728,43.56933],[3.76781,43.5694],[3.76825,43.56952],[3.7687,43.56977],[3.76889,43.56992],[3.76913,43.57017],[3.76921,43.57024],[3.76949,43.57056],[3.76985,43.57091],[3.7704,43.57142],[3.77088,43.57194],[3.77145,43.57259],[3.77151,43.57265],[3.77187,43.57285],[3.77215,43.57284],[3.77224,43.57288],[3.77244,43.57272],[3.77271,43.57259]]},"properties":{"slope_pct":0.1,"start_km":53.356,"end_km":54.272,"ele_start":38.4,"ele_end":39.4,"class":"plat","label":"Plat (−2 à 2 %)","color":"#22a650"}},{"type":"Feature","geometry":{"type":"LineString","coordinates":[[3.77271,43.57259],[3.77279,43.57255],[3.7732,43.57232],[3.7733,43.57222],[3.77336,43.57213],[3.77339,43.57214],[3.77354,43.57244],[3.77353,43.57247],[3.77361,43.57263],[3.7737,43.57279],[3.77383,43.57308],[3.77393,43.57326],[3.774,43.57331]]},"properties":{"slope_pct":1.0,"start_km":54.272,"end_km":54.49,"ele_start":39.4,"ele_end":41.5,"class":"plat","label":"Plat (−2 à 2 %)","color":"#22a650"}},{"type":"Feature","geometry":{"type":"LineString","coordinates":[[3.774,43.57331],[3.77438,43.57343],[3.77465,43.57342],[3.77521,43.57338],[3.77542,43.57337],[3.77666,43.57335],[3.7771,43.57334]]},"properties":{"slope_pct":-4.6,"start_km":54.49,"end_km":54.742,"ele_start":41.5,"ele_end":29.8,"class":"descente","label":"Descente (−8 à −4 %)","color":"#2563eb"}},{"type":"Feature","geometry":{"type":"LineString","coordinates":[[3.7771,43.57334],[3.77756,43.57338],[3.77804,43.57345],[3.77835,43.57353]]},"properties":{"slope_pct":-3.1,"start_km":54.742,"end_km":54.845,"ele_start":29.8,"ele_end":26.6,"class":"descente-legere","label":"Descente légère (−4 à −2 %)","color":"#7cb4f5"}},{"type":"Feature","geometry":{"type":"LineString","coordinates":[[3.77835,43.57353],[3.77875,43.57365],[3.77909,43.57376],[3.78052,43.57418],[3.78067,43.57422],[3.78118,43.57436],[3.78132,43.57442],[3.78152,43.57452],[3.78198,43.57485],[3.7825,43.57518],[3.78255,43.57522],[3.78273,43.57518],[3.78318,43.57525],[3.78384,43.57525],[3.78558,43.57495],[3.78611,43.57547],[3.78666,43.57585],[3.78737,43.57619],[3.7882,43.57644]]},"properties":{"slope_pct":0.0,"start_km":54.845,"end_km":55.761,"ele_start":26.6,"ele_end":26.7,"class":"plat","label":"Plat (−2 à 2 %)","color":"#22a650"}},{"type":"Feature","geometry":{"type":"LineString","coordinates":[[3.7882,43.57644],[3.78894,43.57681],[3.79012,43.57771],[3.79101,43.57832],[3.79102,43.57833],[3.79251,43.57944],[3.79231,43.57964],[3.7927,43.57998],[3.79353,43.5808],[3.79357,43.58097],[3.79364,43.58108],[3.79395,43.58128],[3.79426,43.58143],[3.7943,43.58155],[3.79429,43.58158],[3.79424,43.58163],[3.79391,43.58179],[3.79414,43.58201],[3.79432,43.58206],[3.79548,43.58206]]},"properties":{"slope_pct":0.0,"start_km":55.761,"end_km":56.725,"ele_start":26.7,"ele_end":26.8,"class":"plat","label":"Plat (−2 à 2 %)","color":"#22a650"}},{"type":"Feature","geometry":{"type":"LineString","coordinates":[[3.79548,43.58206],[3.79678,43.58202]]},"properties":{"slope_pct":1.9,"start_km":56.725,"end_km":56.829,"ele_start":26.8,"ele_end":28.8,"class":"plat","label":"Plat (−2 à 2 %)","color":"#22a650"}},{"type":"Feature","geometry":{"type":"LineString","coordinates":[[3.79678,43.58202],[3.79746,43.58187],[3.79803,43.58182]]},"properties":{"slope_pct":2.2,"start_km":56.829,"end_km":56.933,"ele_start":28.8,"ele_end":31.1,"class":"montee-faible","label":"Montée faible (2 à 4 %)","color":"#f2c418"}},{"type":"Feature","geometry":{"type":"LineString","coordinates":[[3.79803,43.58182],[3.79828,43.58178],[3.7985,43.5817],[3.79872,43.58188],[3.79877,43.58196],[3.79883,43.58221],[3.79884,43.58225],[3.79907,43.58302],[3.79908,43.58309],[3.79955,43.58304],[3.79956,43.58311],[3.79962,43.5834],[3.79963,43.58346],[3.80064,43.58393],[3.80072,43.58392],[3.80101,43.58363],[3.80131,43.58377],[3.80136,43.58379],[3.80141,43.58382],[3.80146,43.58385],[3.80156,43.58395]]},"properties":{"slope_pct":0.3,"start_km":56.933,"end_km":57.422,"ele_start":31.1,"ele_end":32.8,"class":"plat","label":"Plat (−2 à 2 %)","color":"#22a650"}},{"type":"Feature","geometry":{"type":"LineString","coordinates":[[3.80156,43.58395],[3.80188,43.58418],[3.80199,43.58409],[3.80286,43.58429]]},"properties":{"slope_pct":2.1,"start_km":57.422,"end_km":57.547,"ele_start":32.8,"ele_end":35.4,"class":"montee-faible","label":"Montée faible (2 à 4 %)","color":"#f2c418"}},{"type":"Feature","geometry":{"type":"LineString","coordinates":[[3.80286,43.58429],[3.80293,43.58431],[3.80304,43.58432],[3.80333,43.58443],[3.80363,43.58457],[3.80388,43.58464],[3.80452,43.58476],[3.80471,43.58485],[3.8048,43.58489],[3.80616,43.58486],[3.80653,43.58488],[3.80686,43.5849],[3.80694,43.58491],[3.80724,43.58493],[3.80741,43.58498],[3.80746,43.58494],[3.8076,43.58501],[3.80811,43.58538],[3.80872,43.58583]]},"properties":{"slope_pct":-1.0,"start_km":57.547,"end_km":58.078,"ele_start":35.4,"ele_end":30.3,"class":"plat","label":"Plat (−2 à 2 %)","color":"#22a650"}},{"type":"Feature","geometry":{"type":"LineString","coordinates":[[3.80872,43.58583],[3.8095,43.58638],[3.80953,43.5864],[3.80963,43.58651]]},"properties":{"slope_pct":-2.2,"start_km":58.078,"end_km":58.184,"ele_start":30.3,"ele_end":28.0,"class":"descente-legere","label":"Descente légère (−4 à −2 %)","color":"#7cb4f5"}},{"type":"Feature","geometry":{"type":"LineString","coordinates":[[3.80963,43.58651],[3.80995,43.58675],[3.81014,43.58693],[3.81076,43.58735],[3.81098,43.58755],[3.81123,43.58772],[3.81123,43.58775],[3.81311,43.58905],[3.81583,43.59098],[3.81606,43.59117],[3.8161,43.59145],[3.81599,43.59164],[3.8159,43.59177],[3.8158,43.59178],[3.81503,43.59153],[3.81502,43.59152],[3.81457,43.59138]]},"properties":{"slope_pct":-0.4,"start_km":58.184,"end_km":59.105,"ele_start":28.0,"ele_end":24.4,"class":"plat","label":"Plat (−2 à 2 %)","color":"#22a650"}},{"type":"Feature","geometry":{"type":"LineString","coordinates":[[3.81457,43.59138],[3.8146,43.59128],[3.81555,43.59154],[3.81593,43.5916],[3.81664,43.59179],[3.81705,43.59194],[3.81774,43.59213],[3.81782,43.59221],[3.81786,43.59255],[3.81793,43.5926],[3.82007,43.59299],[3.82012,43.59309],[3.82016,43.59317],[3.8203,43.59326],[3.82045,43.5936],[3.82054,43.59364],[3.82067,43.59364],[3.82076,43.59363],[3.82086,43.59344],[3.82097,43.59333],[3.82137,43.59314],[3.82139,43.59324],[3.82112,43.59347],[3.82095,43.59365],[3.82068,43.59401],[3.82057,43.59417],[3.82053,43.59432]]},"properties":{"slope_pct":0.5,"start_km":59.105,"end_km":59.951,"ele_start":24.4,"ele_end":28.4,"class":"plat","label":"Plat (−2 à 2 %)","color":"#22a650"}},{"type":"Feature","geometry":{"type":"LineString","coordinates":[[3.82053,43.59432],[3.82057,43.59417],[3.82068,43.59401],[3.82104,43.59428],[3.82141,43.59466]]},"properties":{"slope_pct":3.7,"start_km":59.951,"end_km":60.082,"ele_start":28.4,"ele_end":33.3,"class":"montee-faible","label":"Montée faible (2 à 4 %)","color":"#f2c418"}},{"type":"Feature","geometry":{"type":"LineString","coordinates":[[3.82141,43.59466],[3.82158,43.59477],[3.82179,43.59477],[3.82218,43.5949],[3.82248,43.59505],[3.82302,43.59546],[3.82428,43.59631]]},"properties":{"slope_pct":7.6,"start_km":60.082,"end_km":60.383,"ele_start":33.3,"ele_end":56.2,"class":"montee-soutenue","label":"Montée soutenue (7 à 10 %)","color":"#ea580c"}},{"type":"Feature","geometry":{"type":"LineString","coordinates":[[3.82428,43.59631],[3.82462,43.59658],[3.8252,43.59707]]},"properties":{"slope_pct":3.6,"start_km":60.383,"end_km":60.495,"ele_start":56.2,"ele_end":60.3,"class":"montee-faible","label":"Montée faible (2 à 4 %)","color":"#f2c418"}},{"type":"Feature","geometry":{"type":"LineString","coordinates":[[3.8252,43.59707],[3.82525,43.59711],[3.82461,43.59758],[3.82348,43.59833],[3.82357,43.59876],[3.82359,43.59898],[3.82353,43.59929]]},"properties":{"slope_pct":-0.1,"start_km":60.495,"end_km":60.806,"ele_start":60.3,"ele_end":60.0,"class":"plat","label":"Plat (−2 à 2 %)","color":"#22a650"}},{"type":"Feature","geometry":{"type":"LineString","coordinates":[[3.82353,43.59929],[3.82342,43.59946],[3.82332,43.59971],[3.82329,43.6001],[3.82332,43.60043],[3.82371,43.60133]]},"properties":{"slope_pct":4.7,"start_km":60.806,"end_km":61.041,"ele_start":60.0,"ele_end":71.2,"class":"montee-moderee","label":"Montée modérée (4 à 7 %)","color":"#f59e0b"}},{"type":"Feature","geometry":{"type":"LineString","coordinates":[[3.82371,43.60133],[3.82445,43.60277],[3.8245,43.60287],[3.8246,43.60305],[3.82497,43.60374]]},"properties":{"slope_pct":-0.1,"start_km":61.041,"end_km":61.327,"ele_start":71.2,"ele_end":70.9,"class":"plat","label":"Plat (−2 à 2 %)","color":"#22a650"}},{"type":"Feature","geometry":{"type":"LineString","coordinates":[[3.82497,43.60374],[3.82503,43.60394],[3.82519,43.60449],[3.82536,43.60483],[3.82561,43.60522],[3.8259,43.60569]]},"properties":{"slope_pct":2.5,"start_km":61.327,"end_km":61.558,"ele_start":70.9,"ele_end":76.7,"class":"montee-faible","label":"Montée faible (2 à 4 %)","color":"#f2c418"}},{"type":"Feature","geometry":{"type":"LineString","coordinates":[[3.8259,43.60569],[3.826,43.60596],[3.82611,43.60624],[3.8262,43.6065],[3.82645,43.60705]]},"properties":{"slope_pct":-4.9,"start_km":61.558,"end_km":61.716,"ele_start":76.7,"ele_end":68.9,"class":"descente","label":"Descente (−8 à −4 %)","color":"#2563eb"}},{"type":"Feature","geometry":{"type":"LineString","coordinates":[[3.82645,43.60705],[3.82658,43.60704],[3.82662,43.60706],[3.82665,43.6071],[3.82664,43.60715],[3.82677,43.60739],[3.82677,43.60747],[3.82741,43.60887],[3.82745,43.60897],[3.82748,43.60903],[3.82746,43.60908],[3.82748,43.60912],[3.82752,43.60923],[3.8276,43.60939],[3.82788,43.60999]]},"properties":{"slope_pct":-0.4,"start_km":61.716,"end_km":62.074,"ele_start":68.9,"ele_end":67.4,"class":"plat","label":"Plat (−2 à 2 %)","color":"#22a650"}},{"type":"Feature","geometry":{"type":"LineString","coordinates":[[3.82788,43.60999],[3.82803,43.61026],[3.82822,43.61061],[3.8285,43.61116]]},"properties":{"slope_pct":-5.2,"start_km":62.074,"end_km":62.213,"ele_start":67.4,"ele_end":60.2,"class":"descente","label":"Descente (−8 à −4 %)","color":"#2563eb"}},{"type":"Feature","geometry":{"type":"LineString","coordinates":[[3.8285,43.61116],[3.82856,43.61123],[3.82869,43.61136],[3.8288,43.6115],[3.82897,43.61179],[3.82932,43.61186],[3.82967,43.61189],[3.82982,43.61192],[3.82998,43.612],[3.82993,43.61235],[3.82979,43.613],[3.82975,43.61357],[3.82978,43.61361],[3.82979,43.61416],[3.8298,43.61469],[3.82913,43.61461],[3.82921,43.61478],[3.82962,43.6153],[3.82963,43.61536],[3.82997,43.61582]]},"properties":{"slope_pct":0.9,"start_km":62.213,"end_km":62.886,"ele_start":60.2,"ele_end":66.5,"class":"plat","label":"Plat (−2 à 2 %)","color":"#22a650"}},{"type":"Feature","geometry":{"type":"LineString","coordinates":[[3.82997,43.61582],[3.83007,43.61594],[3.8301,43.61597],[3.83038,43.61638],[3.83119,43.61729]]},"properties":{"slope_pct":2.3,"start_km":62.886,"end_km":63.076,"ele_start":66.5,"ele_end":71.0,"class":"montee-faible","label":"Montée faible (2 à 4 %)","color":"#f2c418"}},{"type":"Feature","geometry":{"type":"LineString","coordinates":[[3.83119,43.61729],[3.83178,43.61815],[3.83184,43.61816],[3.83197,43.61836],[3.8322,43.61868],[3.83245,43.61915],[3.83263,43.61951],[3.83265,43.61963],[3.83264,43.61971],[3.83274,43.61975],[3.83281,43.61982],[3.83281,43.61986],[3.83286,43.6199],[3.83289,43.61999],[3.83338,43.62043],[3.83423,43.62114],[3.83491,43.62169],[3.83544,43.62212],[3.83541,43.62213],[3.83536,43.62217],[3.83527,43.62223],[3.83522,43.62226],[3.83515,43.6223],[3.83513,43.62232],[3.83511,43.62236],[3.83503,43.62242],[3.83511,43.62251],[3.83514,43.62256],[3.83516,43.62259],[3.83518,43.62263],[3.83527,43.62268],[3.83507,43.62284],[3.83486,43.62291],[3.83469,43.62301],[3.83454,43.62311],[3.83442,43.62326],[3.83436,43.62347],[3.83436,43.62363],[3.83457,43.6242],[3.83415,43.62446]]},"properties":{"slope_pct":0.1,"start_km":63.076,"end_km":64.057,"ele_start":71.0,"ele_end":72.3,"class":"plat","label":"Plat (−2 à 2 %)","color":"#22a650"}},{"type":"Feature","geometry":{"type":"LineString","coordinates":[[3.83415,43.62446],[3.83407,43.6245],[3.83432,43.6249],[3.83418,43.62495],[3.83421,43.62499],[3.83427,43.62507],[3.83467,43.62496],[3.83482,43.62498],[3.83499,43.62505],[3.83555,43.62534],[3.8357,43.6255]]},"properties":{"slope_pct":-0.1,"start_km":64.057,"end_km":64.282,"ele_start":72.3,"ele_end":72.0,"class":"plat","label":"Plat (−2 à 2 %)","color":"#22a650"}},{"type":"Feature","geometry":{"type":"LineString","coordinates":[[3.8357,43.6255],[3.83594,43.6257],[3.83611,43.62577],[3.83673,43.62577],[3.83682,43.62581],[3.83791,43.62661],[3.83794,43.62663],[3.83852,43.62688],[3.83861,43.62687],[3.83879,43.62696],[3.83947,43.62734],[3.8399,43.62767],[3.84022,43.62793],[3.84061,43.6283]]},"properties":{"slope_pct":-2.7,"start_km":64.282,"end_km":64.802,"ele_start":72.0,"ele_end":58.0,"class":"descente-legere","label":"Descente légère (−4 à −2 %)","color":"#7cb4f5"}},{"type":"Feature","geometry":{"type":"LineString","coordinates":[[3.84061,43.6283],[3.84118,43.62895],[3.84135,43.62917],[3.84145,43.62937],[3.84158,43.62974],[3.84162,43.62998],[3.84163,43.63004],[3.84164,43.63009],[3.84162,43.63014],[3.84167,43.63043],[3.8417,43.63041],[3.84177,43.63039],[3.84201,43.63034],[3.8421,43.63034],[3.84243,43.63036],[3.84269,43.63042],[3.84289,43.6305],[3.84298,43.63056],[3.84302,43.63057],[3.84303,43.63058],[3.84322,43.6308],[3.84323,43.63103],[3.84319,43.63136],[3.84312,43.63187],[3.84308,43.63218],[3.84308,43.63227],[3.84346,43.63336],[3.84347,43.63345],[3.84349,43.63356],[3.84355,43.63387],[3.84335,43.63388],[3.84346,43.63421],[3.8438,43.63488],[3.84392,43.63506]]},"properties":{"slope_pct":-0.6,"start_km":64.802,"end_km":65.707,"ele_start":58.0,"ele_end":52.5,"class":"plat","label":"Plat (−2 à 2 %)","color":"#22a650"}},{"type":"Feature","geometry":{"type":"LineString","coordinates":[[3.84392,43.63506],[3.84395,43.63511],[3.84427,43.6356],[3.84433,43.63573],[3.84451,43.63608],[3.84457,43.63618],[3.84466,43.63636],[3.84485,43.63664],[3.84504,43.63683],[3.84513,43.63692],[3.84517,43.63689],[3.84619,43.63791],[3.84642,43.63807],[3.8469,43.63822],[3.84707,43.63831],[3.84713,43.63836],[3.84717,43.63838],[3.84727,43.63838]]},"properties":{"slope_pct":0.3,"start_km":65.707,"end_km":66.186,"ele_start":52.5,"ele_end":53.7,"class":"plat","label":"Plat (−2 à 2 %)","color":"#22a650"}},{"type":"Feature","geometry":{"type":"LineString","coordinates":[[3.84727,43.63838],[3.84749,43.63838],[3.84757,43.63838],[3.84757,43.63854],[3.84757,43.63857],[3.84756,43.63866],[3.84756,43.63868],[3.84756,43.63883],[3.8476,43.63885],[3.84765,43.63888],[3.84759,43.639],[3.8476,43.64023],[3.84761,43.64043],[3.84779,43.64069],[3.84785,43.64071],[3.84785,43.64076],[3.84786,43.64082],[3.84781,43.64084],[3.84766,43.64113]]},"properties":{"slope_pct":2.1,"start_km":66.186,"end_km":66.532,"ele_start":53.7,"ele_end":61.0,"class":"montee-faible","label":"Montée faible (2 à 4 %)","color":"#f2c418"}},{"type":"Feature","geometry":{"type":"LineString","coordinates":[[3.84766,43.64113],[3.84767,43.64153],[3.84774,43.64163],[3.84775,43.64187],[3.84779,43.642],[3.84804,43.64238],[3.84838,43.64275],[3.84858,43.64291],[3.84885,43.64306]]},"properties":{"slope_pct":4.3,"start_km":66.532,"end_km":66.778,"ele_start":61.0,"ele_end":71.6,"class":"montee-moderee","label":"Montée modérée (4 à 7 %)","color":"#f59e0b"}},{"type":"Feature","geometry":{"type":"LineString","coordinates":[[3.84885,43.64306],[3.84919,43.64324],[3.8498,43.64347],[3.85026,43.64369],[3.85178,43.64455],[3.85221,43.64477],[3.85238,43.64481],[3.85287,43.64483],[3.85289,43.64485],[3.85295,43.64491]]},"properties":{"slope_pct":0.0,"start_km":66.778,"end_km":67.174,"ele_start":71.6,"ele_end":71.8,"class":"plat","label":"Plat (−2 à 2 %)","color":"#22a650"}},{"type":"Feature","geometry":{"type":"LineString","coordinates":[[3.85295,43.64491],[3.85298,43.64494],[3.853,43.64497],[3.85294,43.64504],[3.85294,43.64512],[3.85298,43.64522],[3.85345,43.64552],[3.85364,43.64566],[3.85403,43.64609],[3.85417,43.64634],[3.85447,43.64693],[3.85476,43.64758],[3.855,43.64795],[3.85537,43.64838],[3.85557,43.64858],[3.85605,43.64895]]},"properties":{"slope_pct":-2.7,"start_km":67.174,"end_km":67.702,"ele_start":71.8,"ele_end":57.7,"class":"descente-legere","label":"Descente légère (−4 à −2 %)","color":"#7cb4f5"}},{"type":"Feature","geometry":{"type":"LineString","coordinates":[[3.85605,43.64895],[3.8565,43.64921],[3.85707,43.64946],[3.85743,43.64959],[3.85962,43.65012]]},"properties":{"slope_pct":-0.9,"start_km":67.702,"end_km":68.02,"ele_start":57.7,"ele_end":54.7,"class":"plat","label":"Plat (−2 à 2 %)","color":"#22a650"}},{"type":"Feature","geometry":{"type":"LineString","coordinates":[[3.85962,43.65012],[3.86308,43.65047]]},"properties":{"slope_pct":-4.0,"start_km":68.02,"end_km":68.301,"ele_start":54.7,"ele_end":43.5,"class":"descente-legere","label":"Descente légère (−4 à −2 %)","color":"#7cb4f5"}},{"type":"Feature","geometry":{"type":"LineString","coordinates":[[3.86308,43.65047],[3.86363,43.65051],[3.86389,43.65052],[3.86512,43.65062],[3.86553,43.65055],[3.8657,43.65037],[3.86586,43.65028],[3.86595,43.65027],[3.866,43.65026],[3.86602,43.65027],[3.86617,43.65037],[3.8662,43.65039],[3.86624,43.65043],[3.86636,43.65051],[3.86655,43.65061],[3.8668,43.65071],[3.86709,43.65078],[3.86811,43.65091],[3.86891,43.65111],[3.8695,43.65129],[3.87026,43.65158],[3.87081,43.6518],[3.87139,43.65208],[3.87192,43.65236],[3.87295,43.65317]]},"properties":{"slope_pct":-0.2,"start_km":68.301,"end_km":69.211,"ele_start":43.5,"ele_end":41.6,"class":"plat","label":"Plat (−2 à 2 %)","color":"#22a650"}},{"type":"Feature","geometry":{"type":"LineString","coordinates":[[3.87295,43.65317],[3.87351,43.65365],[3.87368,43.65378],[3.8738,43.65391],[3.87473,43.65438],[3.87478,43.65441],[3.87479,43.65445]]},"properties":{"slope_pct":2.3,"start_km":69.211,"end_km":69.42,"ele_start":41.6,"ele_end":46.3,"class":"montee-faible","label":"Montée faible (2 à 4 %)","color":"#f2c418"}},{"type":"Feature","geometry":{"type":"LineString","coordinates":[[3.87479,43.65445],[3.87469,43.65479],[3.87471,43.65485],[3.87475,43.65486],[3.87528,43.65493],[3.87531,43.65499],[3.87647,43.65497],[3.87829,43.65492],[3.87867,43.65489],[3.87877,43.65494],[3.87928,43.65509],[3.8795,43.65515],[3.87983,43.65523],[3.88043,43.65539],[3.88053,43.65542],[3.88068,43.65546],[3.88087,43.65538],[3.88096,43.65533],[3.88098,43.65526],[3.88095,43.65525]]},"properties":{"slope_pct":1.0,"start_km":69.42,"end_km":70.001,"ele_start":46.3,"ele_end":52.3,"class":"plat","label":"Plat (−2 à 2 %)","color":"#22a650"}}]}
