{"type":"FeatureCollection","generator":"tools/slope_colors.py","format_version":1,"source_gpx":"2026-07-27_3146656692_montpellier - cres -clapiers.gpx","source_sha256":"7e0f3e145d0e02f0c025d61b5065a8da60f706e1298fd7216f428e0eefbdff5d","params_fingerprint":"4bb834e818a4f3f7","params":{"segment_length_m":100.0,"smoothing_window_m":150.0,"resample_step_m":10.0,"max_merged_length_m":1000.0,"classes":[{"key":"descente-forte","label":"Descente forte (< −6 %)","min":null,"max":-6.0,"color":"#1d4ed8"},{"key":"descente","label":"Descente (−6 à −2 %)","min":-6.0,"max":-2.0,"color":"#60a5fa"},{"key":"plat","label":"Plat (−2 à 2 %)","min":-2.0,"max":2.0,"color":"#94a3b8"},{"key":"montee-faible","label":"Montée faible (2 à 4 %)","min":2.0,"max":4.0,"color":"#22c55e"},{"key":"montee-moderee","label":"Montée modérée (4 à 7 %)","min":4.0,"max":7.0,"color":"#eab308"},{"key":"montee-soutenue","label":"Montée soutenue (7 à 10 %)","min":7.0,"max":10.0,"color":"#f97316"},{"key":"montee-forte","label":"Montée forte (≥ 10 %)","min":10.0,"max":null,"color":"#dc2626"}]},"legend":[{"key":"descente-forte","label":"Descente forte (< −6 %)","min":null,"max":-6.0,"color":"#1d4ed8"},{"key":"descente","label":"Descente (−6 à −2 %)","min":-6.0,"max":-2.0,"color":"#60a5fa"},{"key":"plat","label":"Plat (−2 à 2 %)","min":-2.0,"max":2.0,"color":"#94a3b8"},{"key":"montee-faible","label":"Montée faible (2 à 4 %)","min":2.0,"max":4.0,"color":"#22c55e"},{"key":"montee-moderee","label":"Montée modérée (4 à 7 %)","min":4.0,"max":7.0,"color":"#eab308"},{"key":"montee-soutenue","label":"Montée soutenue (7 à 10 %)","min":7.0,"max":10.0,"color":"#f97316"},{"key":"montee-forte","label":"Montée forte (≥ 10 %)","min":10.0,"max":null,"color":"#dc2626"}],"stats":{"distance_km":24.68,"elevation_valid_ratio":1.0,"elevation_ok":true,"smoothed_gain_m":200,"max_slope_pct":5.3,"min_slope_pct":-9.0},"features":[{"type":"Feature","geometry":{"type":"LineString","coordinates":[[3.89589,43.59946],[3.89548,43.59974],[3.89536,43.59965],[3.89535,43.59966],[3.89561,43.59984],[3.8957,43.59986],[3.89568,43.59988],[3.89579,43.59992],[3.89583,43.59994],[3.89625,43.60016],[3.89632,43.60021],[3.89713,43.60063],[3.89737,43.60073],[3.89741,43.60075],[3.89729,43.60088],[3.89725,43.60089],[3.89724,43.60091],[3.89702,43.60077],[3.89635,43.60133],[3.89628,43.60149],[3.8963,43.60171],[3.89633,43.6018],[3.89647,43.60236],[3.8965,43.60243],[3.89674,43.60301],[3.89679,43.60309],[3.89683,43.60317],[3.89734,43.60373],[3.8974,43.60381],[3.89751,43.60407],[3.89753,43.60414],[3.89749,43.60414],[3.89627,43.60406],[3.89637,43.6043],[3.89636,43.60433],[3.89635,43.60439],[3.89672,43.60528]]},"properties":{"slope_pct":-0.4,"start_km":0.0,"end_km":0.977,"ele_start":13.6,"ele_end":9.3,"class":"plat","label":"Plat (−2 à 2 %)","color":"#94a3b8"}},{"type":"Feature","geometry":{"type":"LineString","coordinates":[[3.89672,43.60528],[3.89683,43.6057],[3.89688,43.6063],[3.89685,43.60639],[3.89672,43.60665],[3.89669,43.60679],[3.89677,43.60749],[3.89678,43.60765],[3.89688,43.60834],[3.8969,43.60876],[3.8969,43.60921],[3.89689,43.60933],[3.89666,43.60989],[3.89679,43.60989],[3.89773,43.60991],[3.89775,43.60965]]},"properties":{"slope_pct":0.5,"start_km":0.977,"end_km":1.612,"ele_start":9.3,"ele_end":12.5,"class":"plat","label":"Plat (−2 à 2 %)","color":"#94a3b8"}},{"type":"Feature","geometry":{"type":"LineString","coordinates":[[3.89775,43.60965],[3.89826,43.6097],[3.89861,43.60976],[3.89868,43.60987],[3.89866,43.61005]]},"properties":{"slope_pct":2.3,"start_km":1.612,"end_km":1.715,"ele_start":12.5,"ele_end":14.9,"class":"montee-faible","label":"Montée faible (2 à 4 %)","color":"#22c55e"}},{"type":"Feature","geometry":{"type":"LineString","coordinates":[[3.89866,43.61005],[3.89876,43.61007],[3.89888,43.6101],[3.89898,43.61012],[3.89886,43.61037],[3.89875,43.61049],[3.89868,43.61082],[3.89866,43.61092],[3.8986,43.61111],[3.89839,43.6118],[3.89836,43.61209],[3.89829,43.61247],[3.89825,43.61308],[3.89821,43.61403],[3.89821,43.61414],[3.89811,43.61456],[3.89803,43.61489],[3.89799,43.6151],[3.89793,43.61521],[3.89791,43.61527],[3.8978,43.61565],[3.89776,43.61574],[3.89772,43.61581],[3.89759,43.61632],[3.89755,43.61647],[3.89747,43.61709],[3.89744,43.61756],[3.89742,43.61809],[3.89743,43.61816],[3.89744,43.61827],[3.89745,43.61829],[3.89744,43.61838],[3.89741,43.61859]]},"properties":{"slope_pct":0.3,"start_km":1.715,"end_km":2.699,"ele_start":14.9,"ele_end":18.0,"class":"plat","label":"Plat (−2 à 2 %)","color":"#94a3b8"}},{"type":"Feature","geometry":{"type":"LineString","coordinates":[[3.89741,43.61859],[3.89743,43.61879],[3.89739,43.61883],[3.89746,43.61949],[3.89752,43.62005],[3.89759,43.62068],[3.89773,43.62206],[3.8978,43.62219],[3.89778,43.62231],[3.89783,43.6226],[3.89794,43.6228],[3.89805,43.62292],[3.89838,43.62316],[3.8984,43.62319],[3.89843,43.6233],[3.89869,43.62363],[3.89878,43.62376]]},"properties":{"slope_pct":0.7,"start_km":2.699,"end_km":3.301,"ele_start":18.0,"ele_end":22.3,"class":"plat","label":"Plat (−2 à 2 %)","color":"#94a3b8"}},{"type":"Feature","geometry":{"type":"LineString","coordinates":[[3.89878,43.62376],[3.89884,43.62384],[3.89885,43.62394],[3.89891,43.624],[3.89981,43.62481]]},"properties":{"slope_pct":3.1,"start_km":3.301,"end_km":3.446,"ele_start":22.3,"ele_end":26.9,"class":"montee-faible","label":"Montée faible (2 à 4 %)","color":"#22c55e"}},{"type":"Feature","geometry":{"type":"LineString","coordinates":[[3.89981,43.62481],[3.90008,43.62512],[3.90035,43.62537],[3.90047,43.62547],[3.9006,43.62557],[3.90082,43.6258],[3.90102,43.62607],[3.90106,43.62614],[3.90119,43.62628],[3.90132,43.62632],[3.90134,43.62634],[3.90136,43.62641],[3.90138,43.62645],[3.90127,43.62648],[3.9012,43.62658],[3.90115,43.62664],[3.90113,43.62667],[3.90115,43.62667],[3.90121,43.6267],[3.90145,43.62668],[3.90156,43.6267],[3.90184,43.62685],[3.90199,43.62693],[3.90216,43.62699],[3.90236,43.62707],[3.9027,43.62721],[3.90313,43.62743],[3.90371,43.62757],[3.90375,43.6276],[3.90377,43.62762],[3.90381,43.6278],[3.90387,43.62787],[3.90484,43.62821],[3.90682,43.62878],[3.90694,43.62878],[3.90706,43.62872],[3.90719,43.6287],[3.90726,43.62872],[3.90755,43.62888],[3.90771,43.62895],[3.90812,43.62906]]},"properties":{"slope_pct":0.2,"start_km":3.446,"end_km":4.351,"ele_start":26.9,"ele_end":28.4,"class":"plat","label":"Plat (−2 à 2 %)","color":"#94a3b8"}},{"type":"Feature","geometry":{"type":"LineString","coordinates":[[3.90812,43.62906],[3.90884,43.62928],[3.90896,43.62933],[3.90915,43.62947],[3.90947,43.62976],[3.9101,43.62999],[3.91017,43.63001],[3.9102,43.63003],[3.91047,43.62987],[3.9105,43.6299],[3.91051,43.63003],[3.91064,43.63011],[3.91081,43.63021],[3.91084,43.63022],[3.91084,43.63022],[3.91192,43.63057],[3.913,43.63091],[3.91407,43.63126],[3.91515,43.63161],[3.91622,43.63196],[3.9173,43.6323],[3.91838,43.63265]]},"properties":{"slope_pct":0.8,"start_km":4.351,"end_km":5.3,"ele_start":28.4,"ele_end":35.6,"class":"plat","label":"Plat (−2 à 2 %)","color":"#94a3b8"}},{"type":"Feature","geometry":{"type":"LineString","coordinates":[[3.91838,43.63265],[3.91945,43.633],[3.92053,43.63334],[3.92161,43.63369],[3.92157,43.63376],[3.92162,43.63378],[3.92166,43.63381],[3.92172,43.63387],[3.92162,43.63397],[3.92162,43.63403],[3.92157,43.6341],[3.92148,43.63414],[3.92141,43.63414],[3.92129,43.63411],[3.92122,43.63404],[3.92107,43.63397],[3.92111,43.63402],[3.92108,43.63412],[3.92117,43.63429],[3.92123,43.63444],[3.92116,43.63454],[3.92112,43.6346],[3.92142,43.63471],[3.92152,43.63485],[3.92169,43.63516],[3.92203,43.63581],[3.92211,43.63596],[3.92227,43.63622],[3.92247,43.63661],[3.92254,43.63661],[3.92258,43.63667],[3.92253,43.63671],[3.92286,43.63734],[3.92313,43.63779],[3.92358,43.63862],[3.92379,43.63888]]},"properties":{"slope_pct":0.5,"start_km":5.3,"end_km":6.298,"ele_start":35.6,"ele_end":40.6,"class":"plat","label":"Plat (−2 à 2 %)","color":"#94a3b8"}},{"type":"Feature","geometry":{"type":"LineString","coordinates":[[3.92379,43.63888],[3.92385,43.63893],[3.92403,43.63915],[3.92409,43.63913],[3.92419,43.63918],[3.92443,43.63918],[3.9245,43.6392],[3.92461,43.63919],[3.92467,43.63928],[3.92481,43.63934],[3.92522,43.63938],[3.92614,43.63949],[3.92679,43.63956],[3.92695,43.63959],[3.92702,43.6396],[3.92706,43.6396],[3.92708,43.6396],[3.92784,43.6397],[3.92855,43.63987],[3.92871,43.63989],[3.92979,43.64006]]},"properties":{"slope_pct":-0.4,"start_km":6.298,"end_km":6.817,"ele_start":40.6,"ele_end":38.6,"class":"plat","label":"Plat (−2 à 2 %)","color":"#94a3b8"}},{"type":"Feature","geometry":{"type":"LineString","coordinates":[[3.92979,43.64006],[3.92996,43.64016],[3.93006,43.64032],[3.93045,43.64121],[3.93093,43.64242]]},"properties":{"slope_pct":2.5,"start_km":6.817,"end_km":7.097,"ele_start":38.6,"ele_end":45.6,"class":"montee-faible","label":"Montée faible (2 à 4 %)","color":"#22c55e"}},{"type":"Feature","geometry":{"type":"LineString","coordinates":[[3.93093,43.64242],[3.93106,43.64298],[3.93107,43.64353],[3.931,43.64393],[3.93093,43.64416],[3.93056,43.64502]]},"properties":{"slope_pct":0.8,"start_km":7.097,"end_km":7.393,"ele_start":45.6,"ele_end":47.9,"class":"plat","label":"Plat (−2 à 2 %)","color":"#94a3b8"}},{"type":"Feature","geometry":{"type":"LineString","coordinates":[[3.93056,43.64502],[3.93013,43.64585],[3.92972,43.64652]]},"properties":{"slope_pct":2.5,"start_km":7.393,"end_km":7.573,"ele_start":47.9,"ele_end":52.3,"class":"montee-faible","label":"Montée faible (2 à 4 %)","color":"#22c55e"}},{"type":"Feature","geometry":{"type":"LineString","coordinates":[[3.92972,43.64652],[3.92942,43.64693],[3.92947,43.64691],[3.92969,43.64661],[3.93004,43.64675]]},"properties":{"slope_pct":1.9,"start_km":7.573,"end_km":7.699,"ele_start":52.3,"ele_end":54.7,"class":"plat","label":"Plat (−2 à 2 %)","color":"#94a3b8"}},{"type":"Feature","geometry":{"type":"LineString","coordinates":[[3.93004,43.64675],[3.93019,43.6468],[3.93018,43.64682],[3.93026,43.64684],[3.93018,43.64695],[3.93008,43.64708],[3.92998,43.64723],[3.92991,43.64737],[3.92983,43.64754],[3.92956,43.64814],[3.92953,43.64823],[3.92961,43.64836],[3.92977,43.6484],[3.92991,43.64845],[3.93004,43.64849],[3.93057,43.64855],[3.93078,43.64858],[3.93094,43.6486],[3.93116,43.64863]]},"properties":{"slope_pct":2.7,"start_km":7.699,"end_km":8.032,"ele_start":54.7,"ele_end":63.5,"class":"montee-faible","label":"Montée faible (2 à 4 %)","color":"#22c55e"}},{"type":"Feature","geometry":{"type":"LineString","coordinates":[[3.93116,43.64863],[3.9321,43.64885],[3.93298,43.64906]]},"properties":{"slope_pct":1.2,"start_km":8.032,"end_km":8.186,"ele_start":63.5,"ele_end":65.4,"class":"plat","label":"Plat (−2 à 2 %)","color":"#94a3b8"}},{"type":"Feature","geometry":{"type":"LineString","coordinates":[[3.93298,43.64906],[3.93296,43.64911],[3.93294,43.64916],[3.93308,43.6492],[3.93316,43.64923],[3.93332,43.64937],[3.93358,43.65]]},"properties":{"slope_pct":2.3,"start_km":8.186,"end_km":8.311,"ele_start":65.4,"ele_end":68.3,"class":"montee-faible","label":"Montée faible (2 à 4 %)","color":"#22c55e"}},{"type":"Feature","geometry":{"type":"LineString","coordinates":[[3.93358,43.65],[3.93371,43.65032],[3.93384,43.65062],[3.93377,43.65071],[3.93378,43.65075],[3.9338,43.6508],[3.93381,43.65082],[3.93385,43.65084],[3.93389,43.65085]]},"properties":{"slope_pct":-0.8,"start_km":8.311,"end_km":8.414,"ele_start":68.3,"ele_end":67.4,"class":"plat","label":"Plat (−2 à 2 %)","color":"#94a3b8"}},{"type":"Feature","geometry":{"type":"LineString","coordinates":[[3.93389,43.65085],[3.93393,43.65087],[3.934,43.6509],[3.93447,43.65203]]},"properties":{"slope_pct":-5.1,"start_km":8.414,"end_km":8.556,"ele_start":67.4,"ele_end":60.2,"class":"descente","label":"Descente (−6 à −2 %)","color":"#60a5fa"}},{"type":"Feature","geometry":{"type":"LineString","coordinates":[[3.93447,43.65203],[3.93494,43.65326]]},"properties":{"slope_pct":-6.4,"start_km":8.556,"end_km":8.698,"ele_start":60.2,"ele_end":51.2,"class":"descente-forte","label":"Descente forte (< −6 %)","color":"#1d4ed8"}},{"type":"Feature","geometry":{"type":"LineString","coordinates":[[3.93494,43.65326],[3.93503,43.65348],[3.93485,43.65358],[3.93467,43.65369],[3.93446,43.65382],[3.93417,43.65386]]},"properties":{"slope_pct":-2.1,"start_km":8.698,"end_km":8.806,"ele_start":51.2,"ele_end":48.9,"class":"descente","label":"Descente (−6 à −2 %)","color":"#60a5fa"}},{"type":"Feature","geometry":{"type":"LineString","coordinates":[[3.93417,43.65386],[3.93405,43.65377],[3.93374,43.65369],[3.93349,43.65369],[3.93351,43.65365],[3.93349,43.65369],[3.93343,43.65357],[3.93324,43.65337]]},"properties":{"slope_pct":1.7,"start_km":8.806,"end_km":8.918,"ele_start":48.9,"ele_end":50.7,"class":"plat","label":"Plat (−2 à 2 %)","color":"#94a3b8"}},{"type":"Feature","geometry":{"type":"LineString","coordinates":[[3.93324,43.65337],[3.93306,43.6533],[3.93275,43.65326],[3.93214,43.65319],[3.93199,43.65322]]},"properties":{"slope_pct":3.2,"start_km":8.918,"end_km":9.021,"ele_start":50.7,"ele_end":54.1,"class":"montee-faible","label":"Montée faible (2 à 4 %)","color":"#22c55e"}},{"type":"Feature","geometry":{"type":"LineString","coordinates":[[3.93199,43.65322],[3.93192,43.65322],[3.93172,43.65334],[3.93122,43.65373],[3.93106,43.65382],[3.93053,43.654],[3.93023,43.65404],[3.92907,43.65386]]},"properties":{"slope_pct":-0.5,"start_km":9.021,"end_km":9.29,"ele_start":54.1,"ele_end":52.8,"class":"plat","label":"Plat (−2 à 2 %)","color":"#94a3b8"}},{"type":"Feature","geometry":{"type":"LineString","coordinates":[[3.92907,43.65386],[3.9288,43.65385],[3.92867,43.65387],[3.92863,43.65388],[3.9281,43.654],[3.92798,43.65405],[3.92797,43.65412],[3.9281,43.65431]]},"properties":{"slope_pct":-5.0,"start_km":9.29,"end_km":9.413,"ele_start":52.8,"ele_end":46.7,"class":"descente","label":"Descente (−6 à −2 %)","color":"#60a5fa"}},{"type":"Feature","geometry":{"type":"LineString","coordinates":[[3.9281,43.65431],[3.92839,43.65454],[3.92848,43.65461],[3.92888,43.65489],[3.92935,43.65524]]},"properties":{"slope_pct":-9.0,"start_km":9.413,"end_km":9.557,"ele_start":46.7,"ele_end":33.7,"class":"descente-forte","label":"Descente forte (< −6 %)","color":"#1d4ed8"}},{"type":"Feature","geometry":{"type":"LineString","coordinates":[[3.92935,43.65524],[3.92957,43.65541],[3.92984,43.65579],[3.93017,43.65608]]},"properties":{"slope_pct":0.5,"start_km":9.557,"end_km":9.672,"ele_start":33.7,"ele_end":34.3,"class":"plat","label":"Plat (−2 à 2 %)","color":"#94a3b8"}},{"type":"Feature","geometry":{"type":"LineString","coordinates":[[3.93017,43.65608],[3.93046,43.6562],[3.93047,43.65624],[3.931,43.65641],[3.93129,43.6564]]},"properties":{"slope_pct":4.1,"start_km":9.672,"end_km":9.773,"ele_start":34.3,"ele_end":38.4,"class":"montee-moderee","label":"Montée modérée (4 à 7 %)","color":"#eab308"}},{"type":"Feature","geometry":{"type":"LineString","coordinates":[[3.93129,43.6564],[3.93143,43.65646],[3.93143,43.65653],[3.93144,43.65657],[3.93145,43.65659],[3.93153,43.65669],[3.93123,43.65671],[3.93087,43.65669],[3.93034,43.6565]]},"properties":{"slope_pct":2.1,"start_km":9.773,"end_km":9.915,"ele_start":38.4,"ele_end":41.3,"class":"montee-faible","label":"Montée faible (2 à 4 %)","color":"#22c55e"}},{"type":"Feature","geometry":{"type":"LineString","coordinates":[[3.93034,43.6565],[3.92987,43.65634],[3.92867,43.6559]]},"properties":{"slope_pct":4.3,"start_km":9.915,"end_km":10.064,"ele_start":41.3,"ele_end":47.7,"class":"montee-moderee","label":"Montée modérée (4 à 7 %)","color":"#eab308"}},{"type":"Feature","geometry":{"type":"LineString","coordinates":[[3.92867,43.6559],[3.9281,43.65577],[3.92726,43.65565]]},"properties":{"slope_pct":3.6,"start_km":10.064,"end_km":10.181,"ele_start":47.7,"ele_end":51.9,"class":"montee-faible","label":"Montée faible (2 à 4 %)","color":"#22c55e"}},{"type":"Feature","geometry":{"type":"LineString","coordinates":[[3.92726,43.65565],[3.92694,43.65562],[3.92527,43.65548],[3.92476,43.65538],[3.92329,43.65503],[3.92239,43.65472],[3.92178,43.65452],[3.92089,43.65422],[3.92076,43.65422],[3.9206,43.65429],[3.92051,43.65429],[3.92031,43.65456],[3.92015,43.65484],[3.92006,43.65491],[3.91999,43.65495],[3.91926,43.65516],[3.91856,43.65538],[3.91829,43.65546],[3.9179,43.65558]]},"properties":{"slope_pct":1.1,"start_km":10.181,"end_km":11.023,"ele_start":51.9,"ele_end":60.9,"class":"plat","label":"Plat (−2 à 2 %)","color":"#94a3b8"}},{"type":"Feature","geometry":{"type":"LineString","coordinates":[[3.9179,43.65558],[3.91768,43.65562],[3.91735,43.65568],[3.91737,43.65574],[3.91719,43.65578],[3.91667,43.656],[3.91649,43.65612],[3.91637,43.65608],[3.91631,43.65607],[3.91591,43.65599],[3.91557,43.65593],[3.91542,43.65594]]},"properties":{"slope_pct":5.0,"start_km":11.023,"end_km":11.247,"ele_start":60.9,"ele_end":72.2,"class":"montee-moderee","label":"Montée modérée (4 à 7 %)","color":"#eab308"}},{"type":"Feature","geometry":{"type":"LineString","coordinates":[[3.91542,43.65594],[3.91523,43.65599],[3.91525,43.65602],[3.91485,43.65621],[3.91434,43.65633]]},"properties":{"slope_pct":2.3,"start_km":11.247,"end_km":11.35,"ele_start":72.2,"ele_end":74.6,"class":"montee-faible","label":"Montée faible (2 à 4 %)","color":"#22c55e"}},{"type":"Feature","geometry":{"type":"LineString","coordinates":[[3.91434,43.65633],[3.91418,43.65637],[3.91417,43.65632],[3.91368,43.65643],[3.91349,43.65647],[3.91335,43.65648],[3.91327,43.65647],[3.91295,43.65643],[3.9129,43.65646],[3.91284,43.65651],[3.91284,43.65654],[3.91276,43.65665],[3.9127,43.65669],[3.91257,43.65673],[3.91244,43.65674],[3.91234,43.65676],[3.91234,43.65684],[3.91233,43.65708]]},"properties":{"slope_pct":0.8,"start_km":11.35,"end_km":11.572,"ele_start":74.6,"ele_end":76.4,"class":"plat","label":"Plat (−2 à 2 %)","color":"#94a3b8"}},{"type":"Feature","geometry":{"type":"LineString","coordinates":[[3.91233,43.65708],[3.91232,43.65713],[3.91212,43.65772],[3.91204,43.65772],[3.91177,43.6585],[3.91165,43.65891],[3.9116,43.65896],[3.91154,43.65898],[3.91137,43.65898],[3.91092,43.65898]]},"properties":{"slope_pct":-4.1,"start_km":11.572,"end_km":11.851,"ele_start":76.4,"ele_end":65.0,"class":"descente","label":"Descente (−6 à −2 %)","color":"#60a5fa"}},{"type":"Feature","geometry":{"type":"LineString","coordinates":[[3.91092,43.65898],[3.90999,43.65905],[3.90993,43.65905],[3.90914,43.65915],[3.90823,43.6593],[3.90824,43.65935],[3.90749,43.65946],[3.90732,43.65949],[3.90707,43.65953],[3.90704,43.65956],[3.90697,43.65958],[3.90687,43.65954],[3.90666,43.65951],[3.90659,43.65951],[3.90572,43.65963],[3.90544,43.65966],[3.90537,43.65967],[3.90502,43.65968],[3.90459,43.65968],[3.90438,43.65971],[3.90424,43.65972],[3.9042,43.65975],[3.9041,43.65976],[3.90404,43.65974],[3.90401,43.6597],[3.90387,43.65965],[3.90367,43.6596],[3.90358,43.6596],[3.90251,43.65959],[3.90198,43.6596],[3.90193,43.65971],[3.90165,43.66003],[3.90159,43.66004],[3.90156,43.66005],[3.90141,43.66008],[3.90137,43.66009],[3.901,43.66006],[3.90089,43.66003],[3.90053,43.65984],[3.90018,43.65985]]},"properties":{"slope_pct":-0.4,"start_km":11.851,"end_km":12.773,"ele_start":65.0,"ele_end":61.4,"class":"plat","label":"Plat (−2 à 2 %)","color":"#94a3b8"}},{"type":"Feature","geometry":{"type":"LineString","coordinates":[[3.90018,43.65985],[3.90001,43.65988],[3.89975,43.65996],[3.89965,43.66004],[3.89963,43.66011],[3.89958,43.66013],[3.89953,43.66014],[3.89952,43.66011],[3.89947,43.66012],[3.89941,43.66007],[3.89928,43.66004],[3.89896,43.66008],[3.89886,43.66009],[3.89833,43.66012],[3.898,43.66006],[3.89768,43.66007],[3.89667,43.66018],[3.89656,43.66017],[3.89656,43.66014],[3.8965,43.66014],[3.89644,43.66019],[3.89633,43.6602],[3.89629,43.66018],[3.89621,43.6602],[3.89582,43.66023],[3.89555,43.66025],[3.89554,43.66028],[3.89543,43.66027],[3.8954,43.66027],[3.89528,43.66026],[3.89426,43.65996],[3.89353,43.6598],[3.8931,43.65969],[3.89227,43.65949]]},"properties":{"slope_pct":0.6,"start_km":12.773,"end_km":13.455,"ele_start":61.4,"ele_end":65.6,"class":"plat","label":"Plat (−2 à 2 %)","color":"#94a3b8"}},{"type":"Feature","geometry":{"type":"LineString","coordinates":[[3.89227,43.65949],[3.89179,43.65966],[3.89175,43.65967],[3.89135,43.65978],[3.89117,43.65975],[3.89064,43.65945]]},"properties":{"slope_pct":5.3,"start_km":13.455,"end_km":13.606,"ele_start":65.6,"ele_end":73.5,"class":"montee-moderee","label":"Montée modérée (4 à 7 %)","color":"#eab308"}},{"type":"Feature","geometry":{"type":"LineString","coordinates":[[3.89064,43.65945],[3.89025,43.65923],[3.89008,43.65917],[3.88993,43.65911],[3.88992,43.65909],[3.88988,43.65901],[3.88984,43.65894],[3.88984,43.6589],[3.8895,43.65861]]},"properties":{"slope_pct":3.9,"start_km":13.606,"end_km":13.742,"ele_start":73.5,"ele_end":78.9,"class":"montee-faible","label":"Montée faible (2 à 4 %)","color":"#22c55e"}},{"type":"Feature","geometry":{"type":"LineString","coordinates":[[3.8895,43.65861],[3.88949,43.6586],[3.88923,43.65846],[3.88885,43.65828],[3.88833,43.65811]]},"properties":{"slope_pct":-4.2,"start_km":13.742,"end_km":13.851,"ele_start":78.9,"ele_end":74.3,"class":"descente","label":"Descente (−6 à −2 %)","color":"#60a5fa"}},{"type":"Feature","geometry":{"type":"LineString","coordinates":[[3.88833,43.65811],[3.88771,43.65782],[3.8876,43.65777],[3.88699,43.65756]]},"properties":{"slope_pct":-6.2,"start_km":13.851,"end_km":13.975,"ele_start":74.3,"ele_end":66.6,"class":"descente-forte","label":"Descente forte (< −6 %)","color":"#1d4ed8"}},{"type":"Feature","geometry":{"type":"LineString","coordinates":[[3.88699,43.65756],[3.88698,43.65754],[3.88671,43.65744],[3.88656,43.65736],[3.88644,43.65729],[3.88629,43.65721],[3.88606,43.65705],[3.88597,43.657],[3.88578,43.65687],[3.88544,43.6568],[3.88487,43.6567],[3.88455,43.65662]]},"properties":{"slope_pct":-4.3,"start_km":13.975,"end_km":14.203,"ele_start":66.6,"ele_end":56.7,"class":"descente","label":"Descente (−6 à −2 %)","color":"#60a5fa"}},{"type":"Feature","geometry":{"type":"LineString","coordinates":[[3.88455,43.65662],[3.88394,43.65651],[3.88365,43.65639],[3.88346,43.65632],[3.8826,43.65599],[3.88234,43.65589],[3.88193,43.65574],[3.88126,43.65548],[3.8812,43.65544],[3.88107,43.65538],[3.88102,43.65537],[3.88092,43.65543],[3.88082,43.65558],[3.88069,43.65557],[3.88068,43.65546],[3.88053,43.65542],[3.88043,43.65539],[3.88029,43.65535],[3.87983,43.65523],[3.8795,43.65515],[3.87928,43.65509],[3.87877,43.65494],[3.87867,43.65489],[3.87829,43.65492],[3.87647,43.65497],[3.87531,43.65499],[3.87528,43.65493],[3.87475,43.65486]]},"properties":{"slope_pct":-1.1,"start_km":14.203,"end_km":15.068,"ele_start":56.7,"ele_end":47.2,"class":"plat","label":"Plat (−2 à 2 %)","color":"#94a3b8"}},{"type":"Feature","geometry":{"type":"LineString","coordinates":[[3.87475,43.65486],[3.87471,43.65485],[3.87469,43.65479],[3.87479,43.65445],[3.87478,43.65441],[3.87473,43.65438],[3.8738,43.65391]]},"properties":{"slope_pct":-2.3,"start_km":15.068,"end_km":15.218,"ele_start":47.2,"ele_end":43.7,"class":"descente","label":"Descente (−6 à −2 %)","color":"#60a5fa"}},{"type":"Feature","geometry":{"type":"LineString","coordinates":[[3.8738,43.65391],[3.87368,43.65378],[3.87351,43.65365],[3.87295,43.65317],[3.87192,43.65236],[3.87139,43.65208],[3.87081,43.6518],[3.87026,43.65158],[3.8695,43.65129],[3.86891,43.65111],[3.86811,43.65091],[3.86709,43.65078],[3.8668,43.65071],[3.86655,43.65061],[3.86636,43.65051],[3.86624,43.65043],[3.8662,43.65039],[3.86617,43.65037],[3.86602,43.65027],[3.86601,43.65016],[3.86592,43.65004]]},"properties":{"slope_pct":-0.0,"start_km":15.218,"end_km":16.011,"ele_start":43.7,"ele_end":43.5,"class":"plat","label":"Plat (−2 à 2 %)","color":"#94a3b8"}},{"type":"Feature","geometry":{"type":"LineString","coordinates":[[3.86592,43.65004],[3.86583,43.64992],[3.8658,43.64988],[3.86573,43.64979],[3.86565,43.64968],[3.86538,43.64934],[3.8647,43.64846]]},"properties":{"slope_pct":4.2,"start_km":16.011,"end_km":16.213,"ele_start":43.5,"ele_end":52.0,"class":"montee-moderee","label":"Montée modérée (4 à 7 %)","color":"#eab308"}},{"type":"Feature","geometry":{"type":"LineString","coordinates":[[3.8647,43.64846],[3.86462,43.64848],[3.86439,43.64819],[3.86448,43.64815],[3.86262,43.64576]]},"properties":{"slope_pct":2.1,"start_km":16.213,"end_km":16.571,"ele_start":52.0,"ele_end":59.4,"class":"montee-faible","label":"Montée faible (2 à 4 %)","color":"#22c55e"}},{"type":"Feature","geometry":{"type":"LineString","coordinates":[[3.86262,43.64576],[3.86258,43.64569],[3.8625,43.64564],[3.86201,43.64513],[3.86185,43.64501]]},"properties":{"slope_pct":1.6,"start_km":16.571,"end_km":16.675,"ele_start":59.4,"ele_end":61.1,"class":"plat","label":"Plat (−2 à 2 %)","color":"#94a3b8"}},{"type":"Feature","geometry":{"type":"LineString","coordinates":[[3.86185,43.64501],[3.86064,43.64388]]},"properties":{"slope_pct":2.3,"start_km":16.675,"end_km":16.835,"ele_start":61.1,"ele_end":64.7,"class":"montee-faible","label":"Montée faible (2 à 4 %)","color":"#22c55e"}},{"type":"Feature","geometry":{"type":"LineString","coordinates":[[3.86064,43.64388],[3.86055,43.64372],[3.86048,43.64348],[3.86047,43.64334],[3.86058,43.64321],[3.86071,43.64317],[3.86075,43.64314],[3.8615,43.64213]]},"properties":{"slope_pct":4.9,"start_km":16.835,"end_km":17.057,"ele_start":64.7,"ele_end":75.7,"class":"montee-moderee","label":"Montée modérée (4 à 7 %)","color":"#eab308"}},{"type":"Feature","geometry":{"type":"LineString","coordinates":[[3.8615,43.64213],[3.86187,43.64169],[3.86202,43.64155],[3.86218,43.64146],[3.86243,43.64136]]},"properties":{"slope_pct":0.9,"start_km":17.057,"end_km":17.173,"ele_start":75.7,"ele_end":76.7,"class":"plat","label":"Plat (−2 à 2 %)","color":"#94a3b8"}},{"type":"Feature","geometry":{"type":"LineString","coordinates":[[3.86243,43.64136],[3.86293,43.64125],[3.86326,43.64112],[3.86352,43.64094],[3.86401,43.64041],[3.86402,43.64041],[3.86414,43.64026],[3.86454,43.63981],[3.86542,43.63882],[3.8656,43.63865],[3.86571,43.63854],[3.86577,43.63847],[3.86634,43.63783]]},"properties":{"slope_pct":-3.0,"start_km":17.173,"end_km":17.688,"ele_start":76.7,"ele_end":61.3,"class":"descente","label":"Descente (−6 à −2 %)","color":"#60a5fa"}},{"type":"Feature","geometry":{"type":"LineString","coordinates":[[3.86634,43.63783],[3.86641,43.6377],[3.8668,43.6373],[3.86685,43.63723],[3.86691,43.63717],[3.86741,43.63661],[3.86745,43.63653],[3.86757,43.6364],[3.86791,43.63604],[3.86814,43.63578],[3.86824,43.63561],[3.86829,43.63542],[3.86827,43.63517],[3.86819,43.63478],[3.86817,43.6347],[3.86814,43.63457],[3.86801,43.63367]]},"properties":{"slope_pct":-0.8,"start_km":17.688,"end_km":18.197,"ele_start":61.3,"ele_end":57.3,"class":"plat","label":"Plat (−2 à 2 %)","color":"#94a3b8"}},{"type":"Feature","geometry":{"type":"LineString","coordinates":[[3.86801,43.63367],[3.86796,43.63326],[3.86798,43.63293],[3.86813,43.63247],[3.86836,43.63206],[3.86845,43.63199],[3.86916,43.631]]},"properties":{"slope_pct":-2.5,"start_km":18.197,"end_km":18.516,"ele_start":57.3,"ele_end":49.2,"class":"descente","label":"Descente (−6 à −2 %)","color":"#60a5fa"}},{"type":"Feature","geometry":{"type":"LineString","coordinates":[[3.86916,43.631],[3.86948,43.63044],[3.86988,43.62971],[3.86993,43.62962],[3.86996,43.62947],[3.8699,43.62932],[3.86986,43.62923],[3.86952,43.6286],[3.86934,43.62818],[3.86931,43.62805],[3.86933,43.62775],[3.8694,43.62752],[3.86941,43.62748],[3.86963,43.62706],[3.86968,43.62703],[3.86973,43.62705],[3.86977,43.62701],[3.86986,43.627],[3.8699,43.62695],[3.86986,43.62695],[3.86973,43.62691],[3.86981,43.62682],[3.86979,43.62675],[3.86996,43.62654],[3.8701,43.62634],[3.87014,43.62627],[3.87064,43.62553],[3.87083,43.62524],[3.87095,43.62506],[3.8712,43.62469]]},"properties":{"slope_pct":-0.3,"start_km":18.516,"end_km":19.297,"ele_start":49.2,"ele_end":46.9,"class":"plat","label":"Plat (−2 à 2 %)","color":"#94a3b8"}},{"type":"Feature","geometry":{"type":"LineString","coordinates":[[3.8712,43.62469],[3.87181,43.62376],[3.87183,43.62373],[3.87231,43.623],[3.87235,43.62292]]},"properties":{"slope_pct":-3.3,"start_km":19.297,"end_km":19.515,"ele_start":46.9,"ele_end":39.7,"class":"descente","label":"Descente (−6 à −2 %)","color":"#60a5fa"}},{"type":"Feature","geometry":{"type":"LineString","coordinates":[[3.87235,43.62292],[3.87237,43.62284],[3.87247,43.6228],[3.87252,43.62278],[3.87258,43.62281],[3.87261,43.62282],[3.87265,43.62282],[3.87279,43.6228],[3.87299,43.62271],[3.87383,43.62217]]},"properties":{"slope_pct":-1.8,"start_km":19.515,"end_km":19.67,"ele_start":39.7,"ele_end":36.9,"class":"plat","label":"Plat (−2 à 2 %)","color":"#94a3b8"}},{"type":"Feature","geometry":{"type":"LineString","coordinates":[[3.87383,43.62217],[3.87427,43.62194],[3.87451,43.6218],[3.87464,43.62175],[3.87481,43.62165],[3.87554,43.62112]]},"properties":{"slope_pct":-2.2,"start_km":19.67,"end_km":19.852,"ele_start":36.9,"ele_end":32.9,"class":"descente","label":"Descente (−6 à −2 %)","color":"#60a5fa"}},{"type":"Feature","geometry":{"type":"LineString","coordinates":[[3.87554,43.62112],[3.8758,43.62078],[3.876,43.62059],[3.87604,43.62061],[3.87608,43.62064],[3.87621,43.62055],[3.87629,43.62053],[3.87714,43.62077],[3.87772,43.62092],[3.87804,43.62109],[3.87814,43.62112],[3.87929,43.62147],[3.87945,43.62151],[3.87994,43.62164],[3.8806,43.62178],[3.8808,43.62184],[3.88182,43.62215],[3.88199,43.62217],[3.88261,43.62224],[3.88266,43.62225],[3.88269,43.62227],[3.88271,43.62234],[3.88279,43.62236],[3.88298,43.6224],[3.88302,43.62236],[3.88302,43.62234],[3.88304,43.6223],[3.88308,43.62223],[3.88309,43.62221],[3.88309,43.62218],[3.8831,43.62208],[3.88331,43.62162],[3.88352,43.62122],[3.8838,43.62096],[3.88383,43.62093],[3.88386,43.62091],[3.88389,43.62088],[3.88396,43.62082],[3.88405,43.62067],[3.88427,43.62014]]},"properties":{"slope_pct":-0.9,"start_km":19.852,"end_km":20.811,"ele_start":32.9,"ele_end":24.7,"class":"plat","label":"Plat (−2 à 2 %)","color":"#94a3b8"}},{"type":"Feature","geometry":{"type":"LineString","coordinates":[[3.88427,43.62014],[3.88429,43.61997],[3.88427,43.61993],[3.88423,43.61988],[3.88655,43.61908],[3.88657,43.61912],[3.88655,43.61908],[3.88636,43.61868],[3.88601,43.61792],[3.88579,43.61753],[3.88575,43.61753],[3.88563,43.61738],[3.88506,43.61683],[3.88483,43.6166],[3.88465,43.61643],[3.88438,43.61617],[3.88432,43.61611],[3.88392,43.61574],[3.88361,43.61544],[3.88328,43.61512],[3.88314,43.61508],[3.88303,43.61506],[3.88304,43.61504],[3.88304,43.615],[3.88305,43.61498],[3.88306,43.61496],[3.88307,43.61492],[3.88314,43.61489],[3.8832,43.61487],[3.88325,43.61485],[3.88332,43.61485],[3.88338,43.61485],[3.88343,43.61484],[3.88347,43.61474],[3.88378,43.61449]]},"properties":{"slope_pct":-0.4,"start_km":20.811,"end_km":21.695,"ele_start":24.7,"ele_end":21.5,"class":"plat","label":"Plat (−2 à 2 %)","color":"#94a3b8"}},{"type":"Feature","geometry":{"type":"LineString","coordinates":[[3.88378,43.61449],[3.88383,43.61445],[3.88387,43.61439],[3.88403,43.61428],[3.88434,43.61413],[3.88442,43.61411],[3.88467,43.61404],[3.885,43.61398],[3.88577,43.61395],[3.88596,43.61396],[3.88658,43.61406],[3.88713,43.61406],[3.88744,43.61407],[3.88773,43.61406],[3.88886,43.61403],[3.88905,43.61404],[3.88889,43.61389],[3.88894,43.61386],[3.88898,43.61391],[3.88903,43.61389],[3.88906,43.61388],[3.88912,43.61394],[3.88934,43.61396],[3.88982,43.61401],[3.89036,43.61407],[3.89058,43.61412],[3.89174,43.61477],[3.89202,43.61487],[3.8921,43.6149],[3.89219,43.61493],[3.89235,43.61487],[3.89271,43.61475],[3.89289,43.61465],[3.89349,43.61423],[3.89418,43.61368]]},"properties":{"slope_pct":-0.2,"start_km":21.695,"end_km":22.681,"ele_start":21.5,"ele_end":19.5,"class":"plat","label":"Plat (−2 à 2 %)","color":"#94a3b8"}},{"type":"Feature","geometry":{"type":"LineString","coordinates":[[3.89418,43.61368],[3.89449,43.61347],[3.8945,43.61346],[3.89489,43.61324],[3.89505,43.6131],[3.89537,43.61281],[3.89569,43.61256],[3.89583,43.61237],[3.89584,43.61232],[3.89607,43.61204],[3.89619,43.61183],[3.89631,43.61129],[3.89642,43.61098]]},"properties":{"slope_pct":-0.6,"start_km":22.681,"end_km":23.044,"ele_start":19.5,"ele_end":17.4,"class":"plat","label":"Plat (−2 à 2 %)","color":"#94a3b8"}},{"type":"Feature","geometry":{"type":"LineString","coordinates":[[3.89642,43.61098],[3.8964,43.61084],[3.89631,43.61079],[3.89652,43.60992],[3.89659,43.60992],[3.89666,43.60989],[3.89689,43.60933],[3.8969,43.60921],[3.8969,43.60876]]},"properties":{"slope_pct":-3.3,"start_km":23.044,"end_km":23.308,"ele_start":17.4,"ele_end":8.8,"class":"descente","label":"Descente (−6 à −2 %)","color":"#60a5fa"}},{"type":"Feature","geometry":{"type":"LineString","coordinates":[[3.8969,43.60876],[3.89688,43.60834],[3.89678,43.60765],[3.89677,43.60749],[3.89669,43.60679],[3.89672,43.60665],[3.89685,43.60639],[3.89688,43.6063],[3.89683,43.6057],[3.89672,43.60528],[3.89635,43.60439],[3.89636,43.60433],[3.89637,43.6043],[3.89627,43.60406],[3.89749,43.60414],[3.89753,43.60414],[3.89751,43.60407],[3.8974,43.60381],[3.89734,43.60373],[3.89683,43.60317],[3.89679,43.60309],[3.89674,43.60301],[3.8965,43.60243],[3.89647,43.60236],[3.89633,43.6018]]},"properties":{"slope_pct":0.2,"start_km":23.308,"end_km":24.223,"ele_start":8.8,"ele_end":10.3,"class":"plat","label":"Plat (−2 à 2 %)","color":"#94a3b8"}},{"type":"Feature","geometry":{"type":"LineString","coordinates":[[3.89633,43.6018],[3.8963,43.60171],[3.89628,43.60149],[3.89635,43.60133],[3.89702,43.60077],[3.89699,43.60074],[3.89725,43.60089],[3.89729,43.60088],[3.89741,43.60075],[3.89737,43.60073],[3.89713,43.60063],[3.89632,43.60021],[3.89625,43.60016],[3.89583,43.59994],[3.89579,43.59992],[3.89568,43.59988],[3.8957,43.59986],[3.89561,43.59984],[3.89535,43.59966],[3.89536,43.59965],[3.89548,43.59974],[3.89589,43.59946]]},"properties":{"slope_pct":0.7,"start_km":24.223,"end_km":24.68,"ele_start":10.3,"ele_end":13.5,"class":"plat","label":"Plat (−2 à 2 %)","color":"#94a3b8"}}]}
