<?xml version="1.0" encoding="UTF-8"?>
<gpx version="1.1" creator="gravel-montpellier-exemple" xmlns="http://www.topografix.com/GPX/1/1">
  <trk>
    <name>Tour du Pic Saint-Loup</name>
    <trkseg>
      <trkpt lat="43.6969" lon="3.8825"><ele>45</ele></trkpt>
      <trkpt lat="43.7250" lon="3.8600"><ele>70</ele></trkpt>
      <trkpt lat="43.7600" lon="3.8500"><ele>120</ele></trkpt>
      <trkpt lat="43.7950" lon="3.8300"><ele>260</ele></trkpt>
      <trkpt lat="43.8300" lon="3.8200"><ele>410</ele></trkpt>
      <trkpt lat="43.8450" lon="3.8100"><ele>658</ele></trkpt>
      <trkpt lat="43.8200" lon="3.8400"><ele>380</ele></trkpt>
      <trkpt lat="43.7800" lon="3.8550"><ele>190</ele></trkpt>
      <trkpt lat="43.7400" lon="3.8700"><ele>90</ele></trkpt>
      <trkpt lat="43.6969" lon="3.8825"><ele>45</ele></trkpt>
    </trkseg>
  </trk>
</gpx>
