{"type":"FeatureCollection","generator":"tools/slope_colors.py","format_version":1,"source_gpx":"2026-07-30_3154902767_de Bédarieux à Mazamet.gpx","source_sha256":"4df8c8b359f77ec6bae252ecd5f9e94f634c1fefff52a440e951ff02eac88986","params_fingerprint":"4bb834e818a4f3f7","params":{"segment_length_m":100.0,"smoothing_window_m":150.0,"resample_step_m":10.0,"max_merged_length_m":1000.0,"classes":[{"key":"descente-forte","label":"Descente forte (< −6 %)","min":null,"max":-6.0,"color":"#1d4ed8"},{"key":"descente","label":"Descente (−6 à −2 %)","min":-6.0,"max":-2.0,"color":"#60a5fa"},{"key":"plat","label":"Plat (−2 à 2 %)","min":-2.0,"max":2.0,"color":"#94a3b8"},{"key":"montee-faible","label":"Montée faible (2 à 4 %)","min":2.0,"max":4.0,"color":"#22c55e"},{"key":"montee-moderee","label":"Montée modérée (4 à 7 %)","min":4.0,"max":7.0,"color":"#eab308"},{"key":"montee-soutenue","label":"Montée soutenue (7 à 10 %)","min":7.0,"max":10.0,"color":"#f97316"},{"key":"montee-forte","label":"Montée forte (≥ 10 %)","min":10.0,"max":null,"color":"#dc2626"}]},"legend":[{"key":"descente-forte","label":"Descente forte (< −6 %)","min":null,"max":-6.0,"color":"#1d4ed8"},{"key":"descente","label":"Descente (−6 à −2 %)","min":-6.0,"max":-2.0,"color":"#60a5fa"},{"key":"plat","label":"Plat (−2 à 2 %)","min":-2.0,"max":2.0,"color":"#94a3b8"},{"key":"montee-faible","label":"Montée faible (2 à 4 %)","min":2.0,"max":4.0,"color":"#22c55e"},{"key":"montee-moderee","label":"Montée modérée (4 à 7 %)","min":4.0,"max":7.0,"color":"#eab308"},{"key":"montee-soutenue","label":"Montée soutenue (7 à 10 %)","min":7.0,"max":10.0,"color":"#f97316"},{"key":"montee-forte","label":"Montée forte (≥ 10 %)","min":10.0,"max":null,"color":"#dc2626"}],"stats":{"distance_km":72.44,"elevation_valid_ratio":1.0,"elevation_ok":true,"smoothed_gain_m":459,"max_slope_pct":4.8,"min_slope_pct":-7.1},"features":[{"type":"Feature","geometry":{"type":"LineString","coordinates":[[3.14301,43.60126],[3.14287,43.60116],[3.14119,43.60004],[3.14091,43.59996],[3.14061,43.59983],[3.14054,43.59979],[3.14038,43.59963],[3.13611,43.59803],[3.13496,43.5976],[3.13437,43.59742],[3.13381,43.59729],[3.13378,43.59728]]},"properties":{"slope_pct":-0.2,"start_km":0.0,"end_km":0.874,"ele_start":191.4,"ele_end":189.6,"class":"plat","label":"Plat (−2 à 2 %)","color":"#94a3b8"}},{"type":"Feature","geometry":{"type":"LineString","coordinates":[[3.13378,43.59728],[3.13265,43.59708],[3.13011,43.59683],[3.12681,43.59655],[3.1234,43.59626]]},"properties":{"slope_pct":-0.9,"start_km":0.874,"end_km":1.718,"ele_start":189.6,"ele_end":181.8,"class":"plat","label":"Plat (−2 à 2 %)","color":"#94a3b8"}},{"type":"Feature","geometry":{"type":"LineString","coordinates":[[3.1234,43.59626],[3.12278,43.59621],[3.12228,43.59616],[3.12132,43.59607],[3.11954,43.59593],[3.11768,43.59576],[3.1161,43.59561],[3.11585,43.59557],[3.1157,43.59556],[3.11567,43.59553],[3.11516,43.59538],[3.1135,43.59506],[3.11231,43.59475]]},"properties":{"slope_pct":1.0,"start_km":1.718,"end_km":2.632,"ele_start":181.8,"ele_end":190.5,"class":"plat","label":"Plat (−2 à 2 %)","color":"#94a3b8"}},{"type":"Feature","geometry":{"type":"LineString","coordinates":[[3.11231,43.59475],[3.11201,43.59468],[3.11118,43.59445],[3.11113,43.59443],[3.10905,43.59373],[3.10867,43.5936],[3.1078,43.59329],[3.1069,43.59301],[3.10619,43.59283],[3.10414,43.59248],[3.10397,43.59245],[3.10318,43.59231],[3.10265,43.59217],[3.10213,43.592],[3.10183,43.59188],[3.10168,43.59181],[3.10128,43.59161]]},"properties":{"slope_pct":-0.5,"start_km":2.632,"end_km":3.59,"ele_start":190.5,"ele_end":185.7,"class":"plat","label":"Plat (−2 à 2 %)","color":"#94a3b8"}},{"type":"Feature","geometry":{"type":"LineString","coordinates":[[3.10128,43.59161],[3.10057,43.59115],[3.10005,43.59075],[3.09885,43.58966],[3.09843,43.58931],[3.09804,43.5891],[3.09758,43.58891],[3.09677,43.5887],[3.09626,43.58865],[3.09573,43.58865],[3.09533,43.58867],[3.09455,43.58877],[3.09397,43.58888],[3.09297,43.58892]]},"properties":{"slope_pct":-0.0,"start_km":3.59,"end_km":4.395,"ele_start":185.7,"ele_end":185.5,"class":"plat","label":"Plat (−2 à 2 %)","color":"#94a3b8"}},{"type":"Feature","geometry":{"type":"LineString","coordinates":[[3.09297,43.58892],[3.09233,43.58888],[3.08927,43.58856],[3.08881,43.58849],[3.08674,43.58797],[3.08615,43.58785],[3.08567,43.58779],[3.08363,43.58764],[3.08271,43.58758],[3.08258,43.58757],[3.0817,43.58759]]},"properties":{"slope_pct":-0.9,"start_km":4.395,"end_km":5.321,"ele_start":185.5,"ele_end":177.2,"class":"plat","label":"Plat (−2 à 2 %)","color":"#94a3b8"}},{"type":"Feature","geometry":{"type":"LineString","coordinates":[[3.0817,43.58759],[3.08124,43.58765],[3.08029,43.58784]]},"properties":{"slope_pct":2.2,"start_km":5.321,"end_km":5.437,"ele_start":177.2,"ele_end":179.8,"class":"montee-faible","label":"Montée faible (2 à 4 %)","color":"#22c55e"}},{"type":"Feature","geometry":{"type":"LineString","coordinates":[[3.08029,43.58784],[3.07919,43.58811],[3.07879,43.58822],[3.07836,43.58826],[3.07752,43.5883],[3.07717,43.58828],[3.07671,43.58828],[3.07557,43.58818],[3.07487,43.58805],[3.07451,43.58796],[3.07407,43.5878],[3.07343,43.58755],[3.07271,43.58717],[3.07092,43.58591]]},"properties":{"slope_pct":0.4,"start_km":5.437,"end_km":6.285,"ele_start":179.8,"ele_end":183.2,"class":"plat","label":"Plat (−2 à 2 %)","color":"#94a3b8"}},{"type":"Feature","geometry":{"type":"LineString","coordinates":[[3.07092,43.58591],[3.06996,43.58543],[3.06861,43.58479],[3.06716,43.5841],[3.06643,43.58369],[3.06556,43.58297],[3.06432,43.58199],[3.0639,43.58167],[3.06343,43.58139],[3.06282,43.58113],[3.06211,43.5809],[3.06133,43.58069]]},"properties":{"slope_pct":0.2,"start_km":6.285,"end_km":7.263,"ele_start":183.2,"ele_end":185.3,"class":"plat","label":"Plat (−2 à 2 %)","color":"#94a3b8"}},{"type":"Feature","geometry":{"type":"LineString","coordinates":[[3.06133,43.58069],[3.06048,43.58056],[3.05997,43.58049]]},"properties":{"slope_pct":-0.7,"start_km":7.263,"end_km":7.375,"ele_start":185.3,"ele_end":184.5,"class":"plat","label":"Plat (−2 à 2 %)","color":"#94a3b8"}},{"type":"Feature","geometry":{"type":"LineString","coordinates":[[3.05997,43.58049],[3.05971,43.58045],[3.05949,43.58041],[3.05878,43.58025],[3.05875,43.58024],[3.05797,43.57995],[3.05764,43.57983]]},"properties":{"slope_pct":-2.3,"start_km":7.375,"end_km":7.577,"ele_start":184.5,"ele_end":179.9,"class":"descente","label":"Descente (−6 à −2 %)","color":"#60a5fa"}},{"type":"Feature","geometry":{"type":"LineString","coordinates":[[3.05764,43.57983],[3.0569,43.57955],[3.05633,43.57939],[3.05472,43.57906],[3.05341,43.57883],[3.05326,43.5788],[3.05263,43.57862],[3.05197,43.57835],[3.05152,43.57812],[3.05133,43.57802],[3.05091,43.57779],[3.05016,43.57744],[3.04933,43.57715],[3.04908,43.57708],[3.04885,43.57703],[3.04856,43.577],[3.0472,43.5769]]},"properties":{"slope_pct":-0.1,"start_km":7.577,"end_km":8.492,"ele_start":179.9,"ele_end":178.9,"class":"plat","label":"Plat (−2 à 2 %)","color":"#94a3b8"}},{"type":"Feature","geometry":{"type":"LineString","coordinates":[[3.0472,43.5769],[3.04677,43.57691],[3.04601,43.577],[3.04539,43.57711],[3.04447,43.57733],[3.04076,43.57848],[3.0406,43.57871],[3.0404,43.57889],[3.0403,43.57892],[3.04014,43.57878],[3.04007,43.57871],[3.03999,43.57872],[3.03979,43.57877],[3.03917,43.57895],[3.03646,43.57978]]},"properties":{"slope_pct":-0.9,"start_km":8.492,"end_km":9.449,"ele_start":178.9,"ele_end":170.0,"class":"plat","label":"Plat (−2 à 2 %)","color":"#94a3b8"}},{"type":"Feature","geometry":{"type":"LineString","coordinates":[[3.03646,43.57978],[3.03599,43.57988],[3.03493,43.57999],[3.03448,43.58002],[3.03437,43.58003],[3.03348,43.58005],[3.03265,43.57999],[3.03192,43.5799],[3.0311,43.57973],[3.03089,43.57966],[3.02986,43.57934]]},"properties":{"slope_pct":0.7,"start_km":9.449,"end_km":9.996,"ele_start":170.0,"ele_end":174.1,"class":"plat","label":"Plat (−2 à 2 %)","color":"#94a3b8"}},{"type":"Feature","geometry":{"type":"LineString","coordinates":[[3.02986,43.57934],[3.02884,43.5789],[3.02825,43.57857],[3.02633,43.57728]]},"properties":{"slope_pct":2.8,"start_km":9.996,"end_km":10.362,"ele_start":174.1,"ele_end":184.2,"class":"montee-faible","label":"Montée faible (2 à 4 %)","color":"#22c55e"}},{"type":"Feature","geometry":{"type":"LineString","coordinates":[[3.02633,43.57728],[3.02428,43.57593],[3.02329,43.57525]]},"properties":{"slope_pct":0.0,"start_km":10.362,"end_km":10.695,"ele_start":184.2,"ele_end":184.3,"class":"plat","label":"Plat (−2 à 2 %)","color":"#94a3b8"}},{"type":"Feature","geometry":{"type":"LineString","coordinates":[[3.02329,43.57525],[3.02315,43.57515],[3.02296,43.57503],[3.02151,43.57404]]},"properties":{"slope_pct":-2.6,"start_km":10.695,"end_km":10.892,"ele_start":184.3,"ele_end":179.2,"class":"descente","label":"Descente (−6 à −2 %)","color":"#60a5fa"}},{"type":"Feature","geometry":{"type":"LineString","coordinates":[[3.02151,43.57404],[3.02118,43.57384],[3.02074,43.57363],[3.02034,43.57348],[3.0199,43.57335],[3.01902,43.57319],[3.01858,43.57315],[3.0181,43.57314],[3.01736,43.57319],[3.01685,43.57328],[3.01646,43.57338],[3.01622,43.57345],[3.01462,43.57405],[3.01454,43.57408],[3.01283,43.57474],[3.01215,43.57496],[3.01166,43.57508],[3.01106,43.57519],[3.01042,43.5753]]},"properties":{"slope_pct":-1.2,"start_km":10.892,"end_km":11.861,"ele_start":179.2,"ele_end":167.4,"class":"plat","label":"Plat (−2 à 2 %)","color":"#94a3b8"}},{"type":"Feature","geometry":{"type":"LineString","coordinates":[[3.01042,43.5753],[3.00947,43.57537],[3.00888,43.57539],[3.00848,43.57541],[3.00307,43.57569],[3.00245,43.57567],[3.00156,43.57559],[3.00096,43.57549],[3.00039,43.57535],[2.99861,43.5748]]},"properties":{"slope_pct":-0.3,"start_km":11.861,"end_km":12.83,"ele_start":167.4,"ele_end":164.2,"class":"plat","label":"Plat (−2 à 2 %)","color":"#94a3b8"}},{"type":"Feature","geometry":{"type":"LineString","coordinates":[[2.99861,43.5748],[2.99839,43.57474],[2.99801,43.57458],[2.9975,43.57438],[2.99609,43.5737],[2.99525,43.57323],[2.99344,43.57224],[2.993,43.57205],[2.99245,43.57188],[2.99189,43.5717],[2.99179,43.57168],[2.99147,43.57161],[2.99088,43.57143],[2.98996,43.57111]]},"properties":{"slope_pct":0.6,"start_km":12.83,"end_km":13.644,"ele_start":164.2,"ele_end":168.9,"class":"plat","label":"Plat (−2 à 2 %)","color":"#94a3b8"}},{"type":"Feature","geometry":{"type":"LineString","coordinates":[[2.98996,43.57111],[2.98958,43.57091],[2.9889,43.57048],[2.98707,43.56915]]},"properties":{"slope_pct":2.3,"start_km":13.644,"end_km":13.963,"ele_start":168.9,"ele_end":176.1,"class":"montee-faible","label":"Montée faible (2 à 4 %)","color":"#22c55e"}},{"type":"Feature","geometry":{"type":"LineString","coordinates":[[2.98707,43.56915],[2.98643,43.56875],[2.98576,43.56847],[2.98538,43.56837],[2.98499,43.56831],[2.98423,43.56827]]},"properties":{"slope_pct":-0.4,"start_km":13.963,"end_km":14.219,"ele_start":176.1,"ele_end":175.2,"class":"plat","label":"Plat (−2 à 2 %)","color":"#94a3b8"}},{"type":"Feature","geometry":{"type":"LineString","coordinates":[[2.98423,43.56827],[2.98335,43.56829],[2.98296,43.56834],[2.98261,43.56839],[2.98196,43.56854],[2.98138,43.56875],[2.9808,43.569],[2.97985,43.56932]]},"properties":{"slope_pct":-2.7,"start_km":14.219,"end_km":14.597,"ele_start":175.2,"ele_end":165.0,"class":"descente","label":"Descente (−6 à −2 %)","color":"#60a5fa"}},{"type":"Feature","geometry":{"type":"LineString","coordinates":[[2.97985,43.56932],[2.97915,43.56944],[2.97846,43.56945],[2.97774,43.56937],[2.97733,43.56932],[2.97688,43.56925],[2.97639,43.56922],[2.97576,43.56923],[2.97526,43.5693],[2.97485,43.5694],[2.97437,43.56957],[2.97374,43.56993],[2.97283,43.57057],[2.97225,43.57088],[2.97196,43.57098],[2.97177,43.57104]]},"properties":{"slope_pct":0.2,"start_km":14.597,"end_km":15.317,"ele_start":165.0,"ele_end":166.8,"class":"plat","label":"Plat (−2 à 2 %)","color":"#94a3b8"}},{"type":"Feature","geometry":{"type":"LineString","coordinates":[[2.97177,43.57104],[2.97114,43.57119],[2.97036,43.57124]]},"properties":{"slope_pct":3.6,"start_km":15.317,"end_km":15.433,"ele_start":166.8,"ele_end":170.9,"class":"montee-faible","label":"Montée faible (2 à 4 %)","color":"#22c55e"}},{"type":"Feature","geometry":{"type":"LineString","coordinates":[[2.97036,43.57124],[2.97,43.57123],[2.96965,43.5712],[2.96954,43.57119],[2.96917,43.57112],[2.96828,43.57082]]},"properties":{"slope_pct":4.8,"start_km":15.433,"end_km":15.609,"ele_start":170.9,"ele_end":179.4,"class":"montee-moderee","label":"Montée modérée (4 à 7 %)","color":"#eab308"}},{"type":"Feature","geometry":{"type":"LineString","coordinates":[[2.96828,43.57082],[2.96787,43.57058],[2.96689,43.56979]]},"properties":{"slope_pct":2.7,"start_km":15.609,"end_km":15.77,"ele_start":179.4,"ele_end":183.7,"class":"montee-faible","label":"Montée faible (2 à 4 %)","color":"#22c55e"}},{"type":"Feature","geometry":{"type":"LineString","coordinates":[[2.96689,43.56979],[2.96585,43.56892],[2.96516,43.56849],[2.96468,43.56827],[2.96389,43.56796],[2.96294,43.56757],[2.96179,43.56721],[2.96116,43.56701],[2.96026,43.56681],[2.95959,43.5667],[2.9589,43.56663]]},"properties":{"slope_pct":-0.7,"start_km":15.77,"end_km":16.521,"ele_start":183.7,"ele_end":178.6,"class":"plat","label":"Plat (−2 à 2 %)","color":"#94a3b8"}},{"type":"Feature","geometry":{"type":"LineString","coordinates":[[2.9589,43.56663],[2.95838,43.56662],[2.95523,43.56669],[2.95164,43.56654]]},"properties":{"slope_pct":-2.7,"start_km":16.521,"end_km":17.106,"ele_start":178.6,"ele_end":162.7,"class":"descente","label":"Descente (−6 à −2 %)","color":"#60a5fa"}},{"type":"Feature","geometry":{"type":"LineString","coordinates":[[2.95164,43.56654],[2.95127,43.56657],[2.9509,43.56662],[2.9505,43.56671],[2.94973,43.56688],[2.94889,43.56702],[2.9485,43.56705]]},"properties":{"slope_pct":0.7,"start_km":17.106,"end_km":17.367,"ele_start":162.7,"ele_end":164.5,"class":"plat","label":"Plat (−2 à 2 %)","color":"#94a3b8"}},{"type":"Feature","geometry":{"type":"LineString","coordinates":[[2.9485,43.56705],[2.94779,43.56701],[2.94741,43.56696],[2.94708,43.56688]]},"properties":{"slope_pct":2.1,"start_km":17.367,"end_km":17.483,"ele_start":164.5,"ele_end":167.0,"class":"montee-faible","label":"Montée faible (2 à 4 %)","color":"#22c55e"}},{"type":"Feature","geometry":{"type":"LineString","coordinates":[[2.94708,43.56688],[2.94669,43.56676],[2.94596,43.56647],[2.94544,43.56626],[2.94452,43.56591],[2.94399,43.56575],[2.94347,43.56563],[2.94304,43.56556],[2.94233,43.56549],[2.94126,43.56543]]},"properties":{"slope_pct":0.1,"start_km":17.483,"end_km":17.986,"ele_start":167.0,"ele_end":167.4,"class":"plat","label":"Plat (−2 à 2 %)","color":"#94a3b8"}},{"type":"Feature","geometry":{"type":"LineString","coordinates":[[2.94126,43.56543],[2.94099,43.56539],[2.94016,43.5652],[2.94012,43.56519],[2.94005,43.56517]]},"properties":{"slope_pct":-2.4,"start_km":17.986,"end_km":18.088,"ele_start":167.4,"ele_end":165.0,"class":"descente","label":"Descente (−6 à −2 %)","color":"#60a5fa"}},{"type":"Feature","geometry":{"type":"LineString","coordinates":[[2.94005,43.56517],[2.93914,43.56495],[2.93808,43.56479],[2.9379,43.56477],[2.93782,43.56475],[2.93743,43.56467],[2.93699,43.56453],[2.9367,43.56442],[2.93632,43.56423],[2.93605,43.56408],[2.93572,43.56381],[2.93551,43.5636],[2.935,43.56298],[2.93456,43.56249],[2.9343,43.56224],[2.93383,43.56188],[2.9335,43.56165],[2.93337,43.56156],[2.933,43.56133],[2.93258,43.56101],[2.93244,43.56091],[2.93142,43.56022]]},"properties":{"slope_pct":0.6,"start_km":18.088,"end_km":19.008,"ele_start":165.0,"ele_end":170.2,"class":"plat","label":"Plat (−2 à 2 %)","color":"#94a3b8"}},{"type":"Feature","geometry":{"type":"LineString","coordinates":[[2.93142,43.56022],[2.93085,43.55992],[2.93016,43.55965],[2.9297,43.55951],[2.92915,43.55938],[2.92772,43.55914],[2.92713,43.55902],[2.9265,43.55884],[2.92581,43.55861],[2.92441,43.5582],[2.9239,43.5581],[2.92318,43.558],[2.9231,43.55799],[2.92163,43.55782]]},"properties":{"slope_pct":0.3,"start_km":19.008,"end_km":19.849,"ele_start":170.2,"ele_end":172.8,"class":"plat","label":"Plat (−2 à 2 %)","color":"#94a3b8"}},{"type":"Feature","geometry":{"type":"LineString","coordinates":[[2.92163,43.55782],[2.92122,43.55775],[2.92079,43.55763],[2.92063,43.55758],[2.91858,43.55685]]},"properties":{"slope_pct":0.8,"start_km":19.849,"end_km":20.118,"ele_start":172.8,"ele_end":174.8,"class":"plat","label":"Plat (−2 à 2 %)","color":"#94a3b8"}},{"type":"Feature","geometry":{"type":"LineString","coordinates":[[2.91858,43.55685],[2.91721,43.55644]]},"properties":{"slope_pct":3.2,"start_km":20.118,"end_km":20.237,"ele_start":174.8,"ele_end":178.6,"class":"montee-faible","label":"Montée faible (2 à 4 %)","color":"#22c55e"}},{"type":"Feature","geometry":{"type":"LineString","coordinates":[[2.91721,43.55644],[2.91682,43.55637],[2.91657,43.55638],[2.91596,43.55625],[2.91588,43.55619],[2.915,43.55598],[2.91487,43.55586]]},"properties":{"slope_pct":4.4,"start_km":20.237,"end_km":20.441,"ele_start":178.6,"ele_end":187.7,"class":"montee-moderee","label":"Montée modérée (4 à 7 %)","color":"#eab308"}},{"type":"Feature","geometry":{"type":"LineString","coordinates":[[2.91487,43.55586],[2.91459,43.55579],[2.91425,43.55572],[2.91372,43.55568],[2.91286,43.55546],[2.91247,43.55528],[2.91178,43.55481],[2.91171,43.55481],[2.91161,43.55474],[2.9116,43.55468],[2.91134,43.5544],[2.91114,43.55409],[2.91063,43.55334],[2.91039,43.5531],[2.91005,43.55282],[2.90964,43.55256]]},"properties":{"slope_pct":0.2,"start_km":20.441,"end_km":21.034,"ele_start":187.7,"ele_end":188.7,"class":"plat","label":"Plat (−2 à 2 %)","color":"#94a3b8"}},{"type":"Feature","geometry":{"type":"LineString","coordinates":[[2.90964,43.55256],[2.90931,43.55242],[2.90862,43.55219],[2.90766,43.55196],[2.9071,43.55177],[2.9066,43.55152],[2.90551,43.55082]]},"properties":{"slope_pct":3.3,"start_km":21.034,"end_km":21.424,"ele_start":188.7,"ele_end":201.5,"class":"montee-faible","label":"Montée faible (2 à 4 %)","color":"#22c55e"}},{"type":"Feature","geometry":{"type":"LineString","coordinates":[[2.90551,43.55082],[2.90511,43.55064],[2.90462,43.55046],[2.90414,43.55035]]},"properties":{"slope_pct":1.3,"start_km":21.424,"end_km":21.547,"ele_start":201.5,"ele_end":203.0,"class":"plat","label":"Plat (−2 à 2 %)","color":"#94a3b8"}},{"type":"Feature","geometry":{"type":"LineString","coordinates":[[2.90414,43.55035],[2.90341,43.55026],[2.90239,43.55014],[2.90191,43.55003],[2.90128,43.5498],[2.90099,43.54965],[2.89992,43.54892]]},"properties":{"slope_pct":-3.4,"start_km":21.547,"end_km":21.935,"ele_start":203.0,"ele_end":189.7,"class":"descente","label":"Descente (−6 à −2 %)","color":"#60a5fa"}},{"type":"Feature","geometry":{"type":"LineString","coordinates":[[2.89992,43.54892],[2.89954,43.54867],[2.89915,43.54847],[2.89879,43.54833],[2.89844,43.54822],[2.89801,43.54814],[2.89783,43.54811],[2.8972,43.5481],[2.8967,43.54812],[2.89633,43.54816],[2.89605,43.54823],[2.89583,43.54828],[2.89535,43.5484],[2.89433,43.54864],[2.8941,43.54869],[2.89345,43.54882],[2.89229,43.54892],[2.88892,43.54886]]},"properties":{"slope_pct":0.5,"start_km":21.935,"end_km":22.86,"ele_start":189.7,"ele_end":194.4,"class":"plat","label":"Plat (−2 à 2 %)","color":"#94a3b8"}},{"type":"Feature","geometry":{"type":"LineString","coordinates":[[2.88892,43.54886],[2.88733,43.54881],[2.88688,43.54874],[2.88665,43.54867],[2.88612,43.54869],[2.88568,43.5486]]},"properties":{"slope_pct":1.3,"start_km":22.86,"end_km":23.124,"ele_start":194.4,"ele_end":197.9,"class":"plat","label":"Plat (−2 à 2 %)","color":"#94a3b8"}},{"type":"Feature","geometry":{"type":"LineString","coordinates":[[2.88568,43.5486],[2.8853,43.5485],[2.8852,43.5485],[2.88446,43.54862],[2.88423,43.54867],[2.88411,43.54873],[2.88385,43.54866],[2.88381,43.54861],[2.8838,43.54847],[2.88372,43.5484],[2.88344,43.54826],[2.88278,43.54806],[2.88218,43.54795],[2.88149,43.54789],[2.88123,43.54782],[2.88093,43.54777]]},"properties":{"slope_pct":3.2,"start_km":23.124,"end_km":23.549,"ele_start":197.9,"ele_end":211.5,"class":"montee-faible","label":"Montée faible (2 à 4 %)","color":"#22c55e"}},{"type":"Feature","geometry":{"type":"LineString","coordinates":[[2.88093,43.54777],[2.88069,43.54776],[2.8805,43.54777],[2.88044,43.54774],[2.88041,43.54763],[2.8803,43.54757],[2.87975,43.54746],[2.87944,43.54744],[2.87908,43.54746],[2.87856,43.54727],[2.87814,43.54709],[2.87799,43.54696],[2.87779,43.54658]]},"properties":{"slope_pct":4.8,"start_km":23.549,"end_km":23.865,"ele_start":211.5,"ele_end":226.5,"class":"montee-moderee","label":"Montée modérée (4 à 7 %)","color":"#eab308"}},{"type":"Feature","geometry":{"type":"LineString","coordinates":[[2.87779,43.54658],[2.87771,43.5465],[2.87755,43.54644],[2.87694,43.5461],[2.87665,43.54598]]},"properties":{"slope_pct":3.6,"start_km":23.865,"end_km":23.979,"ele_start":226.5,"ele_end":230.7,"class":"montee-faible","label":"Montée faible (2 à 4 %)","color":"#22c55e"}},{"type":"Feature","geometry":{"type":"LineString","coordinates":[[2.87665,43.54598],[2.87595,43.54557],[2.87545,43.54521]]},"properties":{"slope_pct":1.8,"start_km":23.979,"end_km":24.108,"ele_start":230.7,"ele_end":233.0,"class":"plat","label":"Plat (−2 à 2 %)","color":"#94a3b8"}},{"type":"Feature","geometry":{"type":"LineString","coordinates":[[2.87545,43.54521],[2.87531,43.54505],[2.87464,43.54424],[2.87433,43.5439],[2.87416,43.54366],[2.87404,43.54336]]},"properties":{"slope_pct":-3.5,"start_km":24.108,"end_km":24.345,"ele_start":233.0,"ele_end":224.7,"class":"descente","label":"Descente (−6 à −2 %)","color":"#60a5fa"}},{"type":"Feature","geometry":{"type":"LineString","coordinates":[[2.87404,43.54336],[2.8738,43.54321],[2.87366,43.54317],[2.87341,43.54317],[2.87297,43.54332],[2.87274,43.54336]]},"properties":{"slope_pct":-7.1,"start_km":24.345,"end_km":24.461,"ele_start":224.7,"ele_end":216.4,"class":"descente-forte","label":"Descente forte (< −6 %)","color":"#1d4ed8"}},{"type":"Feature","geometry":{"type":"LineString","coordinates":[[2.87274,43.54336],[2.87232,43.54348],[2.87158,43.54366],[2.87146,43.54366],[2.87077,43.54415],[2.87065,43.54407],[2.87059,43.5441],[2.87018,43.54438]]},"properties":{"slope_pct":-3.2,"start_km":24.461,"end_km":24.712,"ele_start":216.4,"ele_end":208.5,"class":"descente","label":"Descente (−6 à −2 %)","color":"#60a5fa"}},{"type":"Feature","geometry":{"type":"LineString","coordinates":[[2.87018,43.54438],[2.86967,43.54463],[2.86944,43.54471],[2.86919,43.54479],[2.86837,43.54495]]},"properties":{"slope_pct":0.4,"start_km":24.712,"end_km":24.872,"ele_start":208.5,"ele_end":209.2,"class":"plat","label":"Plat (−2 à 2 %)","color":"#94a3b8"}},{"type":"Feature","geometry":{"type":"LineString","coordinates":[[2.86837,43.54495],[2.8676,43.54497],[2.86691,43.54488]]},"properties":{"slope_pct":3.1,"start_km":24.872,"end_km":24.991,"ele_start":209.2,"ele_end":212.8,"class":"montee-faible","label":"Montée faible (2 à 4 %)","color":"#22c55e"}},{"type":"Feature","geometry":{"type":"LineString","coordinates":[[2.86691,43.54488],[2.86622,43.5447],[2.8659,43.54456],[2.86569,43.54446]]},"properties":{"slope_pct":4.2,"start_km":24.991,"end_km":25.1,"ele_start":212.8,"ele_end":217.4,"class":"montee-moderee","label":"Montée modérée (4 à 7 %)","color":"#eab308"}},{"type":"Feature","geometry":{"type":"LineString","coordinates":[[2.86569,43.54446],[2.8655,43.54438],[2.86475,43.54393],[2.86334,43.54311]]},"properties":{"slope_pct":2.7,"start_km":25.1,"end_km":25.342,"ele_start":217.4,"ele_end":223.8,"class":"montee-faible","label":"Montée faible (2 à 4 %)","color":"#22c55e"}},{"type":"Feature","geometry":{"type":"LineString","coordinates":[[2.86334,43.54311],[2.86297,43.54284],[2.86289,43.54279],[2.86128,43.54148],[2.86032,43.54067],[2.85996,43.54033],[2.85964,43.53987],[2.85951,43.5396],[2.85938,43.53901],[2.85943,43.53845],[2.85967,43.53735],[2.85965,43.53685],[2.85952,43.53631]]},"properties":{"slope_pct":0.6,"start_km":25.342,"end_km":26.213,"ele_start":223.8,"ele_end":229.0,"class":"plat","label":"Plat (−2 à 2 %)","color":"#94a3b8"}},{"type":"Feature","geometry":{"type":"LineString","coordinates":[[2.85952,43.53631],[2.85947,43.53622],[2.85924,43.53609],[2.85915,43.53603],[2.85898,43.53583],[2.85881,43.53562],[2.85866,43.53533],[2.85801,43.53461],[2.85752,43.53422],[2.85749,43.53413],[2.8573,43.53394],[2.85683,43.5336],[2.85672,43.53346],[2.85675,43.53341],[2.85646,43.53321],[2.85642,43.53318],[2.85589,43.53285],[2.85564,43.53273],[2.85537,43.53259],[2.85493,43.53241],[2.85449,43.53226],[2.85421,43.53218],[2.85322,43.53194],[2.85183,43.53173]]},"properties":{"slope_pct":0.1,"start_km":26.213,"end_km":27.06,"ele_start":229.0,"ele_end":229.8,"class":"plat","label":"Plat (−2 à 2 %)","color":"#94a3b8"}},{"type":"Feature","geometry":{"type":"LineString","coordinates":[[2.85183,43.53173],[2.85147,43.53167],[2.85113,43.53158],[2.85083,43.53147],[2.84905,43.53069],[2.84821,43.53023],[2.84792,43.53002]]},"properties":{"slope_pct":1.7,"start_km":27.06,"end_km":27.431,"ele_start":229.8,"ele_end":235.9,"class":"plat","label":"Plat (−2 à 2 %)","color":"#94a3b8"}},{"type":"Feature","geometry":{"type":"LineString","coordinates":[[2.84792,43.53002],[2.84692,43.52907],[2.84651,43.52879],[2.84621,43.52863],[2.84587,43.52848]]},"properties":{"slope_pct":2.5,"start_km":27.431,"end_km":27.672,"ele_start":235.9,"ele_end":241.9,"class":"montee-faible","label":"Montée faible (2 à 4 %)","color":"#22c55e"}},{"type":"Feature","geometry":{"type":"LineString","coordinates":[[2.84587,43.52848],[2.84521,43.52828],[2.84464,43.52819],[2.84413,43.52817],[2.8436,43.5282],[2.84326,43.52824],[2.8428,43.52835],[2.84164,43.52872],[2.84099,43.5289],[2.84057,43.52899],[2.84022,43.52904],[2.83695,43.52918],[2.83672,43.52921],[2.83632,43.5293],[2.8351,43.5296]]},"properties":{"slope_pct":0.6,"start_km":27.672,"end_km":28.57,"ele_start":241.9,"ele_end":247.4,"class":"plat","label":"Plat (−2 à 2 %)","color":"#94a3b8"}},{"type":"Feature","geometry":{"type":"LineString","coordinates":[[2.8351,43.5296],[2.83447,43.52969],[2.83393,43.5297],[2.83365,43.52969],[2.8333,43.52965],[2.83306,43.52959],[2.83251,43.52943],[2.83224,43.52933],[2.83194,43.52919],[2.83144,43.52888],[2.83119,43.52869]]},"properties":{"slope_pct":0.2,"start_km":28.57,"end_km":28.92,"ele_start":247.4,"ele_end":248.0,"class":"plat","label":"Plat (−2 à 2 %)","color":"#94a3b8"}},{"type":"Feature","geometry":{"type":"LineString","coordinates":[[2.83119,43.52869],[2.83097,43.52844],[2.83071,43.52811],[2.83053,43.5277]]},"properties":{"slope_pct":2.1,"start_km":28.92,"end_km":29.043,"ele_start":248.0,"ele_end":250.5,"class":"montee-faible","label":"Montée faible (2 à 4 %)","color":"#22c55e"}},{"type":"Feature","geometry":{"type":"LineString","coordinates":[[2.83053,43.5277],[2.83024,43.52644],[2.83011,43.52603],[2.82994,43.52571],[2.82969,43.52542],[2.82943,43.52519],[2.82898,43.52488],[2.82827,43.52452],[2.82809,43.52446],[2.82777,43.52437],[2.82684,43.52411]]},"properties":{"slope_pct":0.7,"start_km":29.043,"end_km":29.585,"ele_start":250.5,"ele_end":254.1,"class":"plat","label":"Plat (−2 à 2 %)","color":"#94a3b8"}},{"type":"Feature","geometry":{"type":"LineString","coordinates":[[2.82684,43.52411],[2.82623,43.52388],[2.82514,43.52334],[2.82361,43.52253]]},"properties":{"slope_pct":3.6,"start_km":29.585,"end_km":29.9,"ele_start":254.1,"ele_end":265.3,"class":"montee-faible","label":"Montée faible (2 à 4 %)","color":"#22c55e"}},{"type":"Feature","geometry":{"type":"LineString","coordinates":[[2.82361,43.52253],[2.82327,43.52238],[2.82263,43.52217],[2.82141,43.52191]]},"properties":{"slope_pct":1.2,"start_km":29.9,"end_km":30.091,"ele_start":265.3,"ele_end":267.5,"class":"plat","label":"Plat (−2 à 2 %)","color":"#94a3b8"}},{"type":"Feature","geometry":{"type":"LineString","coordinates":[[2.82141,43.52191],[2.8208,43.52173],[2.82051,43.52161],[2.81969,43.52114]]},"properties":{"slope_pct":-2.6,"start_km":30.091,"end_km":30.255,"ele_start":267.5,"ele_end":263.2,"class":"descente","label":"Descente (−6 à −2 %)","color":"#60a5fa"}},{"type":"Feature","geometry":{"type":"LineString","coordinates":[[2.81969,43.52114],[2.81947,43.52102],[2.81921,43.52087],[2.81844,43.52051],[2.81781,43.52031],[2.81714,43.52018],[2.81666,43.52013],[2.81391,43.52005],[2.81279,43.51997],[2.81189,43.51982],[2.81123,43.51965],[2.81043,43.51937]]},"properties":{"slope_pct":-0.1,"start_km":30.255,"end_km":31.044,"ele_start":263.2,"ele_end":262.1,"class":"plat","label":"Plat (−2 à 2 %)","color":"#94a3b8"}},{"type":"Feature","geometry":{"type":"LineString","coordinates":[[2.81043,43.51937],[2.80994,43.51917],[2.80784,43.51827],[2.80382,43.51655],[2.80276,43.51598],[2.80106,43.51496]]},"properties":{"slope_pct":0.2,"start_km":31.044,"end_km":31.947,"ele_start":262.1,"ele_end":264.2,"class":"plat","label":"Plat (−2 à 2 %)","color":"#94a3b8"}},{"type":"Feature","geometry":{"type":"LineString","coordinates":[[2.80106,43.51496],[2.80015,43.51436],[2.79854,43.51321],[2.79817,43.51298],[2.79775,43.51274],[2.79631,43.51201],[2.79579,43.51172],[2.79508,43.51128],[2.79459,43.51091],[2.79417,43.51049],[2.7941,43.51044],[2.79385,43.51037],[2.7938,43.51033],[2.79352,43.50989],[2.79332,43.5094]]},"properties":{"slope_pct":0.9,"start_km":31.947,"end_km":32.841,"ele_start":264.2,"ele_end":272.4,"class":"plat","label":"Plat (−2 à 2 %)","color":"#94a3b8"}},{"type":"Feature","geometry":{"type":"LineString","coordinates":[[2.79332,43.5094],[2.79334,43.50928],[2.79339,43.50923],[2.79324,43.50891],[2.79317,43.50875],[2.79311,43.50858],[2.79303,43.50827],[2.79256,43.50745],[2.79228,43.50701]]},"properties":{"slope_pct":2.3,"start_km":32.841,"end_km":33.125,"ele_start":272.4,"ele_end":279.0,"class":"montee-faible","label":"Montée faible (2 à 4 %)","color":"#22c55e"}},{"type":"Feature","geometry":{"type":"LineString","coordinates":[[2.79228,43.50701],[2.79145,43.50563],[2.79124,43.50526],[2.79113,43.50503],[2.79109,43.50496],[2.79104,43.50486],[2.79094,43.5046],[2.79078,43.50393],[2.79078,43.50328],[2.79074,43.5026],[2.7907,43.50239],[2.79064,43.50218],[2.79048,43.50181],[2.79029,43.50152],[2.79,43.50118],[2.78951,43.50066],[2.7892,43.50021],[2.7885,43.49886]]},"properties":{"slope_pct":0.2,"start_km":33.125,"end_km":34.095,"ele_start":279.0,"ele_end":280.5,"class":"plat","label":"Plat (−2 à 2 %)","color":"#94a3b8"}},{"type":"Feature","geometry":{"type":"LineString","coordinates":[[2.7885,43.49886],[2.78834,43.49845],[2.7883,43.49817],[2.7883,43.49783],[2.78837,43.49748],[2.78838,43.49744],[2.7884,43.4974],[2.7885,43.49712],[2.78875,43.49661],[2.78877,43.49657],[2.78881,43.49647],[2.78897,43.49599],[2.78903,43.49568],[2.78902,43.49543],[2.78892,43.49487],[2.78877,43.49453],[2.78862,43.49432],[2.78835,43.49397],[2.78803,43.49369],[2.78756,43.49337],[2.78682,43.49293]]},"properties":{"slope_pct":0.8,"start_km":34.095,"end_km":34.829,"ele_start":280.5,"ele_end":286.3,"class":"plat","label":"Plat (−2 à 2 %)","color":"#94a3b8"}},{"type":"Feature","geometry":{"type":"LineString","coordinates":[[2.78682,43.49293],[2.78512,43.49179],[2.78481,43.49154],[2.78453,43.49128],[2.78421,43.49086]]},"properties":{"slope_pct":2.3,"start_km":34.829,"end_km":35.143,"ele_start":286.3,"ele_end":293.4,"class":"montee-faible","label":"Montée faible (2 à 4 %)","color":"#22c55e"}},{"type":"Feature","geometry":{"type":"LineString","coordinates":[[2.78421,43.49086],[2.7841,43.49072],[2.78389,43.49043],[2.78369,43.49022],[2.78336,43.48992],[2.78251,43.48928],[2.78215,43.48895],[2.78178,43.48853],[2.78141,43.48805],[2.78105,43.4877],[2.78099,43.48764],[2.78097,43.48762],[2.78055,43.48732],[2.78012,43.4871],[2.7794,43.48684],[2.77874,43.48673],[2.77762,43.48666],[2.77705,43.48653],[2.77592,43.48629]]},"properties":{"slope_pct":0.2,"start_km":35.143,"end_km":36.034,"ele_start":293.4,"ele_end":295.2,"class":"plat","label":"Plat (−2 à 2 %)","color":"#94a3b8"}},{"type":"Feature","geometry":{"type":"LineString","coordinates":[[2.77592,43.48629],[2.77584,43.48623],[2.77579,43.48618],[2.77511,43.48604],[2.77493,43.48597],[2.77488,43.48594],[2.77478,43.48576],[2.77465,43.48567],[2.77449,43.48564],[2.77439,43.48566],[2.7742,43.48577],[2.77414,43.48578],[2.77316,43.4857],[2.77247,43.48551],[2.77216,43.48543],[2.77186,43.48531],[2.77161,43.4852],[2.77144,43.48512],[2.77069,43.48469]]},"properties":{"slope_pct":0.8,"start_km":36.034,"end_km":36.521,"ele_start":295.2,"ele_end":299.0,"class":"plat","label":"Plat (−2 à 2 %)","color":"#94a3b8"}},{"type":"Feature","geometry":{"type":"LineString","coordinates":[[2.77069,43.48469],[2.77038,43.48446],[2.76995,43.48412],[2.76965,43.48381],[2.76938,43.48347],[2.76913,43.48318],[2.76877,43.48276],[2.76861,43.48257],[2.76843,43.48236],[2.76807,43.48192]]},"properties":{"slope_pct":3.2,"start_km":36.521,"end_km":36.897,"ele_start":299.0,"ele_end":310.9,"class":"montee-faible","label":"Montée faible (2 à 4 %)","color":"#22c55e"}},{"type":"Feature","geometry":{"type":"LineString","coordinates":[[2.76807,43.48192],[2.76791,43.48168],[2.76749,43.4808],[2.76719,43.48019],[2.76686,43.47975],[2.76656,43.47948],[2.76526,43.4785],[2.76414,43.4773]]},"properties":{"slope_pct":0.8,"start_km":36.897,"end_km":37.508,"ele_start":310.9,"ele_end":315.7,"class":"plat","label":"Plat (−2 à 2 %)","color":"#94a3b8"}},{"type":"Feature","geometry":{"type":"LineString","coordinates":[[2.76414,43.4773],[2.76363,43.4769],[2.76313,43.47663]]},"properties":{"slope_pct":2.2,"start_km":37.508,"end_km":37.619,"ele_start":315.7,"ele_end":318.1,"class":"montee-faible","label":"Montée faible (2 à 4 %)","color":"#22c55e"}},{"type":"Feature","geometry":{"type":"LineString","coordinates":[[2.76313,43.47663],[2.76267,43.47646],[2.76229,43.47636],[2.76189,43.4763],[2.76144,43.47626],[2.76105,43.47627],[2.76086,43.47628],[2.76051,43.47631],[2.75999,43.47641],[2.75954,43.47656],[2.75907,43.47676],[2.75864,43.47704],[2.75837,43.47724],[2.75804,43.4776],[2.75732,43.47872],[2.7571,43.47901],[2.75686,43.47924],[2.75659,43.47943],[2.75622,43.47968],[2.75599,43.47979],[2.75546,43.47998],[2.75477,43.48014]]},"properties":{"slope_pct":0.9,"start_km":37.619,"end_km":38.497,"ele_start":318.1,"ele_end":326.2,"class":"plat","label":"Plat (−2 à 2 %)","color":"#94a3b8"}},{"type":"Feature","geometry":{"type":"LineString","coordinates":[[2.75477,43.48014],[2.75422,43.48019],[2.75387,43.4802],[2.75357,43.48019],[2.75309,43.4801],[2.75259,43.47999],[2.75223,43.47987],[2.75187,43.4797],[2.75144,43.47944],[2.75024,43.47846],[2.74973,43.47817],[2.74939,43.47801],[2.74899,43.47789],[2.74848,43.47779],[2.74811,43.47774],[2.74766,43.47773],[2.74634,43.47778]]},"properties":{"slope_pct":1.3,"start_km":38.497,"end_km":39.27,"ele_start":326.2,"ele_end":336.2,"class":"plat","label":"Plat (−2 à 2 %)","color":"#94a3b8"}},{"type":"Feature","geometry":{"type":"LineString","coordinates":[[2.74634,43.47778],[2.7461,43.47778],[2.74272,43.47788],[2.74157,43.47798],[2.74144,43.47798],[2.74098,43.47789],[2.74052,43.47788],[2.74037,43.47781],[2.74034,43.47783],[2.74031,43.47794],[2.74029,43.47814],[2.74029,43.47824],[2.74031,43.47828],[2.74038,43.4783],[2.74086,43.47816],[2.741,43.47816],[2.74067,43.47834],[2.74046,43.47851],[2.74035,43.47853],[2.74021,43.47852],[2.74001,43.47847],[2.73987,43.47839],[2.73972,43.47822],[2.73957,43.47801]]},"properties":{"slope_pct":1.2,"start_km":39.27,"end_km":40.027,"ele_start":336.2,"ele_end":345.1,"class":"plat","label":"Plat (−2 à 2 %)","color":"#94a3b8"}},{"type":"Feature","geometry":{"type":"LineString","coordinates":[[2.73957,43.47801],[2.73893,43.47781],[2.73856,43.47766],[2.7348,43.47568],[2.73452,43.47555],[2.73442,43.4755],[2.73366,43.47517],[2.73308,43.47498],[2.73255,43.47485],[2.73051,43.4745]]},"properties":{"slope_pct":0.9,"start_km":40.027,"end_km":40.866,"ele_start":345.1,"ele_end":352.3,"class":"plat","label":"Plat (−2 à 2 %)","color":"#94a3b8"}},{"type":"Feature","geometry":{"type":"LineString","coordinates":[[2.73051,43.4745],[2.72978,43.47434],[2.72952,43.47424],[2.72796,43.47362],[2.72737,43.47343],[2.72601,43.47307],[2.725,43.47286],[2.72408,43.47269]]},"properties":{"slope_pct":1.2,"start_km":40.866,"end_km":41.425,"ele_start":352.3,"ele_end":359.2,"class":"plat","label":"Plat (−2 à 2 %)","color":"#94a3b8"}},{"type":"Feature","geometry":{"type":"LineString","coordinates":[[2.72408,43.47269],[2.72346,43.47263],[2.7207,43.47255]]},"properties":{"slope_pct":2.2,"start_km":41.425,"end_km":41.698,"ele_start":359.2,"ele_end":365.4,"class":"montee-faible","label":"Montée faible (2 à 4 %)","color":"#22c55e"}},{"type":"Feature","geometry":{"type":"LineString","coordinates":[[2.7207,43.47255],[2.72056,43.47255],[2.71825,43.47222],[2.7179,43.47219],[2.71745,43.47219],[2.71706,43.47224],[2.71669,43.4723],[2.71618,43.47244],[2.71539,43.47276],[2.71418,43.47333],[2.71259,43.47386]]},"properties":{"slope_pct":0.6,"start_km":41.698,"end_km":42.401,"ele_start":365.4,"ele_end":369.3,"class":"plat","label":"Plat (−2 à 2 %)","color":"#94a3b8"}},{"type":"Feature","geometry":{"type":"LineString","coordinates":[[2.71259,43.47386],[2.71208,43.47406],[2.71208,43.47413],[2.71166,43.47427],[2.71142,43.47436],[2.71105,43.47451],[2.7106,43.47475],[2.7102,43.47504]]},"properties":{"slope_pct":2.4,"start_km":42.401,"end_km":42.64,"ele_start":369.3,"ele_end":375.1,"class":"montee-faible","label":"Montée faible (2 à 4 %)","color":"#22c55e"}},{"type":"Feature","geometry":{"type":"LineString","coordinates":[[2.7102,43.47504],[2.70907,43.47586],[2.70876,43.47614],[2.70848,43.47628],[2.70827,43.47638],[2.70811,43.47646],[2.70702,43.47692],[2.70606,43.47729],[2.70189,43.47899],[2.70176,43.47903],[2.70086,43.47938],[2.70068,43.47944]]},"properties":{"slope_pct":1.5,"start_km":42.64,"end_km":43.557,"ele_start":375.1,"ele_end":389.2,"class":"plat","label":"Plat (−2 à 2 %)","color":"#94a3b8"}},{"type":"Feature","geometry":{"type":"LineString","coordinates":[[2.70068,43.47944],[2.69992,43.47967],[2.69977,43.47969],[2.69764,43.48008]]},"properties":{"slope_pct":2.2,"start_km":43.557,"end_km":43.813,"ele_start":389.2,"ele_end":394.8,"class":"montee-faible","label":"Montée faible (2 à 4 %)","color":"#22c55e"}},{"type":"Feature","geometry":{"type":"LineString","coordinates":[[2.69764,43.48008],[2.69156,43.48163],[2.69101,43.48174],[2.6904,43.48181],[2.68993,43.48183]]},"properties":{"slope_pct":1.2,"start_km":43.813,"end_km":44.467,"ele_start":394.8,"ele_end":402.6,"class":"plat","label":"Plat (−2 à 2 %)","color":"#94a3b8"}},{"type":"Feature","geometry":{"type":"LineString","coordinates":[[2.68993,43.48183],[2.68975,43.48183],[2.68925,43.48182],[2.68903,43.48182],[2.68878,43.48181],[2.68811,43.4817],[2.68752,43.48157],[2.68711,43.48145],[2.68664,43.48127],[2.6861,43.48103],[2.68409,43.47986],[2.6835,43.47955],[2.68319,43.47943],[2.68309,43.47939],[2.68245,43.47918],[2.68135,43.47889],[2.68125,43.47886]]},"properties":{"slope_pct":3.3,"start_km":44.467,"end_km":45.259,"ele_start":402.6,"ele_end":428.7,"class":"montee-faible","label":"Montée faible (2 à 4 %)","color":"#22c55e"}},{"type":"Feature","geometry":{"type":"LineString","coordinates":[[2.68125,43.47886],[2.68114,43.47883],[2.67852,43.4782]]},"properties":{"slope_pct":4.4,"start_km":45.259,"end_km":45.491,"ele_start":428.7,"ele_end":438.8,"class":"montee-moderee","label":"Montée modérée (4 à 7 %)","color":"#eab308"}},{"type":"Feature","geometry":{"type":"LineString","coordinates":[[2.67852,43.4782],[2.67775,43.47807],[2.67665,43.478]]},"properties":{"slope_pct":2.4,"start_km":45.491,"end_km":45.643,"ele_start":438.8,"ele_end":442.5,"class":"montee-faible","label":"Montée faible (2 à 4 %)","color":"#22c55e"}},{"type":"Feature","geometry":{"type":"LineString","coordinates":[[2.67665,43.478],[2.67217,43.47789],[2.67048,43.47789],[2.66941,43.47793],[2.66827,43.47802]]},"properties":{"slope_pct":-0.0,"start_km":45.643,"end_km":46.32,"ele_start":442.5,"ele_end":442.3,"class":"plat","label":"Plat (−2 à 2 %)","color":"#94a3b8"}},{"type":"Feature","geometry":{"type":"LineString","coordinates":[[2.66827,43.47802],[2.66759,43.47801],[2.66706,43.47798],[2.66605,43.47781]]},"properties":{"slope_pct":-2.1,"start_km":46.32,"end_km":46.502,"ele_start":442.3,"ele_end":438.4,"class":"descente","label":"Descente (−6 à −2 %)","color":"#60a5fa"}},{"type":"Feature","geometry":{"type":"LineString","coordinates":[[2.66605,43.47781],[2.66441,43.47745],[2.66338,43.47733],[2.66231,43.47726],[2.66161,43.47718],[2.66043,43.4769]]},"properties":{"slope_pct":-1.8,"start_km":46.502,"end_km":46.968,"ele_start":438.4,"ele_end":429.9,"class":"plat","label":"Plat (−2 à 2 %)","color":"#94a3b8"}},{"type":"Feature","geometry":{"type":"LineString","coordinates":[[2.66043,43.4769],[2.66017,43.47681],[2.65822,43.47594]]},"properties":{"slope_pct":-2.0,"start_km":46.968,"end_km":47.176,"ele_start":429.9,"ele_end":425.7,"class":"descente","label":"Descente (−6 à −2 %)","color":"#60a5fa"}},{"type":"Feature","geometry":{"type":"LineString","coordinates":[[2.65822,43.47594],[2.65753,43.47574],[2.6565,43.4755],[2.65499,43.47515]]},"properties":{"slope_pct":-0.8,"start_km":47.176,"end_km":47.452,"ele_start":425.7,"ele_end":423.4,"class":"plat","label":"Plat (−2 à 2 %)","color":"#94a3b8"}},{"type":"Feature","geometry":{"type":"LineString","coordinates":[[2.65499,43.47515],[2.65405,43.47489],[2.65362,43.47471],[2.6531,43.47448],[2.65163,43.47356]]},"properties":{"slope_pct":-2.2,"start_km":47.452,"end_km":47.779,"ele_start":423.4,"ele_end":416.3,"class":"descente","label":"Descente (−6 à −2 %)","color":"#60a5fa"}},{"type":"Feature","geometry":{"type":"LineString","coordinates":[[2.65163,43.47356],[2.6511,43.47328],[2.65102,43.47324],[2.65031,43.47292]]},"properties":{"slope_pct":-1.4,"start_km":47.779,"end_km":47.907,"ele_start":416.3,"ele_end":414.5,"class":"plat","label":"Plat (−2 à 2 %)","color":"#94a3b8"}},{"type":"Feature","geometry":{"type":"LineString","coordinates":[[2.65031,43.47292],[2.64973,43.47277],[2.64941,43.47269],[2.64815,43.47249],[2.64789,43.47246],[2.64779,43.47244],[2.64728,43.47238],[2.64708,43.47236],[2.64639,43.47232]]},"properties":{"slope_pct":-3.2,"start_km":47.907,"end_km":48.231,"ele_start":414.5,"ele_end":404.0,"class":"descente","label":"Descente (−6 à −2 %)","color":"#60a5fa"}},{"type":"Feature","geometry":{"type":"LineString","coordinates":[[2.64639,43.47232],[2.64557,43.47234],[2.6453,43.47236],[2.64516,43.47238],[2.64462,43.47246],[2.64425,43.47254],[2.6438,43.47267],[2.64314,43.47291],[2.64269,43.47311],[2.64237,43.47327],[2.64121,43.47398],[2.64083,43.47419],[2.64063,43.47429],[2.64046,43.47436],[2.63987,43.47464],[2.63972,43.47471],[2.63947,43.47482],[2.63937,43.47486],[2.63856,43.47516],[2.63831,43.47522],[2.63773,43.47532],[2.63762,43.47533],[2.63727,43.47535],[2.63703,43.47535],[2.63608,43.47525],[2.63528,43.47514]]},"properties":{"slope_pct":-0.8,"start_km":48.231,"end_km":49.222,"ele_start":404.0,"ele_end":396.6,"class":"plat","label":"Plat (−2 à 2 %)","color":"#94a3b8"}},{"type":"Feature","geometry":{"type":"LineString","coordinates":[[2.63528,43.47514],[2.63524,43.4751],[2.63508,43.47501],[2.6348,43.47501],[2.63438,43.47496],[2.63379,43.47488],[2.63357,43.4749],[2.63311,43.47486],[2.63014,43.47453],[2.62905,43.47442],[2.62842,43.47445],[2.62796,43.47451],[2.62764,43.47458],[2.62684,43.47483]]},"properties":{"slope_pct":0.5,"start_km":49.222,"end_km":49.922,"ele_start":396.6,"ele_end":400.0,"class":"plat","label":"Plat (−2 à 2 %)","color":"#94a3b8"}},{"type":"Feature","geometry":{"type":"LineString","coordinates":[[2.62684,43.47483],[2.62581,43.47517],[2.62417,43.47568]]},"properties":{"slope_pct":-2.9,"start_km":49.922,"end_km":50.157,"ele_start":400.0,"ele_end":393.0,"class":"descente","label":"Descente (−6 à −2 %)","color":"#60a5fa"}},{"type":"Feature","geometry":{"type":"LineString","coordinates":[[2.62417,43.47568],[2.62367,43.4758],[2.62344,43.47583],[2.62328,43.47585],[2.62296,43.47588]]},"properties":{"slope_pct":-6.1,"start_km":50.157,"end_km":50.257,"ele_start":393.0,"ele_end":387.0,"class":"descente-forte","label":"Descente forte (< −6 %)","color":"#1d4ed8"}},{"type":"Feature","geometry":{"type":"LineString","coordinates":[[2.62296,43.47588],[2.62217,43.4759],[2.62161,43.47584]]},"properties":{"slope_pct":-4.0,"start_km":50.257,"end_km":50.366,"ele_start":387.0,"ele_end":382.6,"class":"descente","label":"Descente (−6 à −2 %)","color":"#60a5fa"}},{"type":"Feature","geometry":{"type":"LineString","coordinates":[[2.62161,43.47584],[2.62113,43.47577],[2.61956,43.47537],[2.61926,43.47527],[2.6181,43.47477],[2.61804,43.47475],[2.618,43.47473],[2.61769,43.47459],[2.61739,43.47449],[2.61702,43.4744],[2.61631,43.47428],[2.61525,43.47415],[2.61488,43.47408],[2.61422,43.47388],[2.61379,43.47371],[2.61117,43.47246]]},"properties":{"slope_pct":-1.2,"start_km":50.366,"end_km":51.299,"ele_start":382.6,"ele_end":371.4,"class":"plat","label":"Plat (−2 à 2 %)","color":"#94a3b8"}},{"type":"Feature","geometry":{"type":"LineString","coordinates":[[2.61117,43.47246],[2.61073,43.47222],[2.60986,43.47162],[2.60939,43.47134],[2.609,43.47115],[2.60888,43.47111],[2.60837,43.47095],[2.60803,43.47087],[2.60738,43.4708],[2.60668,43.47081],[2.60643,43.47084],[2.60584,43.47098],[2.60549,43.47109],[2.60519,43.47122],[2.60486,43.47138],[2.60432,43.47176],[2.60308,43.47281],[2.60249,43.47322],[2.6021,43.47341]]},"properties":{"slope_pct":-0.1,"start_km":51.299,"end_km":52.201,"ele_start":371.4,"ele_end":370.7,"class":"plat","label":"Plat (−2 à 2 %)","color":"#94a3b8"}},{"type":"Feature","geometry":{"type":"LineString","coordinates":[[2.6021,43.47341],[2.60178,43.47352],[2.60173,43.4735],[2.60153,43.47333],[2.60081,43.47298]]},"properties":{"slope_pct":-0.9,"start_km":52.201,"end_km":52.329,"ele_start":370.7,"ele_end":369.6,"class":"plat","label":"Plat (−2 à 2 %)","color":"#94a3b8"}},{"type":"Feature","geometry":{"type":"LineString","coordinates":[[2.60081,43.47298],[2.59998,43.47278],[2.59863,43.47272]]},"properties":{"slope_pct":-3.9,"start_km":52.329,"end_km":52.509,"ele_start":369.6,"ele_end":362.6,"class":"descente","label":"Descente (−6 à −2 %)","color":"#60a5fa"}},{"type":"Feature","geometry":{"type":"LineString","coordinates":[[2.59863,43.47272],[2.59843,43.4727],[2.59822,43.47264],[2.59719,43.47209]]},"properties":{"slope_pct":-6.4,"start_km":52.509,"end_km":52.646,"ele_start":362.6,"ele_end":353.9,"class":"descente-forte","label":"Descente forte (< −6 %)","color":"#1d4ed8"}},{"type":"Feature","geometry":{"type":"LineString","coordinates":[[2.59719,43.47209],[2.59614,43.47135],[2.59549,43.47105],[2.59498,43.47091],[2.59458,43.47068],[2.59418,43.47052],[2.59362,43.47035]]},"properties":{"slope_pct":-4.2,"start_km":52.646,"end_km":52.997,"ele_start":353.9,"ele_end":339.1,"class":"descente","label":"Descente (−6 à −2 %)","color":"#60a5fa"}},{"type":"Feature","geometry":{"type":"LineString","coordinates":[[2.59362,43.47035],[2.59351,43.47036],[2.59347,43.47046],[2.59344,43.47054],[2.59342,43.47058],[2.59339,43.47064],[2.59338,43.47066],[2.5933,43.47086],[2.59322,43.47102],[2.59304,43.47121],[2.59284,43.47132],[2.5926,43.4714],[2.59216,43.47143],[2.59189,43.47143],[2.59182,43.47145],[2.59174,43.47151],[2.59174,43.4716],[2.59078,43.47159],[2.5905,43.47157],[2.58907,43.47134],[2.589,43.47133],[2.58811,43.47121],[2.58768,43.47116],[2.58721,43.47113],[2.58669,43.47111],[2.58668,43.47111],[2.58654,43.47111],[2.58625,43.47112],[2.58581,43.47118],[2.58486,43.47137],[2.58435,43.4715],[2.58264,43.47194]]},"properties":{"slope_pct":-0.5,"start_km":52.997,"end_km":53.987,"ele_start":339.1,"ele_end":333.8,"class":"plat","label":"Plat (−2 à 2 %)","color":"#94a3b8"}},{"type":"Feature","geometry":{"type":"LineString","coordinates":[[2.58264,43.47194],[2.58241,43.47204],[2.58208,43.47213],[2.58103,43.47238]]},"properties":{"slope_pct":-1.1,"start_km":53.987,"end_km":54.126,"ele_start":333.8,"ele_end":332.4,"class":"plat","label":"Plat (−2 à 2 %)","color":"#94a3b8"}},{"type":"Feature","geometry":{"type":"LineString","coordinates":[[2.58103,43.47238],[2.58031,43.47255],[2.57966,43.47272],[2.57911,43.47283],[2.57789,43.47297]]},"properties":{"slope_pct":-2.1,"start_km":54.126,"end_km":54.388,"ele_start":332.4,"ele_end":326.9,"class":"descente","label":"Descente (−6 à −2 %)","color":"#60a5fa"}},{"type":"Feature","geometry":{"type":"LineString","coordinates":[[2.57789,43.47297],[2.57741,43.473],[2.57725,43.473],[2.57707,43.47301],[2.57478,43.4731],[2.57468,43.47311],[2.5727,43.47317],[2.57257,43.47318],[2.57031,43.47329],[2.5691,43.47331],[2.56855,43.4733],[2.56808,43.47325],[2.5663,43.47289]]},"properties":{"slope_pct":-1.3,"start_km":54.388,"end_km":55.33,"ele_start":326.9,"ele_end":315.2,"class":"plat","label":"Plat (−2 à 2 %)","color":"#94a3b8"}},{"type":"Feature","geometry":{"type":"LineString","coordinates":[[2.5663,43.47289],[2.566,43.47283],[2.56557,43.47277],[2.56503,43.47275],[2.5643,43.47281],[2.56388,43.47291],[2.56345,43.47306],[2.56287,43.47331],[2.56243,43.47356],[2.56064,43.47451],[2.56017,43.47469],[2.55952,43.47487],[2.55873,43.47504],[2.55855,43.47507],[2.55638,43.47548]]},"properties":{"slope_pct":-0.6,"start_km":55.33,"end_km":56.208,"ele_start":315.2,"ele_end":309.7,"class":"plat","label":"Plat (−2 à 2 %)","color":"#94a3b8"}},{"type":"Feature","geometry":{"type":"LineString","coordinates":[[2.55638,43.47548],[2.55593,43.47553],[2.55548,43.47554],[2.55515,43.47551],[2.55361,43.47528],[2.55312,43.47525],[2.55268,43.47527],[2.5519,43.47537],[2.55102,43.4754],[2.55057,43.47536]]},"properties":{"slope_pct":-0.8,"start_km":56.208,"end_km":56.682,"ele_start":309.7,"ele_end":305.8,"class":"plat","label":"Plat (−2 à 2 %)","color":"#94a3b8"}},{"type":"Feature","geometry":{"type":"LineString","coordinates":[[2.55057,43.47536],[2.55034,43.47533],[2.55032,43.47532],[2.54968,43.47519],[2.54928,43.47503],[2.54893,43.47486],[2.54852,43.47458],[2.54821,43.47433]]},"properties":{"slope_pct":-2.0,"start_km":56.682,"end_km":56.909,"ele_start":305.8,"ele_end":301.2,"class":"descente","label":"Descente (−6 à −2 %)","color":"#60a5fa"}},{"type":"Feature","geometry":{"type":"LineString","coordinates":[[2.54821,43.47433],[2.548,43.47409],[2.54774,43.47368],[2.54685,43.47216],[2.54678,43.4721],[2.54656,43.47188],[2.54592,43.47142],[2.54561,43.47127],[2.54544,43.47122],[2.54508,43.47116],[2.54497,43.47099],[2.54484,43.47097],[2.54446,43.4709],[2.54441,43.47089],[2.54375,43.47082],[2.54344,43.47081],[2.5433,43.4708],[2.54112,43.47083],[2.54106,43.47081],[2.54104,43.47077],[2.54108,43.47017],[2.54103,43.47012],[2.53953,43.47006]]},"properties":{"slope_pct":-0.5,"start_km":56.909,"end_km":57.9,"ele_start":301.2,"ele_end":296.5,"class":"plat","label":"Plat (−2 à 2 %)","color":"#94a3b8"}},{"type":"Feature","geometry":{"type":"LineString","coordinates":[[2.53953,43.47006],[2.53819,43.46998],[2.53803,43.47],[2.53796,43.47088],[2.53751,43.47088],[2.53723,43.47085],[2.53627,43.47084],[2.53613,43.47084],[2.53594,43.47084],[2.53531,43.47085],[2.53484,43.47094],[2.53477,43.47093],[2.53447,43.47086],[2.53211,43.47087],[2.53051,43.47085]]},"properties":{"slope_pct":-0.6,"start_km":57.9,"end_km":58.723,"ele_start":296.5,"ele_end":291.7,"class":"plat","label":"Plat (−2 à 2 %)","color":"#94a3b8"}},{"type":"Feature","geometry":{"type":"LineString","coordinates":[[2.53051,43.47085],[2.53014,43.47083],[2.53003,43.47082],[2.52781,43.47054],[2.52763,43.47052],[2.52687,43.47042],[2.52672,43.4704],[2.52568,43.47029],[2.52471,43.47026],[2.5238,43.4703],[2.5226,43.47047],[2.52155,43.47073]]},"properties":{"slope_pct":-1.2,"start_km":58.723,"end_km":59.458,"ele_start":291.7,"ele_end":282.6,"class":"plat","label":"Plat (−2 à 2 %)","color":"#94a3b8"}},{"type":"Feature","geometry":{"type":"LineString","coordinates":[[2.52155,43.47073],[2.5214,43.47076],[2.51827,43.47152],[2.51816,43.47155],[2.51812,43.47156],[2.51098,43.4733]]},"properties":{"slope_pct":-0.1,"start_km":59.458,"end_km":60.357,"ele_start":282.6,"ele_end":281.6,"class":"plat","label":"Plat (−2 à 2 %)","color":"#94a3b8"}},{"type":"Feature","geometry":{"type":"LineString","coordinates":[[2.51098,43.4733],[2.51088,43.47333],[2.5098,43.47364],[2.50918,43.47388],[2.50744,43.47469],[2.50705,43.47487],[2.50659,43.47501],[2.50623,43.47508],[2.50588,43.47513],[2.50298,43.47526],[2.50239,43.47523],[2.50157,43.47528],[2.50138,43.47534],[2.50056,43.47538],[2.50002,43.47539]]},"properties":{"slope_pct":0.0,"start_km":60.357,"end_km":61.295,"ele_start":281.6,"ele_end":281.7,"class":"plat","label":"Plat (−2 à 2 %)","color":"#94a3b8"}},{"type":"Feature","geometry":{"type":"LineString","coordinates":[[2.50002,43.47539],[2.49981,43.47544],[2.49841,43.4755],[2.49813,43.47548],[2.49743,43.47552],[2.4965,43.47571],[2.49638,43.47574],[2.49594,43.47577],[2.49565,43.47587],[2.49477,43.47623],[2.49429,43.47649],[2.49304,43.47736],[2.49256,43.47764],[2.49213,43.47783],[2.49181,43.47793],[2.49148,43.47803],[2.49124,43.47806],[2.49065,43.47812],[2.49054,43.47812]]},"properties":{"slope_pct":-0.9,"start_km":61.295,"end_km":62.148,"ele_start":281.7,"ele_end":273.6,"class":"plat","label":"Plat (−2 à 2 %)","color":"#94a3b8"}},{"type":"Feature","geometry":{"type":"LineString","coordinates":[[2.49054,43.47812],[2.49046,43.47813],[2.49027,43.47814],[2.49008,43.47815],[2.48997,43.47816],[2.48987,43.47818],[2.48972,43.47817],[2.4895,43.47816],[2.48867,43.47828],[2.4883,43.47838],[2.48803,43.47848],[2.48786,43.47855],[2.48763,43.47865],[2.48713,43.47885],[2.48669,43.47903],[2.48662,43.47908],[2.4866,43.4791],[2.48658,43.47912],[2.4865,43.47918],[2.4865,43.47923],[2.48648,43.47932],[2.48641,43.47939],[2.48587,43.47978],[2.48566,43.47978],[2.48552,43.47988],[2.48543,43.47991],[2.48531,43.47991],[2.48518,43.47988],[2.48511,43.47989],[2.48504,43.47997],[2.48502,43.47999],[2.48433,43.4807],[2.48424,43.48078],[2.48412,43.4809],[2.48401,43.481],[2.48395,43.48109],[2.48352,43.48143],[2.4835,43.48148],[2.48332,43.48158],[2.48319,43.48154],[2.48306,43.48152],[2.48295,43.48158],[2.48284,43.48165],[2.48069,43.48256]]},"properties":{"slope_pct":-0.6,"start_km":62.148,"end_km":63.143,"ele_start":273.6,"ele_end":267.6,"class":"plat","label":"Plat (−2 à 2 %)","color":"#94a3b8"}},{"type":"Feature","geometry":{"type":"LineString","coordinates":[[2.48069,43.48256],[2.48021,43.48275],[2.47982,43.48287],[2.47938,43.48294],[2.47355,43.48334],[2.47275,43.48339],[2.47128,43.48351],[2.47071,43.4836],[2.47026,43.48371],[2.46987,43.48385]]},"properties":{"slope_pct":-0.5,"start_km":63.143,"end_km":64.034,"ele_start":267.6,"ele_end":263.0,"class":"plat","label":"Plat (−2 à 2 %)","color":"#94a3b8"}},{"type":"Feature","geometry":{"type":"LineString","coordinates":[[2.46987,43.48385],[2.46941,43.48406],[2.46893,43.48431],[2.46632,43.48593],[2.46587,43.48622],[2.46546,43.48653],[2.46505,43.48688]]},"properties":{"slope_pct":-0.9,"start_km":64.034,"end_km":64.551,"ele_start":263.0,"ele_end":258.5,"class":"plat","label":"Plat (−2 à 2 %)","color":"#94a3b8"}},{"type":"Feature","geometry":{"type":"LineString","coordinates":[[2.46505,43.48688],[2.46475,43.48711],[2.46467,43.48708],[2.46459,43.48709],[2.46438,43.4874],[2.46434,43.4875],[2.46425,43.4876]]},"properties":{"slope_pct":-2.1,"start_km":64.551,"end_km":64.662,"ele_start":258.5,"ele_end":256.2,"class":"descente","label":"Descente (−6 à −2 %)","color":"#60a5fa"}},{"type":"Feature","geometry":{"type":"LineString","coordinates":[[2.46425,43.4876],[2.46383,43.48789],[2.4638,43.48795],[2.46374,43.48799],[2.46354,43.48813],[2.4634,43.48824],[2.46288,43.48861],[2.46227,43.48896],[2.46184,43.48914],[2.45378,43.49162]]},"properties":{"slope_pct":-1.0,"start_km":64.662,"end_km":65.63,"ele_start":256.2,"ele_end":246.7,"class":"plat","label":"Plat (−2 à 2 %)","color":"#94a3b8"}},{"type":"Feature","geometry":{"type":"LineString","coordinates":[[2.45378,43.49162],[2.45369,43.49165],[2.45133,43.49237],[2.4511,43.49242],[2.45101,43.49245],[2.45057,43.49258],[2.45035,43.49263],[2.44974,43.49279],[2.44831,43.49306],[2.44813,43.49307],[2.44775,43.49303],[2.44575,43.49312],[2.44498,43.49323],[2.44492,43.49332],[2.44498,43.4934],[2.44493,43.49349],[2.44479,43.4936]]},"properties":{"slope_pct":-0.5,"start_km":65.63,"end_km":66.42,"ele_start":246.7,"ele_end":242.7,"class":"plat","label":"Plat (−2 à 2 %)","color":"#94a3b8"}},{"type":"Feature","geometry":{"type":"LineString","coordinates":[[2.44479,43.4936],[2.44457,43.49366],[2.44195,43.49406],[2.44116,43.49415],[2.44064,43.49418],[2.44014,43.49417],[2.43998,43.49405],[2.43987,43.49403],[2.43945,43.49413],[2.43933,43.49414],[2.43827,43.49399],[2.43677,43.49368],[2.43626,43.49362],[2.43594,43.49362],[2.43449,43.49365]]},"properties":{"slope_pct":-0.2,"start_km":66.42,"end_km":67.272,"ele_start":242.7,"ele_end":240.8,"class":"plat","label":"Plat (−2 à 2 %)","color":"#94a3b8"}},{"type":"Feature","geometry":{"type":"LineString","coordinates":[[2.43449,43.49365],[2.43256,43.49373],[2.4278,43.49419]]},"properties":{"slope_pct":-0.5,"start_km":67.272,"end_km":67.816,"ele_start":240.8,"ele_end":237.8,"class":"plat","label":"Plat (−2 à 2 %)","color":"#94a3b8"}},{"type":"Feature","geometry":{"type":"LineString","coordinates":[[2.4278,43.49419],[2.41994,43.49497]]},"properties":{"slope_pct":-0.6,"start_km":67.816,"end_km":68.455,"ele_start":237.8,"ele_end":234.3,"class":"plat","label":"Plat (−2 à 2 %)","color":"#94a3b8"}},{"type":"Feature","geometry":{"type":"LineString","coordinates":[[2.41994,43.49497],[2.41163,43.49581]]},"properties":{"slope_pct":-0.3,"start_km":68.455,"end_km":69.132,"ele_start":234.3,"ele_end":232.2,"class":"plat","label":"Plat (−2 à 2 %)","color":"#94a3b8"}},{"type":"Feature","geometry":{"type":"LineString","coordinates":[[2.41163,43.49581],[2.4107,43.49592],[2.40592,43.49639],[2.40565,43.4964],[2.40557,43.49637],[2.40538,43.49638],[2.40461,43.49631],[2.40375,43.49613],[2.40258,43.49625],[2.40193,43.49632],[2.40177,43.49634],[2.40137,43.49637],[2.4011,43.49629],[2.40091,43.49627],[2.40075,43.49629],[2.40052,43.49639],[2.40047,43.49635],[2.40038,43.49629],[2.40033,43.49624],[2.40024,43.49616],[2.40034,43.49606],[2.40049,43.49592]]},"properties":{"slope_pct":-0.5,"start_km":69.132,"end_km":70.111,"ele_start":232.2,"ele_end":227.6,"class":"plat","label":"Plat (−2 à 2 %)","color":"#94a3b8"}},{"type":"Feature","geometry":{"type":"LineString","coordinates":[[2.40049,43.49592],[2.40074,43.4957],[2.40092,43.49554],[2.40095,43.49549],[2.40091,43.49545],[2.40082,43.49543],[2.40039,43.49538]]},"properties":{"slope_pct":2.5,"start_km":70.111,"end_km":70.221,"ele_start":227.6,"ele_end":230.3,"class":"montee-faible","label":"Montée faible (2 à 4 %)","color":"#22c55e"}},{"type":"Feature","geometry":{"type":"LineString","coordinates":[[2.40039,43.49538],[2.40021,43.49536],[2.39993,43.49534],[2.3995,43.49535],[2.39615,43.4956],[2.39492,43.49569],[2.39474,43.49574],[2.39456,43.49572],[2.39158,43.49594],[2.39064,43.49606],[2.39056,43.49607],[2.38954,43.49627]]},"properties":{"slope_pct":0.9,"start_km":70.221,"end_km":71.105,"ele_start":230.3,"ele_end":238.2,"class":"plat","label":"Plat (−2 à 2 %)","color":"#94a3b8"}},{"type":"Feature","geometry":{"type":"LineString","coordinates":[[2.38954,43.49627],[2.38864,43.49651],[2.38814,43.49663],[2.38737,43.49681],[2.38698,43.49687],[2.3862,43.49695],[2.38591,43.49694],[2.38551,43.49692],[2.3846,43.4968],[2.38454,43.49679],[2.38242,43.49648],[2.38206,43.49643],[2.38199,43.49653],[2.38194,43.49656],[2.38181,43.49657],[2.3817,43.49653],[2.38165,43.49644],[2.38165,43.49638],[2.38128,43.49632],[2.37972,43.49611],[2.37895,43.49608],[2.3787,43.49609],[2.37817,43.49617]]},"properties":{"slope_pct":0.3,"start_km":71.105,"end_km":72.065,"ele_start":238.2,"ele_end":240.7,"class":"plat","label":"Plat (−2 à 2 %)","color":"#94a3b8"}},{"type":"Feature","geometry":{"type":"LineString","coordinates":[[2.37817,43.49617],[2.37786,43.49624],[2.37771,43.49629],[2.37764,43.49633],[2.37756,43.49643],[2.37757,43.49646],[2.37735,43.49653],[2.37716,43.49663],[2.37685,43.49681],[2.37604,43.49731],[2.37579,43.49746],[2.37576,43.49741],[2.37571,43.49729],[2.37566,43.4973],[2.3756,43.49731],[2.37554,43.49732],[2.37538,43.49717],[2.37529,43.49716],[2.37523,43.49718],[2.37487,43.49739],[2.37465,43.49753]]},"properties":{"slope_pct":0.1,"start_km":72.065,"end_km":72.439,"ele_start":240.7,"ele_end":241.2,"class":"plat","label":"Plat (−2 à 2 %)","color":"#94a3b8"}}]}
