{"type":"FeatureCollection","generator":"tools/slope_colors.py","format_version":1,"source_gpx":"2026-09-28_3314792348_CycloExplore -  Corconne _ Taillade.gpx","source_sha256":"d5ac55fc84be8acf82e8e2e01305257deccc5daca4d5115f6b925e883a77abae","params_fingerprint":"4bb834e818a4f3f7","params":{"segment_length_m":100.0,"smoothing_window_m":150.0,"resample_step_m":10.0,"max_merged_length_m":1000.0,"classes":[{"key":"descente-forte","label":"Descente forte (< −6 %)","min":null,"max":-6.0,"color":"#1d4ed8"},{"key":"descente","label":"Descente (−6 à −2 %)","min":-6.0,"max":-2.0,"color":"#60a5fa"},{"key":"plat","label":"Plat (−2 à 2 %)","min":-2.0,"max":2.0,"color":"#94a3b8"},{"key":"montee-faible","label":"Montée faible (2 à 4 %)","min":2.0,"max":4.0,"color":"#22c55e"},{"key":"montee-moderee","label":"Montée modérée (4 à 7 %)","min":4.0,"max":7.0,"color":"#eab308"},{"key":"montee-soutenue","label":"Montée soutenue (7 à 10 %)","min":7.0,"max":10.0,"color":"#f97316"},{"key":"montee-forte","label":"Montée forte (≥ 10 %)","min":10.0,"max":null,"color":"#dc2626"}]},"legend":[{"key":"descente-forte","label":"Descente forte (< −6 %)","min":null,"max":-6.0,"color":"#1d4ed8"},{"key":"descente","label":"Descente (−6 à −2 %)","min":-6.0,"max":-2.0,"color":"#60a5fa"},{"key":"plat","label":"Plat (−2 à 2 %)","min":-2.0,"max":2.0,"color":"#94a3b8"},{"key":"montee-faible","label":"Montée faible (2 à 4 %)","min":2.0,"max":4.0,"color":"#22c55e"},{"key":"montee-moderee","label":"Montée modérée (4 à 7 %)","min":4.0,"max":7.0,"color":"#eab308"},{"key":"montee-soutenue","label":"Montée soutenue (7 à 10 %)","min":7.0,"max":10.0,"color":"#f97316"},{"key":"montee-forte","label":"Montée forte (≥ 10 %)","min":10.0,"max":null,"color":"#dc2626"}],"stats":{"distance_km":77.94,"elevation_valid_ratio":1.0,"elevation_ok":true,"smoothed_gain_m":773,"max_slope_pct":10.9,"min_slope_pct":-9.1},"features":[{"type":"Feature","geometry":{"type":"LineString","coordinates":[[3.88095,43.65525],[3.88098,43.65526],[3.88102,43.65523],[3.88113,43.65524],[3.88117,43.65528],[3.88116,43.65534],[3.88107,43.65538],[3.88102,43.65537],[3.88092,43.65543],[3.88082,43.65558],[3.88076,43.65573],[3.88068,43.65583],[3.88066,43.65587]]},"properties":{"slope_pct":0.6,"start_km":0.0,"end_km":0.104,"ele_start":53.5,"ele_end":54.1,"class":"plat","label":"Plat (−2 à 2 %)","color":"#94a3b8"}},{"type":"Feature","geometry":{"type":"LineString","coordinates":[[3.88066,43.65587],[3.88056,43.65609],[3.88049,43.65619],[3.88033,43.65638],[3.88029,43.65647],[3.88026,43.65676],[3.88018,43.65709],[3.88012,43.65719],[3.87994,43.65736],[3.87989,43.6575],[3.87985,43.65776],[3.87987,43.65794],[3.88009,43.65868],[3.88025,43.65916],[3.88052,43.65974],[3.88058,43.65986],[3.88074,43.66019],[3.88085,43.66042],[3.88098,43.66122]]},"properties":{"slope_pct":3.0,"start_km":0.104,"end_km":0.725,"ele_start":54.1,"ele_end":72.6,"class":"montee-faible","label":"Montée faible (2 à 4 %)","color":"#22c55e"}},{"type":"Feature","geometry":{"type":"LineString","coordinates":[[3.88098,43.66122],[3.8811,43.66155],[3.88107,43.66184],[3.88103,43.66197],[3.88094,43.66204],[3.88055,43.66217],[3.88042,43.66226],[3.88037,43.66233],[3.88025,43.6628],[3.88115,43.66433]]},"properties":{"slope_pct":1.6,"start_km":0.725,"end_km":1.117,"ele_start":72.6,"ele_end":79.0,"class":"plat","label":"Plat (−2 à 2 %)","color":"#94a3b8"}},{"type":"Feature","geometry":{"type":"LineString","coordinates":[[3.88115,43.66433],[3.88207,43.66534],[3.88232,43.66551],[3.88253,43.66568],[3.88258,43.66579],[3.88257,43.66587],[3.88202,43.66626]]},"properties":{"slope_pct":2.5,"start_km":1.117,"end_km":1.388,"ele_start":79.0,"ele_end":85.8,"class":"montee-faible","label":"Montée faible (2 à 4 %)","color":"#22c55e"}},{"type":"Feature","geometry":{"type":"LineString","coordinates":[[3.88202,43.66626],[3.88202,43.66634],[3.88215,43.66653],[3.88221,43.66671],[3.88278,43.66743],[3.88307,43.66783],[3.88319,43.66785],[3.88377,43.66779],[3.88392,43.66777],[3.88409,43.66776],[3.88416,43.6678],[3.88476,43.66826],[3.88484,43.66828],[3.88481,43.66837],[3.88468,43.66851],[3.88454,43.66865],[3.88445,43.66875],[3.88435,43.66885],[3.88431,43.66896],[3.88436,43.66934]]},"properties":{"slope_pct":1.2,"start_km":1.388,"end_km":1.88,"ele_start":85.8,"ele_end":91.8,"class":"plat","label":"Plat (−2 à 2 %)","color":"#94a3b8"}},{"type":"Feature","geometry":{"type":"LineString","coordinates":[[3.88436,43.66934],[3.88437,43.6695],[3.88435,43.66969],[3.88418,43.66981],[3.88412,43.66994],[3.88419,43.67001],[3.88429,43.67006],[3.88454,43.6701],[3.88457,43.6701],[3.88487,43.67016],[3.88502,43.67023],[3.88509,43.67029],[3.88511,43.67041],[3.88492,43.67074],[3.88483,43.67097],[3.88477,43.67121],[3.88468,43.67141],[3.88413,43.67225],[3.88402,43.67241],[3.88395,43.67262],[3.88394,43.67292],[3.88389,43.67306],[3.88378,43.67318],[3.88366,43.67339],[3.88364,43.67357],[3.88353,43.67386],[3.88323,43.67446]]},"properties":{"slope_pct":3.1,"start_km":1.88,"end_km":2.536,"ele_start":91.8,"ele_end":112.3,"class":"montee-faible","label":"Montée faible (2 à 4 %)","color":"#22c55e"}},{"type":"Feature","geometry":{"type":"LineString","coordinates":[[3.88323,43.67446],[3.88299,43.67487],[3.88275,43.67519],[3.88268,43.67532],[3.88266,43.67567],[3.8826,43.67646],[3.88235,43.67724],[3.88196,43.67795],[3.88187,43.67832],[3.8817,43.67879],[3.88142,43.67929],[3.88125,43.67956],[3.88137,43.68035],[3.88164,43.68064],[3.88184,43.68084],[3.88252,43.68176],[3.88271,43.68215],[3.88271,43.68244],[3.88265,43.68266]]},"properties":{"slope_pct":0.5,"start_km":2.536,"end_km":3.504,"ele_start":112.3,"ele_end":116.8,"class":"plat","label":"Plat (−2 à 2 %)","color":"#94a3b8"}},{"type":"Feature","geometry":{"type":"LineString","coordinates":[[3.88265,43.68266],[3.88251,43.68298],[3.88246,43.68318],[3.88245,43.68323],[3.88246,43.68339],[3.88243,43.68365],[3.8824,43.68417],[3.88243,43.68444],[3.88259,43.68492],[3.88273,43.68569],[3.88273,43.68575],[3.88273,43.68596],[3.88273,43.68629],[3.88284,43.68651],[3.88286,43.68654],[3.88297,43.68671],[3.88318,43.68721],[3.88324,43.68735],[3.88333,43.68755],[3.88335,43.68789],[3.88339,43.68851]]},"properties":{"slope_pct":0.1,"start_km":3.504,"end_km":4.168,"ele_start":116.8,"ele_end":117.6,"class":"plat","label":"Plat (−2 à 2 %)","color":"#94a3b8"}},{"type":"Feature","geometry":{"type":"LineString","coordinates":[[3.88339,43.68851],[3.8834,43.68859],[3.88345,43.68915],[3.8835,43.68921],[3.88347,43.68926],[3.88346,43.68928],[3.88339,43.68952]]},"properties":{"slope_pct":-3.0,"start_km":4.168,"end_km":4.283,"ele_start":117.6,"ele_end":114.1,"class":"descente","label":"Descente (−6 à −2 %)","color":"#60a5fa"}},{"type":"Feature","geometry":{"type":"LineString","coordinates":[[3.88339,43.68952],[3.88326,43.68996],[3.88314,43.69011],[3.88303,43.69017],[3.88304,43.69022],[3.88296,43.69029],[3.88255,43.69074],[3.88243,43.69087],[3.88219,43.69111],[3.88216,43.69136],[3.88192,43.6919]]},"properties":{"slope_pct":-0.7,"start_km":4.283,"end_km":4.581,"ele_start":114.1,"ele_end":112.1,"class":"plat","label":"Plat (−2 à 2 %)","color":"#94a3b8"}},{"type":"Feature","geometry":{"type":"LineString","coordinates":[[3.88192,43.6919],[3.88188,43.69197],[3.88147,43.69282],[3.8814,43.69299],[3.88135,43.69314],[3.88108,43.69389],[3.881,43.69411],[3.88079,43.69449],[3.88075,43.69462],[3.88073,43.69478]]},"properties":{"slope_pct":3.3,"start_km":4.581,"end_km":4.916,"ele_start":112.1,"ele_end":123.1,"class":"montee-faible","label":"Montée faible (2 à 4 %)","color":"#22c55e"}},{"type":"Feature","geometry":{"type":"LineString","coordinates":[[3.88073,43.69478],[3.88074,43.69495],[3.88077,43.69513],[3.8809,43.69549],[3.88126,43.69576],[3.88151,43.69599],[3.88182,43.69638],[3.88189,43.69655],[3.88198,43.69676],[3.88203,43.69696],[3.88199,43.69741],[3.88186,43.69763]]},"properties":{"slope_pct":0.1,"start_km":4.916,"end_km":5.265,"ele_start":123.1,"ele_end":123.5,"class":"plat","label":"Plat (−2 à 2 %)","color":"#94a3b8"}},{"type":"Feature","geometry":{"type":"LineString","coordinates":[[3.88186,43.69763],[3.88158,43.69787],[3.88123,43.69803],[3.88084,43.69811],[3.88058,43.69822],[3.88039,43.69844],[3.88024,43.69891],[3.88035,43.69895],[3.88075,43.69922],[3.88134,43.69944]]},"properties":{"slope_pct":-3.2,"start_km":5.265,"end_km":5.58,"ele_start":123.5,"ele_end":113.6,"class":"descente","label":"Descente (−6 à −2 %)","color":"#60a5fa"}},{"type":"Feature","geometry":{"type":"LineString","coordinates":[[3.88134,43.69944],[3.88152,43.69953],[3.88179,43.69973],[3.88192,43.69977],[3.882,43.69977],[3.88247,43.69991],[3.88333,43.70012],[3.88344,43.70011],[3.88366,43.69992]]},"properties":{"slope_pct":-0.1,"start_km":5.58,"end_km":5.796,"ele_start":113.6,"ele_end":113.3,"class":"plat","label":"Plat (−2 à 2 %)","color":"#94a3b8"}},{"type":"Feature","geometry":{"type":"LineString","coordinates":[[3.88366,43.69992],[3.88373,43.6999],[3.88402,43.69989],[3.88426,43.69995],[3.88438,43.69999],[3.88471,43.70021],[3.88583,43.70045]]},"properties":{"slope_pct":3.3,"start_km":5.796,"end_km":5.987,"ele_start":113.3,"ele_end":119.5,"class":"montee-faible","label":"Montée faible (2 à 4 %)","color":"#22c55e"}},{"type":"Feature","geometry":{"type":"LineString","coordinates":[[3.88583,43.70045],[3.88594,43.7005],[3.88603,43.70058],[3.88618,43.70088],[3.88622,43.7009],[3.88666,43.70091],[3.88685,43.70094],[3.88744,43.70118],[3.8878,43.70137],[3.88773,43.70142],[3.88756,43.70169]]},"properties":{"slope_pct":4.8,"start_km":5.987,"end_km":6.231,"ele_start":119.5,"ele_end":131.3,"class":"montee-moderee","label":"Montée modérée (4 à 7 %)","color":"#eab308"}},{"type":"Feature","geometry":{"type":"LineString","coordinates":[[3.88756,43.70169],[3.88762,43.70182],[3.88776,43.702],[3.88781,43.70208],[3.88752,43.7022],[3.88737,43.70231],[3.88713,43.70265],[3.88659,43.70359],[3.88643,43.70378],[3.8865,43.70384],[3.88652,43.70394],[3.88627,43.70483],[3.88632,43.70529],[3.88639,43.70562],[3.88626,43.70611]]},"properties":{"slope_pct":3.3,"start_km":6.231,"end_km":6.769,"ele_start":131.3,"ele_end":149.0,"class":"montee-faible","label":"Montée faible (2 à 4 %)","color":"#22c55e"}},{"type":"Feature","geometry":{"type":"LineString","coordinates":[[3.88626,43.70611],[3.88625,43.70681],[3.88628,43.70753]]},"properties":{"slope_pct":0.8,"start_km":6.769,"end_km":6.927,"ele_start":149.0,"ele_end":150.3,"class":"plat","label":"Plat (−2 à 2 %)","color":"#94a3b8"}},{"type":"Feature","geometry":{"type":"LineString","coordinates":[[3.88628,43.70753],[3.88623,43.70792],[3.88625,43.70798],[3.88611,43.70805],[3.88613,43.70808],[3.88606,43.70836],[3.88588,43.70898],[3.88602,43.7097],[3.88599,43.71003],[3.88601,43.71023],[3.88624,43.7108],[3.88645,43.71086],[3.88684,43.71075],[3.88696,43.71075],[3.88725,43.71088],[3.88735,43.71096],[3.88754,43.71118],[3.88775,43.71133],[3.88825,43.71136],[3.88921,43.71155],[3.8895,43.71152],[3.88964,43.71163],[3.89006,43.71178],[3.8902,43.71183],[3.89044,43.71185],[3.89052,43.71189],[3.8907,43.71201],[3.89096,43.71227],[3.8917,43.71288]]},"properties":{"slope_pct":-4.1,"start_km":6.927,"end_km":7.84,"ele_start":150.3,"ele_end":112.8,"class":"descente","label":"Descente (−6 à −2 %)","color":"#60a5fa"}},{"type":"Feature","geometry":{"type":"LineString","coordinates":[[3.8917,43.71288],[3.89216,43.71319],[3.89217,43.71333],[3.8921,43.71435],[3.89216,43.71443],[3.89224,43.71443],[3.89274,43.71429],[3.89291,43.71428],[3.89295,43.7143],[3.89307,43.71451],[3.89313,43.71476],[3.89308,43.7152],[3.893,43.71534],[3.89301,43.7154],[3.89317,43.71538],[3.89353,43.71526],[3.89364,43.71529],[3.89366,43.71531],[3.89367,43.71576]]},"properties":{"slope_pct":-2.7,"start_km":7.84,"end_km":8.329,"ele_start":112.8,"ele_end":99.4,"class":"descente","label":"Descente (−6 à −2 %)","color":"#60a5fa"}},{"type":"Feature","geometry":{"type":"LineString","coordinates":[[3.89367,43.71576],[3.8936,43.71608],[3.89341,43.71649],[3.8934,43.71691],[3.89325,43.71726],[3.89291,43.71826],[3.89258,43.71896],[3.89249,43.71907],[3.8923,43.71937],[3.89232,43.71942],[3.89265,43.71969],[3.89284,43.71982],[3.89316,43.71999],[3.89332,43.72003],[3.89367,43.72004],[3.89377,43.72006],[3.89416,43.7202],[3.89425,43.7202],[3.89431,43.72015],[3.89467,43.71965],[3.89487,43.71943],[3.89508,43.71931],[3.89524,43.71927],[3.89551,43.71926],[3.89543,43.7194],[3.89519,43.71968],[3.8951,43.71985],[3.89463,43.72075]]},"properties":{"slope_pct":0.7,"start_km":8.329,"end_km":9.277,"ele_start":99.4,"ele_end":105.8,"class":"plat","label":"Plat (−2 à 2 %)","color":"#94a3b8"}},{"type":"Feature","geometry":{"type":"LineString","coordinates":[[3.89463,43.72075],[3.89462,43.72088],[3.89463,43.72122],[3.89455,43.72163],[3.89461,43.72229],[3.89469,43.72248],[3.89466,43.7226],[3.89455,43.72273],[3.89411,43.72304],[3.89394,43.72325],[3.89362,43.72383],[3.89303,43.72467],[3.89274,43.72519],[3.89269,43.72534],[3.89257,43.72563],[3.89245,43.72581],[3.89267,43.72593],[3.89346,43.72609]]},"properties":{"slope_pct":1.0,"start_km":9.277,"end_km":9.976,"ele_start":105.8,"ele_end":112.6,"class":"plat","label":"Plat (−2 à 2 %)","color":"#94a3b8"}},{"type":"Feature","geometry":{"type":"LineString","coordinates":[[3.89346,43.72609],[3.89358,43.72623],[3.89359,43.72644],[3.89351,43.72686],[3.89346,43.72776],[3.89347,43.72878],[3.89354,43.72937],[3.89344,43.72984]]},"properties":{"slope_pct":2.6,"start_km":9.976,"end_km":10.397,"ele_start":112.6,"ele_end":123.7,"class":"montee-faible","label":"Montée faible (2 à 4 %)","color":"#22c55e"}},{"type":"Feature","geometry":{"type":"LineString","coordinates":[[3.89344,43.72984],[3.89334,43.73031],[3.89342,43.73104],[3.8934,43.73149],[3.89349,43.73175],[3.89344,43.73242],[3.8932,43.73298],[3.89314,43.73329],[3.89299,43.73369],[3.89285,43.73392],[3.89284,43.73414],[3.89275,43.73439],[3.89306,43.73458],[3.89352,43.73476],[3.89389,43.73484]]},"properties":{"slope_pct":1.6,"start_km":10.397,"end_km":11.019,"ele_start":123.7,"ele_end":133.8,"class":"plat","label":"Plat (−2 à 2 %)","color":"#94a3b8"}},{"type":"Feature","geometry":{"type":"LineString","coordinates":[[3.89389,43.73484],[3.89427,43.73488],[3.89533,43.73488],[3.89583,43.7348],[3.89638,43.73484],[3.89662,43.73486]]},"properties":{"slope_pct":2.3,"start_km":11.019,"end_km":11.24,"ele_start":133.8,"ele_end":138.8,"class":"montee-faible","label":"Montée faible (2 à 4 %)","color":"#22c55e"}},{"type":"Feature","geometry":{"type":"LineString","coordinates":[[3.89662,43.73486],[3.89717,43.73483],[3.89783,43.73488],[3.89817,43.7349],[3.89923,43.73488],[3.89984,43.73481],[3.90022,43.73479],[3.90028,43.73478],[3.90033,43.73473],[3.90037,43.73412],[3.90047,43.73349],[3.90051,43.73296]]},"properties":{"slope_pct":-0.1,"start_km":11.24,"end_km":11.74,"ele_start":138.8,"ele_end":138.4,"class":"plat","label":"Plat (−2 à 2 %)","color":"#94a3b8"}},{"type":"Feature","geometry":{"type":"LineString","coordinates":[[3.90051,43.73296],[3.90064,43.73272],[3.9009,43.73247],[3.90162,43.73321],[3.90216,43.73388],[3.90244,43.73427],[3.903,43.73535]]},"properties":{"slope_pct":-2.7,"start_km":11.74,"end_km":12.167,"ele_start":138.4,"ele_end":126.8,"class":"descente","label":"Descente (−6 à −2 %)","color":"#60a5fa"}},{"type":"Feature","geometry":{"type":"LineString","coordinates":[[3.903,43.73535],[3.90309,43.73551],[3.90424,43.73757],[3.90433,43.73777],[3.90435,43.73792],[3.90423,43.73871],[3.90424,43.73882],[3.90538,43.7414],[3.90604,43.74298]]},"properties":{"slope_pct":0.0,"start_km":12.167,"end_km":13.058,"ele_start":126.8,"ele_end":126.9,"class":"plat","label":"Plat (−2 à 2 %)","color":"#94a3b8"}},{"type":"Feature","geometry":{"type":"LineString","coordinates":[[3.90604,43.74298],[3.90616,43.74311],[3.90618,43.74318],[3.90644,43.74298],[3.90642,43.74308],[3.9065,43.74313],[3.90656,43.74329],[3.9065,43.74349],[3.90649,43.74351],[3.90645,43.74397],[3.9065,43.74415],[3.90649,43.74442],[3.90668,43.74582],[3.9067,43.74602],[3.90672,43.74627],[3.90671,43.74669],[3.90667,43.74711],[3.90668,43.74728],[3.90677,43.74759],[3.90678,43.7477],[3.90681,43.74815]]},"properties":{"slope_pct":0.2,"start_km":13.058,"end_km":13.696,"ele_start":126.9,"ele_end":127.9,"class":"plat","label":"Plat (−2 à 2 %)","color":"#94a3b8"}},{"type":"Feature","geometry":{"type":"LineString","coordinates":[[3.90681,43.74815],[3.90685,43.74857],[3.90685,43.74863],[3.90683,43.74882],[3.90672,43.74885],[3.90704,43.75218],[3.90705,43.75234],[3.9071,43.75273],[3.90716,43.75346],[3.90719,43.75372],[3.9072,43.75388],[3.90735,43.75538],[3.90748,43.75673]]},"properties":{"slope_pct":-0.1,"start_km":13.696,"end_km":14.658,"ele_start":127.9,"ele_end":127.1,"class":"plat","label":"Plat (−2 à 2 %)","color":"#94a3b8"}},{"type":"Feature","geometry":{"type":"LineString","coordinates":[[3.90748,43.75673],[3.90769,43.75885],[3.90786,43.76072],[3.90792,43.76138],[3.90807,43.76296],[3.90819,43.76419],[3.90827,43.76506],[3.90831,43.76562]]},"properties":{"slope_pct":-1.1,"start_km":14.658,"end_km":15.65,"ele_start":127.1,"ele_end":116.6,"class":"plat","label":"Plat (−2 à 2 %)","color":"#94a3b8"}},{"type":"Feature","geometry":{"type":"LineString","coordinates":[[3.90831,43.76562],[3.90836,43.76618],[3.90839,43.76638],[3.90841,43.7666],[3.90846,43.76713],[3.90848,43.76729],[3.90874,43.76994],[3.90894,43.77095],[3.90889,43.77192],[3.90884,43.77251],[3.9088,43.77268],[3.90862,43.77306],[3.90854,43.77326],[3.90848,43.77348],[3.90846,43.77353],[3.9084,43.77367],[3.90804,43.77414]]},"properties":{"slope_pct":-0.6,"start_km":15.65,"end_km":16.611,"ele_start":116.6,"ele_end":111.2,"class":"plat","label":"Plat (−2 à 2 %)","color":"#94a3b8"}},{"type":"Feature","geometry":{"type":"LineString","coordinates":[[3.90804,43.77414],[3.90795,43.77426],[3.90744,43.77483],[3.90738,43.77494],[3.90732,43.77518],[3.9073,43.77537],[3.90737,43.7758],[3.90741,43.776],[3.90746,43.77621],[3.90749,43.77633],[3.90775,43.77754],[3.90784,43.77782],[3.90828,43.77874],[3.9083,43.77884],[3.90832,43.7793],[3.90834,43.77946],[3.90832,43.77954],[3.90878,43.77964]]},"properties":{"slope_pct":-0.7,"start_km":16.611,"end_km":17.277,"ele_start":111.2,"ele_end":106.5,"class":"plat","label":"Plat (−2 à 2 %)","color":"#94a3b8"}},{"type":"Feature","geometry":{"type":"LineString","coordinates":[[3.90878,43.77964],[3.90933,43.77979],[3.90933,43.77982],[3.90921,43.78001],[3.90982,43.78364],[3.9098,43.78375],[3.90918,43.78564],[3.90914,43.78576],[3.90901,43.78615],[3.90897,43.78641],[3.90899,43.78658],[3.90907,43.78678],[3.90932,43.78713],[3.9094,43.78724],[3.90956,43.78747]]},"properties":{"slope_pct":-0.6,"start_km":17.277,"end_km":18.201,"ele_start":106.5,"ele_end":101.2,"class":"plat","label":"Plat (−2 à 2 %)","color":"#94a3b8"}},{"type":"Feature","geometry":{"type":"LineString","coordinates":[[3.90956,43.78747],[3.90963,43.78764],[3.90966,43.7878],[3.90967,43.78788],[3.90976,43.78847],[3.90983,43.78894],[3.91003,43.79035],[3.91007,43.79084],[3.91018,43.79117],[3.91038,43.79152],[3.91126,43.79241],[3.91204,43.79319],[3.91266,43.79368],[3.91268,43.7937],[3.91274,43.79376],[3.91283,43.79385],[3.91304,43.79408]]},"properties":{"slope_pct":0.8,"start_km":18.201,"end_km":19.014,"ele_start":101.2,"ele_end":107.9,"class":"plat","label":"Plat (−2 à 2 %)","color":"#94a3b8"}},{"type":"Feature","geometry":{"type":"LineString","coordinates":[[3.91304,43.79408],[3.91324,43.79434],[3.91348,43.79465],[3.91351,43.7947],[3.91438,43.79599],[3.91456,43.79624],[3.91483,43.79659],[3.91531,43.79708],[3.91573,43.79745],[3.91625,43.79806],[3.91682,43.79867],[3.91705,43.79885],[3.91788,43.79942],[3.91806,43.79955],[3.91859,43.79982],[3.9196,43.80076]]},"properties":{"slope_pct":0.1,"start_km":19.014,"end_km":19.933,"ele_start":107.9,"ele_end":109.0,"class":"plat","label":"Plat (−2 à 2 %)","color":"#94a3b8"}},{"type":"Feature","geometry":{"type":"LineString","coordinates":[[3.9196,43.80076],[3.92052,43.80149]]},"properties":{"slope_pct":1.5,"start_km":19.933,"end_km":20.044,"ele_start":109.0,"ele_end":110.6,"class":"plat","label":"Plat (−2 à 2 %)","color":"#94a3b8"}},{"type":"Feature","geometry":{"type":"LineString","coordinates":[[3.92052,43.80149],[3.92063,43.80158],[3.92081,43.80173],[3.92134,43.80216],[3.92159,43.80232],[3.92323,43.80323],[3.92342,43.80336],[3.92356,43.80348],[3.92424,43.80424],[3.92448,43.80444],[3.92519,43.80479],[3.92596,43.80512]]},"properties":{"slope_pct":3.3,"start_km":20.044,"end_km":20.645,"ele_start":110.6,"ele_end":130.5,"class":"montee-faible","label":"Montée faible (2 à 4 %)","color":"#22c55e"}},{"type":"Feature","geometry":{"type":"LineString","coordinates":[[3.92596,43.80512],[3.92613,43.8053],[3.92664,43.80613],[3.92689,43.80659],[3.92711,43.80684],[3.92763,43.80728],[3.92817,43.80758],[3.92844,43.80779],[3.92996,43.80936],[3.93066,43.81001],[3.93116,43.81063],[3.93156,43.81106],[3.9319,43.81107],[3.93268,43.81106]]},"properties":{"slope_pct":-0.2,"start_km":20.645,"end_km":21.54,"ele_start":130.5,"ele_end":128.5,"class":"plat","label":"Plat (−2 à 2 %)","color":"#94a3b8"}},{"type":"Feature","geometry":{"type":"LineString","coordinates":[[3.93268,43.81106],[3.93297,43.81106],[3.93307,43.81116],[3.93317,43.81122],[3.93399,43.81151],[3.93436,43.81162],[3.93513,43.81185],[3.93532,43.81192],[3.93581,43.81238],[3.93588,43.8124],[3.93641,43.81237],[3.93663,43.8124],[3.93699,43.81252],[3.93718,43.81263],[3.93757,43.81278],[3.93773,43.81287],[3.93806,43.81305],[3.93847,43.81332],[3.93855,43.81333],[3.93865,43.81344],[3.939,43.81367],[3.93925,43.81386],[3.93936,43.81402],[3.93945,43.81406],[3.9396,43.81414],[3.93969,43.81432],[3.93967,43.81446],[3.93992,43.81472],[3.94053,43.81522]]},"properties":{"slope_pct":0.3,"start_km":21.54,"end_km":22.367,"ele_start":128.5,"ele_end":130.7,"class":"plat","label":"Plat (−2 à 2 %)","color":"#94a3b8"}},{"type":"Feature","geometry":{"type":"LineString","coordinates":[[3.94053,43.81522],[3.94068,43.81529],[3.94202,43.81642],[3.94265,43.81699],[3.94268,43.81706],[3.94258,43.81728],[3.94253,43.81746],[3.94254,43.81757],[3.94263,43.81779],[3.94308,43.81786],[3.94333,43.81793],[3.94357,43.81794],[3.94369,43.81788],[3.94396,43.81769],[3.94401,43.81769],[3.94446,43.81809],[3.94472,43.81841],[3.94503,43.81855],[3.9454,43.8188],[3.94579,43.81903],[3.94625,43.81935],[3.94633,43.81944],[3.94651,43.81966],[3.94699,43.82008],[3.94714,43.82039]]},"properties":{"slope_pct":-0.5,"start_km":22.367,"end_km":23.242,"ele_start":130.7,"ele_end":126.6,"class":"plat","label":"Plat (−2 à 2 %)","color":"#94a3b8"}},{"type":"Feature","geometry":{"type":"LineString","coordinates":[[3.94714,43.82039],[3.94743,43.82079],[3.94803,43.8218],[3.94819,43.82227],[3.94831,43.82239],[3.94828,43.82258],[3.94836,43.82259],[3.94852,43.82262]]},"properties":{"slope_pct":-0.7,"start_km":23.242,"end_km":23.527,"ele_start":126.6,"ele_end":124.5,"class":"plat","label":"Plat (−2 à 2 %)","color":"#94a3b8"}},{"type":"Feature","geometry":{"type":"LineString","coordinates":[[3.94852,43.82262],[3.94861,43.82269],[3.9488,43.82312],[3.94895,43.82336],[3.94918,43.82364],[3.9501,43.82457],[3.9504,43.82495],[3.9508,43.82568],[3.95101,43.82598],[3.95135,43.82637],[3.95136,43.82638],[3.95286,43.82816]]},"properties":{"slope_pct":-2.8,"start_km":23.527,"end_km":24.237,"ele_start":124.5,"ele_end":104.6,"class":"descente","label":"Descente (−6 à −2 %)","color":"#60a5fa"}},{"type":"Feature","geometry":{"type":"LineString","coordinates":[[3.95286,43.82816],[3.95349,43.82885],[3.95386,43.82933],[3.95475,43.83075],[3.9549,43.83121],[3.95502,43.83145],[3.9551,43.8321],[3.95504,43.83256],[3.95512,43.83288],[3.95513,43.83317],[3.95517,43.83329],[3.95535,43.83353],[3.95567,43.83384],[3.9559,43.83401],[3.95616,43.83423],[3.95637,43.83434],[3.9564,43.83458],[3.95647,43.83466],[3.95657,43.83474],[3.95678,43.83482],[3.95713,43.83481],[3.95725,43.83478],[3.95734,43.8349],[3.95755,43.83505],[3.95791,43.83521]]},"properties":{"slope_pct":-0.9,"start_km":24.237,"end_km":25.182,"ele_start":104.6,"ele_end":96.0,"class":"plat","label":"Plat (−2 à 2 %)","color":"#94a3b8"}},{"type":"Feature","geometry":{"type":"LineString","coordinates":[[3.95791,43.83521],[3.95807,43.83526],[3.95836,43.83534],[3.95856,43.83545],[3.95891,43.83576],[3.95921,43.83628],[3.95933,43.83656],[3.95937,43.83695],[3.95934,43.837],[3.95911,43.83739],[3.95905,43.83745],[3.95876,43.83766],[3.95831,43.83804],[3.95787,43.83838],[3.95661,43.83975],[3.95588,43.84062],[3.95579,43.84071],[3.95559,43.84081],[3.9554,43.8409],[3.95528,43.84093],[3.95499,43.84098],[3.95449,43.8411],[3.95417,43.84143],[3.95413,43.84162],[3.95402,43.84175],[3.95354,43.84201]]},"properties":{"slope_pct":0.0,"start_km":25.182,"end_km":26.18,"ele_start":96.0,"ele_end":96.2,"class":"plat","label":"Plat (−2 à 2 %)","color":"#94a3b8"}},{"type":"Feature","geometry":{"type":"LineString","coordinates":[[3.95354,43.84201],[3.95304,43.84237],[3.95217,43.84265],[3.95197,43.84275],[3.95182,43.84284],[3.95163,43.843],[3.95135,43.84347],[3.95123,43.8436],[3.95094,43.8438],[3.95086,43.84386],[3.94964,43.84363],[3.94949,43.84358],[3.9493,43.84345],[3.94918,43.84345],[3.94834,43.84377]]},"properties":{"slope_pct":0.0,"start_km":26.18,"end_km":26.708,"ele_start":96.2,"ele_end":96.2,"class":"plat","label":"Plat (−2 à 2 %)","color":"#94a3b8"}},{"type":"Feature","geometry":{"type":"LineString","coordinates":[[3.94834,43.84377],[3.94746,43.84399],[3.94672,43.84431],[3.94672,43.84438],[3.94662,43.84443],[3.94643,43.84451],[3.94636,43.84458],[3.9464,43.8448],[3.94635,43.84524],[3.94528,43.84541],[3.9451,43.84549],[3.94499,43.84567],[3.94495,43.84579],[3.9449,43.84629],[3.94485,43.84648]]},"properties":{"slope_pct":2.6,"start_km":26.708,"end_km":27.188,"ele_start":96.2,"ele_end":108.9,"class":"montee-faible","label":"Montée faible (2 à 4 %)","color":"#22c55e"}},{"type":"Feature","geometry":{"type":"LineString","coordinates":[[3.94485,43.84648],[3.94448,43.84696],[3.94429,43.84743],[3.94429,43.84744],[3.9443,43.8475],[3.9443,43.84764],[3.94436,43.84796],[3.94461,43.84916],[3.94456,43.84947],[3.9444,43.84988],[3.94447,43.85018],[3.94448,43.85065],[3.94448,43.85072],[3.94457,43.85196],[3.94456,43.85217],[3.94456,43.85266],[3.94462,43.85336],[3.94455,43.85364],[3.94454,43.85371],[3.9443,43.85427],[3.94383,43.85514]]},"properties":{"slope_pct":0.0,"start_km":27.188,"end_km":28.176,"ele_start":108.9,"ele_end":109.0,"class":"plat","label":"Plat (−2 à 2 %)","color":"#94a3b8"}},{"type":"Feature","geometry":{"type":"LineString","coordinates":[[3.94383,43.85514],[3.94358,43.85542],[3.94344,43.85563],[3.94318,43.85657],[3.94311,43.85709],[3.94298,43.85724],[3.94295,43.85726],[3.94287,43.85734],[3.94285,43.8576],[3.94274,43.858],[3.94246,43.85874],[3.94226,43.85898],[3.94225,43.85913],[3.94231,43.85947],[3.94233,43.85981],[3.94239,43.86019],[3.94244,43.86032],[3.94296,43.86024],[3.94363,43.85994],[3.94382,43.86],[3.94383,43.86004],[3.94369,43.86042],[3.94365,43.86062],[3.9437,43.86073],[3.94388,43.86081],[3.94397,43.86093],[3.94414,43.86132]]},"properties":{"slope_pct":-0.1,"start_km":28.176,"end_km":29.061,"ele_start":109.0,"ele_end":107.9,"class":"plat","label":"Plat (−2 à 2 %)","color":"#94a3b8"}},{"type":"Feature","geometry":{"type":"LineString","coordinates":[[3.94414,43.86132],[3.94435,43.86164],[3.94529,43.86277],[3.94643,43.86366],[3.94741,43.86447],[3.94766,43.86468],[3.94803,43.86509],[3.94869,43.86573],[3.94909,43.86634],[3.94923,43.86666],[3.9493,43.86675],[3.948,43.86751]]},"properties":{"slope_pct":1.0,"start_km":29.061,"end_km":29.934,"ele_start":107.9,"ele_end":116.9,"class":"plat","label":"Plat (−2 à 2 %)","color":"#94a3b8"}},{"type":"Feature","geometry":{"type":"LineString","coordinates":[[3.948,43.86751],[3.9476,43.86778],[3.94721,43.86812],[3.94614,43.86904]]},"properties":{"slope_pct":1.8,"start_km":29.934,"end_km":30.161,"ele_start":116.9,"ele_end":121.1,"class":"plat","label":"Plat (−2 à 2 %)","color":"#94a3b8"}},{"type":"Feature","geometry":{"type":"LineString","coordinates":[[3.94614,43.86904],[3.94514,43.86985],[3.94444,43.87045],[3.94356,43.8712],[3.94346,43.87129],[3.94308,43.87161],[3.94304,43.87168],[3.94304,43.8717],[3.943,43.87179],[3.9429,43.87183],[3.94285,43.87184],[3.94267,43.87193],[3.94258,43.87201],[3.9425,43.87216],[3.94224,43.87231],[3.94207,43.87236],[3.94184,43.87237],[3.94169,43.87237],[3.94044,43.87202]]},"properties":{"slope_pct":2.9,"start_km":30.161,"end_km":30.798,"ele_start":121.1,"ele_end":139.5,"class":"montee-faible","label":"Montée faible (2 à 4 %)","color":"#22c55e"}},{"type":"Feature","geometry":{"type":"LineString","coordinates":[[3.94044,43.87202],[3.94017,43.87236],[3.93975,43.87233],[3.93953,43.87229],[3.93934,43.87228],[3.93913,43.87225],[3.93901,43.87219],[3.93886,43.87203],[3.93868,43.87193],[3.93874,43.87182],[3.93865,43.87174],[3.93878,43.8716],[3.93842,43.87129],[3.93823,43.87109],[3.9379,43.87085],[3.93777,43.87076],[3.93753,43.87056],[3.93714,43.87041],[3.93671,43.87033],[3.93654,43.87024],[3.93625,43.86998],[3.93601,43.8696],[3.93583,43.8692],[3.93536,43.86873],[3.93519,43.8685],[3.93502,43.86834],[3.93459,43.86803],[3.93438,43.86792],[3.93383,43.86753],[3.93356,43.86736],[3.93282,43.86683]]},"properties":{"slope_pct":-0.5,"start_km":30.798,"end_km":31.752,"ele_start":139.5,"ele_end":134.3,"class":"plat","label":"Plat (−2 à 2 %)","color":"#94a3b8"}},{"type":"Feature","geometry":{"type":"LineString","coordinates":[[3.93282,43.86683],[3.93277,43.86663],[3.93275,43.8663],[3.93287,43.86603],[3.93278,43.86539]]},"properties":{"slope_pct":0.6,"start_km":31.752,"end_km":31.914,"ele_start":134.3,"ele_end":135.2,"class":"plat","label":"Plat (−2 à 2 %)","color":"#94a3b8"}},{"type":"Feature","geometry":{"type":"LineString","coordinates":[[3.93278,43.86539],[3.93249,43.86482],[3.93261,43.86454]]},"properties":{"slope_pct":2.6,"start_km":31.914,"end_km":32.015,"ele_start":135.2,"ele_end":137.8,"class":"montee-faible","label":"Montée faible (2 à 4 %)","color":"#22c55e"}},{"type":"Feature","geometry":{"type":"LineString","coordinates":[[3.93261,43.86454],[3.93248,43.86427],[3.93245,43.86396],[3.93249,43.8638],[3.93259,43.86375],[3.93296,43.86376]]},"properties":{"slope_pct":0.8,"start_km":32.015,"end_km":32.138,"ele_start":137.8,"ele_end":138.8,"class":"plat","label":"Plat (−2 à 2 %)","color":"#94a3b8"}},{"type":"Feature","geometry":{"type":"LineString","coordinates":[[3.93296,43.86376],[3.93321,43.86371],[3.93353,43.86365],[3.93387,43.86364],[3.9346,43.86366],[3.93513,43.8637],[3.93561,43.8631],[3.93569,43.86295],[3.93594,43.86279],[3.93598,43.86256],[3.93586,43.86237],[3.93583,43.86223]]},"properties":{"slope_pct":-3.2,"start_km":32.138,"end_km":32.499,"ele_start":138.8,"ele_end":127.2,"class":"descente","label":"Descente (−6 à −2 %)","color":"#60a5fa"}},{"type":"Feature","geometry":{"type":"LineString","coordinates":[[3.93583,43.86223],[3.93578,43.86221],[3.93552,43.86233],[3.93537,43.86206],[3.93511,43.86185],[3.93447,43.86125]]},"properties":{"slope_pct":0.2,"start_km":32.499,"end_km":32.677,"ele_start":127.2,"ele_end":127.6,"class":"plat","label":"Plat (−2 à 2 %)","color":"#94a3b8"}},{"type":"Feature","geometry":{"type":"LineString","coordinates":[[3.93447,43.86125],[3.9341,43.86105],[3.933,43.86048]]},"properties":{"slope_pct":3.2,"start_km":32.677,"end_km":32.822,"ele_start":127.6,"ele_end":132.2,"class":"montee-faible","label":"Montée faible (2 à 4 %)","color":"#22c55e"}},{"type":"Feature","geometry":{"type":"LineString","coordinates":[[3.933,43.86048],[3.93283,43.86054],[3.93275,43.86066],[3.93257,43.86084],[3.93141,43.86137]]},"properties":{"slope_pct":6.7,"start_km":32.822,"end_km":32.986,"ele_start":132.2,"ele_end":143.2,"class":"montee-moderee","label":"Montée modérée (4 à 7 %)","color":"#eab308"}},{"type":"Feature","geometry":{"type":"LineString","coordinates":[[3.93141,43.86137],[3.93109,43.86163],[3.93097,43.86186],[3.93098,43.86201],[3.93124,43.86232],[3.93125,43.86236],[3.9312,43.86244],[3.93081,43.86248],[3.93057,43.8624],[3.93026,43.86219],[3.93007,43.86213],[3.92986,43.86212],[3.92945,43.86225],[3.92896,43.8625]]},"properties":{"slope_pct":9.3,"start_km":32.986,"end_km":33.328,"ele_start":143.2,"ele_end":174.9,"class":"montee-soutenue","label":"Montée soutenue (7 à 10 %)","color":"#f97316"}},{"type":"Feature","geometry":{"type":"LineString","coordinates":[[3.92896,43.8625],[3.9286,43.86265],[3.92853,43.86264],[3.92848,43.86263],[3.92839,43.86251],[3.92834,43.86238],[3.9283,43.86191],[3.92824,43.86177],[3.92811,43.86165],[3.92794,43.86158],[3.92774,43.86154],[3.92731,43.86152],[3.92652,43.86149],[3.92632,43.86154],[3.92588,43.86171],[3.92526,43.86181],[3.92495,43.86187],[3.92408,43.86243],[3.92358,43.86286],[3.92313,43.86318],[3.92248,43.8635],[3.92231,43.86361],[3.92201,43.86386],[3.92172,43.86418],[3.92141,43.86445],[3.92096,43.86495]]},"properties":{"slope_pct":5.3,"start_km":33.328,"end_km":34.222,"ele_start":174.9,"ele_end":221.9,"class":"montee-moderee","label":"Montée modérée (4 à 7 %)","color":"#eab308"}},{"type":"Feature","geometry":{"type":"LineString","coordinates":[[3.92096,43.86495],[3.92071,43.86513],[3.9204,43.86532],[3.92021,43.86554],[3.9198,43.86609],[3.91946,43.86641],[3.91936,43.86655],[3.91892,43.86732]]},"properties":{"slope_pct":1.5,"start_km":34.222,"end_km":34.536,"ele_start":221.9,"ele_end":226.6,"class":"plat","label":"Plat (−2 à 2 %)","color":"#94a3b8"}},{"type":"Feature","geometry":{"type":"LineString","coordinates":[[3.91892,43.86732],[3.91879,43.86756],[3.91859,43.86779],[3.91826,43.86841],[3.91805,43.86872],[3.91801,43.869],[3.91797,43.8698]]},"properties":{"slope_pct":5.2,"start_km":34.536,"end_km":34.827,"ele_start":226.6,"ele_end":241.8,"class":"montee-moderee","label":"Montée modérée (4 à 7 %)","color":"#eab308"}},{"type":"Feature","geometry":{"type":"LineString","coordinates":[[3.91797,43.8698],[3.91797,43.87029],[3.91757,43.87024],[3.91697,43.87017]]},"properties":{"slope_pct":1.8,"start_km":34.827,"end_km":34.964,"ele_start":241.8,"ele_end":244.3,"class":"plat","label":"Plat (−2 à 2 %)","color":"#94a3b8"}},{"type":"Feature","geometry":{"type":"LineString","coordinates":[[3.91697,43.87017],[3.91685,43.87012],[3.91669,43.87001],[3.91548,43.86826],[3.91469,43.86706]]},"properties":{"slope_pct":-4.3,"start_km":34.964,"end_km":35.358,"ele_start":244.3,"ele_end":227.4,"class":"descente","label":"Descente (−6 à −2 %)","color":"#60a5fa"}},{"type":"Feature","geometry":{"type":"LineString","coordinates":[[3.91469,43.86706],[3.91458,43.86694],[3.91447,43.86688],[3.91435,43.86644],[3.91445,43.86633],[3.91453,43.8662],[3.91409,43.86576],[3.91387,43.86565],[3.91255,43.86538]]},"properties":{"slope_pct":-7.0,"start_km":35.358,"end_km":35.658,"ele_start":227.4,"ele_end":206.3,"class":"descente-forte","label":"Descente forte (< −6 %)","color":"#1d4ed8"}},{"type":"Feature","geometry":{"type":"LineString","coordinates":[[3.91255,43.86538],[3.91246,43.86532],[3.91206,43.8656],[3.91194,43.86571],[3.9119,43.86584],[3.91187,43.86636]]},"properties":{"slope_pct":-4.0,"start_km":35.658,"end_km":35.8,"ele_start":206.3,"ele_end":200.7,"class":"descente","label":"Descente (−6 à −2 %)","color":"#60a5fa"}},{"type":"Feature","geometry":{"type":"LineString","coordinates":[[3.91187,43.86636],[3.91181,43.86646],[3.91168,43.86658],[3.91141,43.86703],[3.91134,43.86757],[3.91134,43.86774],[3.91142,43.86802],[3.91138,43.86809],[3.91127,43.8681],[3.9112,43.86807],[3.91111,43.86798],[3.91093,43.8676],[3.91076,43.86742],[3.9106,43.86727],[3.91048,43.8672],[3.91029,43.86718],[3.91012,43.86723],[3.90972,43.86758]]},"properties":{"slope_pct":-0.0,"start_km":35.8,"end_km":36.214,"ele_start":200.7,"ele_end":200.6,"class":"plat","label":"Plat (−2 à 2 %)","color":"#94a3b8"}},{"type":"Feature","geometry":{"type":"LineString","coordinates":[[3.90972,43.86758],[3.90929,43.86812],[3.90895,43.86819],[3.90869,43.86843],[3.90853,43.86875],[3.90834,43.86888],[3.90824,43.86899],[3.90819,43.86922],[3.90814,43.86923],[3.90811,43.86922],[3.90801,43.86913],[3.90793,43.86893],[3.90795,43.86879],[3.90803,43.86868],[3.90806,43.86855],[3.90804,43.86803],[3.90801,43.86791],[3.90788,43.86784],[3.90766,43.86776],[3.9074,43.86778],[3.90709,43.86789],[3.90696,43.86797]]},"properties":{"slope_pct":2.8,"start_km":36.214,"end_km":36.698,"ele_start":200.6,"ele_end":214.1,"class":"montee-faible","label":"Montée faible (2 à 4 %)","color":"#22c55e"}},{"type":"Feature","geometry":{"type":"LineString","coordinates":[[3.90696,43.86797],[3.90686,43.86842],[3.90685,43.86864],[3.90705,43.86877],[3.9071,43.86904],[3.90702,43.86946],[3.907,43.87003],[3.90683,43.87049],[3.9068,43.87067],[3.90706,43.87133],[3.90726,43.87157],[3.90706,43.87159],[3.90682,43.87159],[3.90628,43.87153]]},"properties":{"slope_pct":8.3,"start_km":36.698,"end_km":37.195,"ele_start":214.1,"ele_end":255.2,"class":"montee-soutenue","label":"Montée soutenue (7 à 10 %)","color":"#f97316"}},{"type":"Feature","geometry":{"type":"LineString","coordinates":[[3.90628,43.87153],[3.9058,43.87163],[3.90557,43.87165],[3.90532,43.87163],[3.90495,43.87159],[3.90481,43.87163],[3.90478,43.87169],[3.9048,43.87183],[3.90479,43.872],[3.90462,43.87231],[3.90459,43.87248],[3.90457,43.87268],[3.90468,43.87295],[3.90462,43.87331],[3.9046,43.87387]]},"properties":{"slope_pct":5.4,"start_km":37.195,"end_km":37.571,"ele_start":255.2,"ele_end":275.4,"class":"montee-moderee","label":"Montée modérée (4 à 7 %)","color":"#eab308"}},{"type":"Feature","geometry":{"type":"LineString","coordinates":[[3.9046,43.87387],[3.90454,43.87401],[3.90435,43.8742],[3.90383,43.87458]]},"properties":{"slope_pct":1.6,"start_km":37.571,"end_km":37.672,"ele_start":275.4,"ele_end":277.0,"class":"plat","label":"Plat (−2 à 2 %)","color":"#94a3b8"}},{"type":"Feature","geometry":{"type":"LineString","coordinates":[[3.90383,43.87458],[3.90373,43.87468],[3.90365,43.8747],[3.90357,43.87465],[3.90352,43.87456],[3.90342,43.87389],[3.90333,43.87365],[3.90317,43.87341],[3.90291,43.87316],[3.90226,43.87266]]},"properties":{"slope_pct":-3.4,"start_km":37.672,"end_km":37.954,"ele_start":277.0,"ele_end":267.4,"class":"descente","label":"Descente (−6 à −2 %)","color":"#60a5fa"}},{"type":"Feature","geometry":{"type":"LineString","coordinates":[[3.90226,43.87266],[3.90205,43.87267],[3.90116,43.87278],[3.90101,43.87284]]},"properties":{"slope_pct":2.3,"start_km":37.954,"end_km":38.057,"ele_start":267.4,"ele_end":269.8,"class":"montee-faible","label":"Montée faible (2 à 4 %)","color":"#22c55e"}},{"type":"Feature","geometry":{"type":"LineString","coordinates":[[3.90101,43.87284],[3.90087,43.87293],[3.9005,43.87307],[3.90046,43.87315],[3.90043,43.8732],[3.90016,43.87367]]},"properties":{"slope_pct":5.9,"start_km":38.057,"end_km":38.178,"ele_start":269.8,"ele_end":277.0,"class":"montee-moderee","label":"Montée modérée (4 à 7 %)","color":"#eab308"}},{"type":"Feature","geometry":{"type":"LineString","coordinates":[[3.90016,43.87367],[3.90014,43.87376],[3.89997,43.87395],[3.89965,43.87396],[3.8994,43.87403],[3.89927,43.87413],[3.89899,43.87423],[3.89855,43.87434],[3.89831,43.87444],[3.89803,43.87444],[3.89687,43.8747]]},"properties":{"slope_pct":7.4,"start_km":38.178,"end_km":38.481,"ele_start":277.0,"ele_end":299.3,"class":"montee-soutenue","label":"Montée soutenue (7 à 10 %)","color":"#f97316"}},{"type":"Feature","geometry":{"type":"LineString","coordinates":[[3.89687,43.8747],[3.89606,43.87478],[3.89569,43.87481],[3.89521,43.87477],[3.89464,43.87481],[3.89353,43.87494],[3.89285,43.87509],[3.89213,43.87531],[3.8917,43.87552],[3.89135,43.87574],[3.8906,43.87612],[3.89019,43.87625],[3.88941,43.87628],[3.8888,43.87624],[3.88728,43.87599]]},"properties":{"slope_pct":5.4,"start_km":38.481,"end_km":39.295,"ele_start":299.3,"ele_end":343.5,"class":"montee-moderee","label":"Montée modérée (4 à 7 %)","color":"#eab308"}},{"type":"Feature","geometry":{"type":"LineString","coordinates":[[3.88728,43.87599],[3.88689,43.87591],[3.88655,43.87581],[3.88612,43.87562],[3.88601,43.87564],[3.88585,43.87626],[3.88584,43.87648]]},"properties":{"slope_pct":8.3,"start_km":39.295,"end_km":39.501,"ele_start":343.5,"ele_end":360.7,"class":"montee-soutenue","label":"Montée soutenue (7 à 10 %)","color":"#f97316"}},{"type":"Feature","geometry":{"type":"LineString","coordinates":[[3.88584,43.87648],[3.88589,43.87689],[3.886,43.87705],[3.88603,43.87718],[3.88595,43.87744]]},"properties":{"slope_pct":5.2,"start_km":39.501,"end_km":39.611,"ele_start":360.7,"ele_end":366.4,"class":"montee-moderee","label":"Montée modérée (4 à 7 %)","color":"#eab308"}},{"type":"Feature","geometry":{"type":"LineString","coordinates":[[3.88595,43.87744],[3.886,43.87764],[3.88594,43.87767],[3.88586,43.87769],[3.88551,43.87768],[3.88536,43.87764],[3.88467,43.87728]]},"properties":{"slope_pct":1.3,"start_km":39.611,"end_km":39.755,"ele_start":366.4,"ele_end":368.2,"class":"plat","label":"Plat (−2 à 2 %)","color":"#94a3b8"}},{"type":"Feature","geometry":{"type":"LineString","coordinates":[[3.88467,43.87728],[3.88374,43.87726],[3.88352,43.87723],[3.88324,43.87716]]},"properties":{"slope_pct":-2.3,"start_km":39.755,"end_km":39.871,"ele_start":368.2,"ele_end":365.6,"class":"descente","label":"Descente (−6 à −2 %)","color":"#60a5fa"}},{"type":"Feature","geometry":{"type":"LineString","coordinates":[[3.88324,43.87716],[3.88265,43.87686],[3.88244,43.87678],[3.88224,43.87677],[3.88209,43.87678],[3.88185,43.87686],[3.88131,43.87712],[3.88117,43.87713],[3.88092,43.87703],[3.88078,43.87703],[3.88048,43.8771],[3.88024,43.87728],[3.88009,43.87735],[3.87978,43.87743],[3.87893,43.87762],[3.87874,43.8777],[3.87842,43.87789]]},"properties":{"slope_pct":0.0,"start_km":39.871,"end_km":40.31,"ele_start":365.6,"ele_end":365.7,"class":"plat","label":"Plat (−2 à 2 %)","color":"#94a3b8"}},{"type":"Feature","geometry":{"type":"LineString","coordinates":[[3.87842,43.87789],[3.87827,43.87793],[3.87752,43.8781],[3.87736,43.87811],[3.87726,43.87817],[3.87708,43.87819],[3.87686,43.87816],[3.87665,43.87806],[3.87629,43.87804],[3.87593,43.87798],[3.8758,43.87797],[3.87549,43.87807],[3.87515,43.87787],[3.87487,43.87739],[3.87479,43.87722],[3.87451,43.87676],[3.87443,43.87669],[3.87429,43.87667],[3.87392,43.87677],[3.87335,43.87683],[3.87315,43.87684],[3.87299,43.87687],[3.87282,43.87694],[3.87267,43.87705],[3.87254,43.87719],[3.87239,43.8773],[3.87211,43.8774],[3.8712,43.87723],[3.87108,43.87718],[3.87101,43.87711],[3.87109,43.87686],[3.87109,43.87667],[3.871,43.87658],[3.87084,43.87655],[3.87059,43.87626],[3.87044,43.87613],[3.86998,43.87583],[3.86994,43.87575],[3.86995,43.87553]]},"properties":{"slope_pct":-3.0,"start_km":40.31,"end_km":41.262,"ele_start":365.7,"ele_end":337.0,"class":"descente","label":"Descente (−6 à −2 %)","color":"#60a5fa"}},{"type":"Feature","geometry":{"type":"LineString","coordinates":[[3.86995,43.87553],[3.86988,43.87541],[3.86978,43.87532],[3.86963,43.87526],[3.86942,43.87525],[3.86866,43.87536],[3.86774,43.87589],[3.86743,43.87625]]},"properties":{"slope_pct":-3.0,"start_km":41.262,"end_km":41.523,"ele_start":337.0,"ele_end":329.3,"class":"descente","label":"Descente (−6 à −2 %)","color":"#60a5fa"}},{"type":"Feature","geometry":{"type":"LineString","coordinates":[[3.86743,43.87625],[3.86726,43.87637],[3.8668,43.87662],[3.86647,43.87675],[3.86612,43.87684],[3.86583,43.87685],[3.86543,43.87682],[3.86514,43.87683],[3.86468,43.87681],[3.86424,43.87674],[3.86385,43.8768],[3.86328,43.87672],[3.86269,43.87679],[3.86239,43.87678],[3.86174,43.87666]]},"properties":{"slope_pct":-0.5,"start_km":41.523,"end_km":42.005,"ele_start":329.3,"ele_end":326.7,"class":"plat","label":"Plat (−2 à 2 %)","color":"#94a3b8"}},{"type":"Feature","geometry":{"type":"LineString","coordinates":[[3.86174,43.87666],[3.86162,43.87656],[3.86176,43.8764],[3.86181,43.87634],[3.86275,43.87523],[3.86334,43.87325]]},"properties":{"slope_pct":-4.1,"start_km":42.005,"end_km":42.418,"ele_start":326.7,"ele_end":309.6,"class":"descente","label":"Descente (−6 à −2 %)","color":"#60a5fa"}},{"type":"Feature","geometry":{"type":"LineString","coordinates":[[3.86334,43.87325],[3.8634,43.87308],[3.86376,43.87251],[3.86378,43.87242],[3.86367,43.87223],[3.86321,43.8718],[3.86316,43.87165],[3.86318,43.87157],[3.86322,43.87143],[3.86331,43.87127],[3.8637,43.87098],[3.86372,43.8709],[3.86366,43.87082],[3.86359,43.87078],[3.86095,43.86992]]},"properties":{"slope_pct":-7.1,"start_km":42.418,"end_km":42.965,"ele_start":309.6,"ele_end":271.0,"class":"descente-forte","label":"Descente forte (< −6 %)","color":"#1d4ed8"}},{"type":"Feature","geometry":{"type":"LineString","coordinates":[[3.86095,43.86992],[3.86091,43.86987],[3.86092,43.86982],[3.86095,43.86979],[3.86104,43.86977],[3.86109,43.86978],[3.86143,43.86994],[3.86317,43.87017],[3.86361,43.8702],[3.8639,43.87025],[3.86431,43.87039],[3.86457,43.87055],[3.8647,43.8707],[3.86476,43.87085],[3.86478,43.87109],[3.86463,43.87142],[3.86461,43.87153],[3.8647,43.87163],[3.86482,43.87168],[3.86542,43.87168],[3.86569,43.87179]]},"properties":{"slope_pct":-3.5,"start_km":42.965,"end_km":43.502,"ele_start":271.0,"ele_end":252.3,"class":"descente","label":"Descente (−6 à −2 %)","color":"#60a5fa"}},{"type":"Feature","geometry":{"type":"LineString","coordinates":[[3.86569,43.87179],[3.8663,43.87217],[3.86648,43.87225],[3.86659,43.87226],[3.8667,43.87222],[3.86698,43.87193],[3.86774,43.87083],[3.86796,43.87068],[3.86827,43.87055],[3.86832,43.87053],[3.86892,43.87031]]},"properties":{"slope_pct":-7.0,"start_km":43.502,"end_km":43.89,"ele_start":252.3,"ele_end":225.1,"class":"descente-forte","label":"Descente forte (< −6 %)","color":"#1d4ed8"}},{"type":"Feature","geometry":{"type":"LineString","coordinates":[[3.86892,43.87031],[3.86916,43.87024],[3.86944,43.87023],[3.86964,43.87028],[3.87,43.87045],[3.87026,43.87053],[3.87064,43.87056],[3.87135,43.87046],[3.87218,43.8703],[3.8723,43.87025],[3.87239,43.87022],[3.87306,43.8698],[3.87325,43.86974],[3.87371,43.8697],[3.87458,43.86962],[3.87493,43.86963],[3.87632,43.86964],[3.87649,43.86964],[3.87665,43.86965],[3.87691,43.86971],[3.87701,43.86976],[3.87721,43.86987],[3.87756,43.86993],[3.87917,43.86973],[3.87933,43.86971],[3.88018,43.86962],[3.88033,43.8696],[3.8806,43.86958]]},"properties":{"slope_pct":-4.0,"start_km":43.89,"end_km":44.873,"ele_start":225.1,"ele_end":185.9,"class":"descente","label":"Descente (−6 à −2 %)","color":"#60a5fa"}},{"type":"Feature","geometry":{"type":"LineString","coordinates":[[3.8806,43.86958],[3.88077,43.86955],[3.88069,43.86932],[3.88072,43.86924],[3.88117,43.86911],[3.88124,43.86906],[3.88128,43.86902],[3.8813,43.86883],[3.88134,43.86875],[3.88183,43.86863],[3.88196,43.86864],[3.88189,43.86855],[3.8821,43.86747],[3.88211,43.86718],[3.88208,43.86694],[3.88194,43.86666],[3.88173,43.86649]]},"properties":{"slope_pct":-2.6,"start_km":44.873,"end_km":45.308,"ele_start":185.9,"ele_end":174.4,"class":"descente","label":"Descente (−6 à −2 %)","color":"#60a5fa"}},{"type":"Feature","geometry":{"type":"LineString","coordinates":[[3.88173,43.86649],[3.88142,43.86638],[3.881,43.86629],[3.88028,43.86563],[3.88016,43.86556],[3.8797,43.86541],[3.87956,43.86526],[3.87941,43.865],[3.87922,43.86481],[3.87862,43.8643],[3.87844,43.86408],[3.87818,43.86362],[3.87809,43.86334],[3.87798,43.86269],[3.87783,43.86207],[3.87785,43.86176],[3.87773,43.86139],[3.87871,43.86107],[3.87922,43.86114],[3.87932,43.86107],[3.88042,43.86123]]},"properties":{"slope_pct":-0.0,"start_km":45.308,"end_km":46.233,"ele_start":174.4,"ele_end":174.0,"class":"plat","label":"Plat (−2 à 2 %)","color":"#94a3b8"}},{"type":"Feature","geometry":{"type":"LineString","coordinates":[[3.88042,43.86123],[3.88055,43.86121],[3.88085,43.86091],[3.88191,43.86033],[3.88209,43.86021],[3.88212,43.8601],[3.88208,43.85995],[3.88201,43.85987],[3.88146,43.85942],[3.8814,43.85928],[3.88142,43.85924],[3.8823,43.85853],[3.88243,43.85848],[3.88262,43.85846],[3.88394,43.85819],[3.88414,43.85806],[3.88482,43.85797],[3.88511,43.85789],[3.88533,43.85791],[3.88658,43.85809],[3.88707,43.85794],[3.88726,43.85756],[3.88759,43.85725]]},"properties":{"slope_pct":-1.1,"start_km":46.233,"end_km":47.136,"ele_start":174.0,"ele_end":164.3,"class":"plat","label":"Plat (−2 à 2 %)","color":"#94a3b8"}},{"type":"Feature","geometry":{"type":"LineString","coordinates":[[3.88759,43.85725],[3.88776,43.85704],[3.88812,43.85671],[3.88831,43.85655],[3.88891,43.85635],[3.889,43.85641],[3.88914,43.8566],[3.88924,43.85668],[3.88946,43.85676],[3.88988,43.8568],[3.89063,43.85695],[3.89109,43.85704],[3.89118,43.85705],[3.8913,43.85701],[3.89232,43.8565],[3.89198,43.8561],[3.89194,43.85599],[3.89196,43.85525],[3.89214,43.85483],[3.89224,43.8543],[3.89229,43.85404],[3.89228,43.85366],[3.89216,43.85301]]},"properties":{"slope_pct":-0.8,"start_km":47.136,"end_km":48.004,"ele_start":164.3,"ele_end":157.5,"class":"plat","label":"Plat (−2 à 2 %)","color":"#94a3b8"}},{"type":"Feature","geometry":{"type":"LineString","coordinates":[[3.89216,43.85301],[3.89208,43.85233],[3.8917,43.8513],[3.89167,43.85124],[3.89111,43.8499],[3.891,43.84977],[3.89094,43.84972],[3.891,43.84965],[3.89132,43.84946],[3.89145,43.84938],[3.89166,43.84931],[3.89257,43.84912]]},"properties":{"slope_pct":0.0,"start_km":48.004,"end_km":48.535,"ele_start":157.5,"ele_end":157.7,"class":"plat","label":"Plat (−2 à 2 %)","color":"#94a3b8"}},{"type":"Feature","geometry":{"type":"LineString","coordinates":[[3.89257,43.84912],[3.89299,43.84909],[3.89308,43.84907],[3.89321,43.84897],[3.89266,43.84849]]},"properties":{"slope_pct":4.5,"start_km":48.535,"end_km":48.661,"ele_start":157.7,"ele_end":163.4,"class":"montee-moderee","label":"Montée modérée (4 à 7 %)","color":"#eab308"}},{"type":"Feature","geometry":{"type":"LineString","coordinates":[[3.89266,43.84849],[3.89199,43.84803],[3.89171,43.84768]]},"properties":{"slope_pct":9.0,"start_km":48.661,"end_km":48.78,"ele_start":163.4,"ele_end":174.0,"class":"montee-soutenue","label":"Montée soutenue (7 à 10 %)","color":"#f97316"}},{"type":"Feature","geometry":{"type":"LineString","coordinates":[[3.89171,43.84768],[3.89153,43.84735],[3.89126,43.84716],[3.89055,43.84699]]},"properties":{"slope_pct":10.9,"start_km":48.78,"end_km":48.91,"ele_start":174.0,"ele_end":188.3,"class":"montee-forte","label":"Montée forte (≥ 10 %)","color":"#dc2626"}},{"type":"Feature","geometry":{"type":"LineString","coordinates":[[3.89055,43.84699],[3.89039,43.84697],[3.89015,43.84699],[3.88964,43.84699],[3.88925,43.84704]]},"properties":{"slope_pct":8.3,"start_km":48.91,"end_km":49.015,"ele_start":188.3,"ele_end":197.0,"class":"montee-soutenue","label":"Montée soutenue (7 à 10 %)","color":"#f97316"}},{"type":"Feature","geometry":{"type":"LineString","coordinates":[[3.88925,43.84704],[3.88898,43.84702],[3.8887,43.8471],[3.88809,43.8471],[3.8879,43.84708]]},"properties":{"slope_pct":5.9,"start_km":49.015,"end_km":49.125,"ele_start":197.0,"ele_end":203.5,"class":"montee-moderee","label":"Montée modérée (4 à 7 %)","color":"#eab308"}},{"type":"Feature","geometry":{"type":"LineString","coordinates":[[3.8879,43.84708],[3.88774,43.84702],[3.88763,43.847],[3.88738,43.84702],[3.88715,43.847],[3.88677,43.84703],[3.88651,43.84697]]},"properties":{"slope_pct":2.9,"start_km":49.125,"end_km":49.239,"ele_start":203.5,"ele_end":206.8,"class":"montee-faible","label":"Montée faible (2 à 4 %)","color":"#22c55e"}},{"type":"Feature","geometry":{"type":"LineString","coordinates":[[3.88651,43.84697],[3.88625,43.84695],[3.88571,43.84695],[3.88442,43.8469],[3.88414,43.84686],[3.88392,43.8468],[3.8834,43.84652],[3.88313,43.84642]]},"properties":{"slope_pct":1.3,"start_km":49.239,"end_km":49.526,"ele_start":206.8,"ele_end":210.4,"class":"plat","label":"Plat (−2 à 2 %)","color":"#94a3b8"}},{"type":"Feature","geometry":{"type":"LineString","coordinates":[[3.88313,43.84642],[3.88296,43.84638],[3.88252,43.84634],[3.88208,43.84618],[3.88187,43.84605],[3.88211,43.84611],[3.88258,43.84619],[3.883,43.84619],[3.88497,43.84605]]},"properties":{"slope_pct":3.4,"start_km":49.526,"end_km":49.889,"ele_start":210.4,"ele_end":222.8,"class":"montee-faible","label":"Montée faible (2 à 4 %)","color":"#22c55e"}},{"type":"Feature","geometry":{"type":"LineString","coordinates":[[3.88497,43.84605],[3.88557,43.84598],[3.88628,43.8458],[3.88668,43.8456],[3.8874,43.84498],[3.88781,43.84477],[3.88838,43.84456],[3.88884,43.84418]]},"properties":{"slope_pct":5.0,"start_km":49.889,"end_km":50.275,"ele_start":222.8,"ele_end":242.3,"class":"montee-moderee","label":"Montée modérée (4 à 7 %)","color":"#eab308"}},{"type":"Feature","geometry":{"type":"LineString","coordinates":[[3.88884,43.84418],[3.89054,43.84318],[3.89147,43.84267],[3.89204,43.84242],[3.89278,43.84203],[3.89337,43.84168]]},"properties":{"slope_pct":3.3,"start_km":50.275,"end_km":50.732,"ele_start":242.3,"ele_end":257.3,"class":"montee-faible","label":"Montée faible (2 à 4 %)","color":"#22c55e"}},{"type":"Feature","geometry":{"type":"LineString","coordinates":[[3.89337,43.84168],[3.89383,43.84138],[3.89497,43.84052],[3.89525,43.84023],[3.89559,43.84004],[3.89534,43.83984]]},"properties":{"slope_pct":0.5,"start_km":50.732,"end_km":51.019,"ele_start":257.3,"ele_end":258.8,"class":"plat","label":"Plat (−2 à 2 %)","color":"#94a3b8"}},{"type":"Feature","geometry":{"type":"LineString","coordinates":[[3.89534,43.83984],[3.89462,43.83954],[3.89411,43.83945],[3.89368,43.83945],[3.89352,43.83948],[3.89338,43.83958],[3.89315,43.83984],[3.8931,43.83995]]},"properties":{"slope_pct":-4.0,"start_km":51.019,"end_km":51.238,"ele_start":258.8,"ele_end":250.0,"class":"descente","label":"Descente (−6 à −2 %)","color":"#60a5fa"}},{"type":"Feature","geometry":{"type":"LineString","coordinates":[[3.8931,43.83995],[3.89224,43.84005],[3.89159,43.84017],[3.8914,43.84021],[3.89098,43.84038],[3.89085,43.84038],[3.89042,43.84009],[3.8903,43.83998],[3.89023,43.83986],[3.8902,43.83969],[3.89024,43.83949],[3.89035,43.83937],[3.89082,43.83906],[3.89159,43.83835],[3.89201,43.83807],[3.89194,43.83798],[3.8918,43.83795],[3.89094,43.83821],[3.89057,43.83838],[3.8886,43.83888]]},"properties":{"slope_pct":-8.0,"start_km":51.238,"end_km":52.059,"ele_start":250.0,"ele_end":184.7,"class":"descente-forte","label":"Descente forte (< −6 %)","color":"#1d4ed8"}},{"type":"Feature","geometry":{"type":"LineString","coordinates":[[3.8886,43.83888],[3.8883,43.83888],[3.88805,43.83884],[3.88791,43.83878],[3.88789,43.83867],[3.88844,43.83774]]},"properties":{"slope_pct":-7.2,"start_km":52.059,"end_km":52.242,"ele_start":184.7,"ele_end":171.5,"class":"descente-forte","label":"Descente forte (< −6 %)","color":"#1d4ed8"}},{"type":"Feature","geometry":{"type":"LineString","coordinates":[[3.88844,43.83774],[3.88848,43.83755],[3.88847,43.83745],[3.88838,43.83724],[3.8884,43.83715],[3.8881,43.83699],[3.88705,43.83655],[3.88641,43.83635],[3.88633,43.83632],[3.88625,43.83626],[3.88619,43.83612],[3.88622,43.83601]]},"properties":{"slope_pct":-5.2,"start_km":52.242,"end_km":52.538,"ele_start":171.5,"ele_end":156.0,"class":"descente","label":"Descente (−6 à −2 %)","color":"#60a5fa"}},{"type":"Feature","geometry":{"type":"LineString","coordinates":[[3.88622,43.83601],[3.8863,43.8359],[3.88682,43.83541],[3.8868,43.83534],[3.88677,43.83518],[3.88672,43.83501],[3.88666,43.83486],[3.88657,43.83476],[3.88641,43.83467],[3.8854,43.83421],[3.88535,43.83419],[3.8852,43.83413],[3.88511,43.83416],[3.88506,43.83414],[3.88504,43.83411],[3.88506,43.83407],[3.8851,43.83404],[3.88516,43.83405],[3.88537,43.83332],[3.88539,43.83322],[3.8855,43.83285],[3.88564,43.83208],[3.88572,43.83131],[3.88528,43.83109],[3.88473,43.83087],[3.88455,43.83077],[3.88411,43.83042],[3.88366,43.83018],[3.88357,43.83011],[3.88346,43.82998],[3.88316,43.8294]]},"properties":{"slope_pct":-0.7,"start_km":52.538,"end_km":53.47,"ele_start":156.0,"ele_end":149.7,"class":"plat","label":"Plat (−2 à 2 %)","color":"#94a3b8"}},{"type":"Feature","geometry":{"type":"LineString","coordinates":[[3.88316,43.8294],[3.88305,43.82926],[3.88209,43.82849],[3.88197,43.82837],[3.88144,43.82756],[3.88132,43.8274],[3.88111,43.82721],[3.88091,43.82705],[3.88076,43.82689],[3.88064,43.82662],[3.88053,43.82572],[3.8805,43.82557],[3.8805,43.82486],[3.88055,43.82404],[3.88064,43.8233],[3.88071,43.823],[3.88095,43.82211]]},"properties":{"slope_pct":0.9,"start_km":53.47,"end_km":54.348,"ele_start":149.7,"ele_end":157.5,"class":"plat","label":"Plat (−2 à 2 %)","color":"#94a3b8"}},{"type":"Feature","geometry":{"type":"LineString","coordinates":[[3.88095,43.82211],[3.88099,43.8209],[3.88104,43.8207],[3.88165,43.81933],[3.88155,43.81869],[3.88135,43.81775],[3.88133,43.817],[3.88023,43.81723],[3.88006,43.81726],[3.87999,43.81724],[3.87986,43.81726],[3.87859,43.81735]]},"properties":{"slope_pct":-0.1,"start_km":54.348,"end_km":55.151,"ele_start":157.5,"ele_end":156.7,"class":"plat","label":"Plat (−2 à 2 %)","color":"#94a3b8"}},{"type":"Feature","geometry":{"type":"LineString","coordinates":[[3.87859,43.81735],[3.8783,43.81733],[3.87819,43.81726],[3.87819,43.81705],[3.87807,43.81682],[3.8781,43.81655]]},"properties":{"slope_pct":2.3,"start_km":55.151,"end_km":55.267,"ele_start":156.7,"ele_end":159.3,"class":"montee-faible","label":"Montée faible (2 à 4 %)","color":"#22c55e"}},{"type":"Feature","geometry":{"type":"LineString","coordinates":[[3.8781,43.81655],[3.87806,43.81644],[3.878,43.81642],[3.87766,43.81661],[3.87682,43.81722],[3.87669,43.81733],[3.87551,43.81698],[3.87425,43.81691],[3.87368,43.81682],[3.87318,43.81671],[3.8716,43.81655],[3.87139,43.81638],[3.87102,43.81605],[3.8707,43.81585],[3.87026,43.81569],[3.86954,43.81552],[3.86901,43.81534],[3.86834,43.81518]]},"properties":{"slope_pct":1.1,"start_km":55.267,"end_km":56.162,"ele_start":159.3,"ele_end":169.2,"class":"plat","label":"Plat (−2 à 2 %)","color":"#94a3b8"}},{"type":"Feature","geometry":{"type":"LineString","coordinates":[[3.86834,43.81518],[3.8678,43.81496],[3.86776,43.8149],[3.86777,43.81485],[3.86795,43.81425]]},"properties":{"slope_pct":0.7,"start_km":56.162,"end_km":56.294,"ele_start":169.2,"ele_end":170.2,"class":"plat","label":"Plat (−2 à 2 %)","color":"#94a3b8"}},{"type":"Feature","geometry":{"type":"LineString","coordinates":[[3.86795,43.81425],[3.86796,43.81419],[3.868,43.81411],[3.86815,43.81376],[3.86852,43.81309],[3.86876,43.81276],[3.86888,43.81251],[3.86897,43.81218],[3.86907,43.81202],[3.86936,43.81175],[3.86956,43.81103],[3.8697,43.81067],[3.86973,43.8102],[3.86971,43.80977]]},"properties":{"slope_pct":-2.5,"start_km":56.294,"end_km":56.82,"ele_start":170.2,"ele_end":156.8,"class":"descente","label":"Descente (−6 à −2 %)","color":"#60a5fa"}},{"type":"Feature","geometry":{"type":"LineString","coordinates":[[3.86971,43.80977],[3.8698,43.80929],[3.87006,43.80852],[3.87007,43.80836],[3.87011,43.80812],[3.87018,43.80795],[3.8705,43.80731],[3.87079,43.80685],[3.87082,43.80668],[3.8714,43.80575],[3.87174,43.80522],[3.87204,43.80472],[3.87232,43.80435],[3.87252,43.80407],[3.87251,43.80401],[3.87255,43.80395],[3.87261,43.80374],[3.87229,43.80284],[3.87206,43.80226],[3.87182,43.80157]]},"properties":{"slope_pct":-0.8,"start_km":56.82,"end_km":57.785,"ele_start":156.8,"ele_end":149.5,"class":"plat","label":"Plat (−2 à 2 %)","color":"#94a3b8"}},{"type":"Feature","geometry":{"type":"LineString","coordinates":[[3.87182,43.80157],[3.87167,43.80098],[3.87168,43.80065],[3.87177,43.80056],[3.87171,43.80048],[3.87182,43.79999],[3.87207,43.79883],[3.87207,43.79878],[3.87209,43.79842],[3.87253,43.7978],[3.87288,43.79721],[3.87301,43.79698],[3.87308,43.79676],[3.87295,43.79675],[3.87292,43.79616],[3.87306,43.79516],[3.87318,43.79471],[3.8732,43.79428],[3.8731,43.79408],[3.87269,43.7937],[3.87258,43.79355],[3.87243,43.79311]]},"properties":{"slope_pct":0.0,"start_km":57.785,"end_km":58.777,"ele_start":149.5,"ele_end":149.6,"class":"plat","label":"Plat (−2 à 2 %)","color":"#94a3b8"}},{"type":"Feature","geometry":{"type":"LineString","coordinates":[[3.87243,43.79311],[3.87243,43.79294],[3.87239,43.79273],[3.8724,43.79262],[3.87262,43.79212],[3.87287,43.7914],[3.87297,43.79097],[3.87296,43.78963],[3.87302,43.78884],[3.87294,43.78881],[3.87289,43.78878]]},"properties":{"slope_pct":-3.3,"start_km":58.777,"end_km":59.27,"ele_start":149.6,"ele_end":133.1,"class":"descente","label":"Descente (−6 à −2 %)","color":"#60a5fa"}},{"type":"Feature","geometry":{"type":"LineString","coordinates":[[3.87289,43.78878],[3.87277,43.78866],[3.87251,43.78818],[3.8723,43.78776],[3.8722,43.7876],[3.8718,43.78727],[3.87161,43.78707],[3.87111,43.78665]]},"properties":{"slope_pct":-1.4,"start_km":59.27,"end_km":59.551,"ele_start":133.1,"ele_end":129.3,"class":"plat","label":"Plat (−2 à 2 %)","color":"#94a3b8"}},{"type":"Feature","geometry":{"type":"LineString","coordinates":[[3.87111,43.78665],[3.87085,43.7863],[3.87074,43.78603],[3.87075,43.78581],[3.87052,43.78498],[3.87017,43.78426],[3.86993,43.78362]]},"properties":{"slope_pct":-2.4,"start_km":59.551,"end_km":59.903,"ele_start":129.3,"ele_end":121.0,"class":"descente","label":"Descente (−6 à −2 %)","color":"#60a5fa"}},{"type":"Feature","geometry":{"type":"LineString","coordinates":[[3.86993,43.78362],[3.86987,43.78328],[3.86968,43.78293],[3.86971,43.78283],[3.86976,43.78278],[3.86984,43.78272],[3.86992,43.78256],[3.86994,43.78238],[3.86991,43.78178],[3.86991,43.78077],[3.86989,43.78072],[3.8698,43.78066],[3.86808,43.78088],[3.86786,43.78087],[3.86761,43.78082],[3.86691,43.78057],[3.86613,43.78007],[3.86579,43.7795],[3.86523,43.77889],[3.86513,43.77878],[3.86496,43.77863],[3.86444,43.77805],[3.86413,43.77774]]},"properties":{"slope_pct":-1.6,"start_km":59.903,"end_km":60.875,"ele_start":121.0,"ele_end":105.4,"class":"plat","label":"Plat (−2 à 2 %)","color":"#94a3b8"}},{"type":"Feature","geometry":{"type":"LineString","coordinates":[[3.86413,43.77774],[3.86302,43.77681],[3.86279,43.77658],[3.86264,43.77636],[3.86268,43.77635],[3.86214,43.77498],[3.86161,43.77403],[3.86161,43.77395],[3.86164,43.77374],[3.86175,43.77348],[3.86177,43.77336],[3.86174,43.77327],[3.86161,43.77311],[3.86156,43.77306],[3.86132,43.77277],[3.8612,43.77257],[3.86111,43.77228],[3.86088,43.77168],[3.86086,43.77165],[3.86055,43.77085]]},"properties":{"slope_pct":0.2,"start_km":60.875,"end_km":61.72,"ele_start":105.4,"ele_end":107.1,"class":"plat","label":"Plat (−2 à 2 %)","color":"#94a3b8"}},{"type":"Feature","geometry":{"type":"LineString","coordinates":[[3.86055,43.77085],[3.86047,43.77077],[3.86022,43.77024],[3.86006,43.76931]]},"properties":{"slope_pct":-1.2,"start_km":61.72,"end_km":61.898,"ele_start":107.1,"ele_end":105.0,"class":"plat","label":"Plat (−2 à 2 %)","color":"#94a3b8"}},{"type":"Feature","geometry":{"type":"LineString","coordinates":[[3.86006,43.76931],[3.85999,43.76911],[3.85978,43.76842],[3.85943,43.76781],[3.85938,43.76764],[3.85934,43.7676],[3.85811,43.76649]]},"properties":{"slope_pct":-2.5,"start_km":61.898,"end_km":62.256,"ele_start":105.0,"ele_end":96.2,"class":"descente","label":"Descente (−6 à −2 %)","color":"#60a5fa"}},{"type":"Feature","geometry":{"type":"LineString","coordinates":[[3.85811,43.76649],[3.85799,43.76642],[3.85806,43.76624],[3.85821,43.76603],[3.85696,43.76454],[3.85554,43.76306],[3.85412,43.76146],[3.854,43.76132],[3.85366,43.76111],[3.8531,43.7608],[3.85284,43.7606],[3.8526,43.7603],[3.85208,43.75954]]},"properties":{"slope_pct":-0.3,"start_km":62.256,"end_km":63.194,"ele_start":96.2,"ele_end":93.2,"class":"plat","label":"Plat (−2 à 2 %)","color":"#94a3b8"}},{"type":"Feature","geometry":{"type":"LineString","coordinates":[[3.85208,43.75954],[3.8516,43.75882],[3.85106,43.75803],[3.85086,43.75772],[3.8506,43.75736],[3.85048,43.75726],[3.85019,43.7571]]},"properties":{"slope_pct":2.3,"start_km":63.194,"end_km":63.509,"ele_start":93.2,"ele_end":100.2,"class":"montee-faible","label":"Montée faible (2 à 4 %)","color":"#22c55e"}},{"type":"Feature","geometry":{"type":"LineString","coordinates":[[3.85019,43.7571],[3.84884,43.75646],[3.84766,43.75599],[3.84614,43.75544],[3.84603,43.75539],[3.84591,43.75532],[3.84564,43.75507],[3.84453,43.75386],[3.84395,43.7533],[3.84418,43.75317],[3.84435,43.75304],[3.84419,43.75263],[3.84437,43.75234],[3.84435,43.75221],[3.84411,43.75166],[3.84407,43.75153],[3.84419,43.75132]]},"properties":{"slope_pct":-1.1,"start_km":63.509,"end_km":64.424,"ele_start":100.2,"ele_end":90.5,"class":"plat","label":"Plat (−2 à 2 %)","color":"#94a3b8"}},{"type":"Feature","geometry":{"type":"LineString","coordinates":[[3.84419,43.75132],[3.84421,43.75113],[3.84418,43.75091],[3.84402,43.75049],[3.84403,43.75023],[3.84397,43.75009],[3.84389,43.74999],[3.84361,43.74896],[3.84358,43.74862],[3.84365,43.74774],[3.84361,43.74767],[3.84348,43.74763],[3.84332,43.74766],[3.84361,43.74742],[3.84374,43.74728],[3.84375,43.74718],[3.84378,43.74697],[3.84383,43.74686],[3.84444,43.74507],[3.84475,43.74466],[3.84494,43.74447],[3.84504,43.74439],[3.84596,43.74399]]},"properties":{"slope_pct":-0.5,"start_km":64.424,"end_km":65.344,"ele_start":90.5,"ele_end":86.2,"class":"plat","label":"Plat (−2 à 2 %)","color":"#94a3b8"}},{"type":"Feature","geometry":{"type":"LineString","coordinates":[[3.84596,43.74399],[3.84616,43.74386],[3.8465,43.74349],[3.84669,43.74334],[3.8471,43.74312],[3.84738,43.74301],[3.84755,43.74289],[3.84778,43.74268],[3.84805,43.74249],[3.84809,43.74243],[3.84809,43.74233],[3.84804,43.74226],[3.84758,43.74191],[3.8475,43.74154],[3.84727,43.74104],[3.84727,43.74096],[3.84734,43.74083],[3.84656,43.7406],[3.84757,43.73844],[3.84789,43.73747]]},"properties":{"slope_pct":-0.4,"start_km":65.344,"end_km":66.222,"ele_start":86.2,"ele_end":82.6,"class":"plat","label":"Plat (−2 à 2 %)","color":"#94a3b8"}},{"type":"Feature","geometry":{"type":"LineString","coordinates":[[3.84789,43.73747],[3.84802,43.73722],[3.84823,43.73712],[3.84845,43.73708],[3.84816,43.73662],[3.84807,43.73647],[3.84794,43.73625],[3.84714,43.73498],[3.84694,43.73451],[3.84697,43.73437],[3.8471,43.73421],[3.84748,43.73379],[3.84773,43.7336],[3.84795,43.73344],[3.8482,43.73331],[3.84886,43.7331],[3.84919,43.73291],[3.84969,43.73274],[3.84996,43.7326],[3.85007,43.73259],[3.85019,43.73261],[3.8506,43.73292],[3.85073,43.73296],[3.85139,43.73293]]},"properties":{"slope_pct":-0.7,"start_km":66.222,"end_km":67.066,"ele_start":82.6,"ele_end":77.0,"class":"plat","label":"Plat (−2 à 2 %)","color":"#94a3b8"}},{"type":"Feature","geometry":{"type":"LineString","coordinates":[[3.85139,43.73293],[3.8515,43.7328],[3.85151,43.73275],[3.85145,43.73239],[3.85148,43.73221],[3.85155,43.73206]]},"properties":{"slope_pct":2.1,"start_km":67.066,"end_km":67.167,"ele_start":77.0,"ele_end":79.1,"class":"montee-faible","label":"Montée faible (2 à 4 %)","color":"#22c55e"}},{"type":"Feature","geometry":{"type":"LineString","coordinates":[[3.85155,43.73206],[3.85175,43.73183],[3.85196,43.73179],[3.85258,43.73183],[3.85311,43.73171],[3.85322,43.73164],[3.8533,43.73154],[3.85329,43.73145],[3.85307,43.73112],[3.85304,43.73091],[3.85307,43.73065],[3.85362,43.72928]]},"properties":{"slope_pct":4.5,"start_km":67.167,"end_km":67.596,"ele_start":79.1,"ele_end":98.5,"class":"montee-moderee","label":"Montée modérée (4 à 7 %)","color":"#eab308"}},{"type":"Feature","geometry":{"type":"LineString","coordinates":[[3.85362,43.72928],[3.85372,43.72864],[3.85407,43.72822]]},"properties":{"slope_pct":3.5,"start_km":67.596,"end_km":67.722,"ele_start":98.5,"ele_end":103.0,"class":"montee-faible","label":"Montée faible (2 à 4 %)","color":"#22c55e"}},{"type":"Feature","geometry":{"type":"LineString","coordinates":[[3.85407,43.72822],[3.85412,43.72807],[3.85387,43.72803],[3.85284,43.72769],[3.85269,43.72759],[3.85263,43.72747],[3.85265,43.72734],[3.85278,43.72686],[3.85295,43.72637],[3.8529,43.72623],[3.85309,43.72574],[3.85316,43.72569],[3.85372,43.7255]]},"properties":{"slope_pct":0.7,"start_km":67.722,"end_km":68.137,"ele_start":103.0,"ele_end":106.1,"class":"plat","label":"Plat (−2 à 2 %)","color":"#94a3b8"}},{"type":"Feature","geometry":{"type":"LineString","coordinates":[[3.85372,43.7255],[3.85423,43.72524],[3.85569,43.72429],[3.85616,43.72401],[3.85637,43.72383],[3.8568,43.72335],[3.85713,43.72284],[3.8572,43.72263],[3.85716,43.72244],[3.85716,43.7223],[3.85726,43.7221],[3.85745,43.72192],[3.85783,43.72158],[3.85805,43.72133],[3.85836,43.71982]]},"properties":{"slope_pct":-3.3,"start_km":68.137,"end_km":68.908,"ele_start":106.1,"ele_end":80.9,"class":"descente","label":"Descente (−6 à −2 %)","color":"#60a5fa"}},{"type":"Feature","geometry":{"type":"LineString","coordinates":[[3.85836,43.71982],[3.85838,43.71968],[3.85836,43.71959],[3.85865,43.71892],[3.85888,43.71853],[3.85922,43.71797],[3.85958,43.71732],[3.85958,43.71728],[3.85957,43.71718],[3.85986,43.71682],[3.8599,43.71678],[3.86023,43.71647],[3.86038,43.71627],[3.86046,43.71591],[3.8605,43.71575],[3.8606,43.71535],[3.86071,43.71485],[3.86078,43.71457],[3.86082,43.71443],[3.86083,43.71439],[3.86109,43.71355],[3.86112,43.71352],[3.86116,43.71326],[3.86144,43.71209]]},"properties":{"slope_pct":-0.7,"start_km":68.908,"end_km":69.814,"ele_start":80.9,"ele_end":74.3,"class":"plat","label":"Plat (−2 à 2 %)","color":"#94a3b8"}},{"type":"Feature","geometry":{"type":"LineString","coordinates":[[3.86144,43.71209],[3.86146,43.7118],[3.86155,43.71056],[3.86146,43.70955],[3.86138,43.70884],[3.86126,43.70842],[3.86111,43.70786],[3.86107,43.70723],[3.86104,43.7068],[3.86099,43.70645],[3.86076,43.70585],[3.86069,43.70577],[3.86019,43.7053],[3.85968,43.70487],[3.85885,43.70414]]},"properties":{"slope_pct":-1.3,"start_km":69.814,"end_km":70.758,"ele_start":74.3,"ele_end":62.0,"class":"plat","label":"Plat (−2 à 2 %)","color":"#94a3b8"}},{"type":"Feature","geometry":{"type":"LineString","coordinates":[[3.85885,43.70414],[3.85881,43.70412],[3.85736,43.70374],[3.85726,43.70371],[3.85721,43.70369],[3.85712,43.70364],[3.85704,43.70354],[3.85702,43.70349],[3.85699,43.70342],[3.85667,43.70261],[3.85631,43.7017],[3.8563,43.70166],[3.85628,43.70161],[3.85643,43.70157],[3.85679,43.70157],[3.85698,43.70154],[3.85749,43.70146],[3.85904,43.7012],[3.86095,43.70088],[3.86221,43.70066]]},"properties":{"slope_pct":0.0,"start_km":70.758,"end_km":71.633,"ele_start":62.0,"ele_end":62.3,"class":"plat","label":"Plat (−2 à 2 %)","color":"#94a3b8"}},{"type":"Feature","geometry":{"type":"LineString","coordinates":[[3.86221,43.70066],[3.86223,43.7007],[3.86234,43.70065],[3.86237,43.70062],[3.8624,43.70061],[3.86245,43.70051],[3.86248,43.7004],[3.86247,43.70031],[3.86236,43.69961],[3.86232,43.69931],[3.86235,43.69906],[3.86261,43.69857],[3.86276,43.69834],[3.86295,43.69801],[3.863,43.69781],[3.86295,43.69755],[3.86293,43.69743],[3.86291,43.69733],[3.86274,43.69635],[3.86267,43.69592],[3.86261,43.69556],[3.86253,43.69512],[3.8625,43.69467],[3.8625,43.69438],[3.8625,43.69431],[3.86249,43.69425],[3.86249,43.69411],[3.86248,43.69404],[3.86237,43.69395],[3.86232,43.69389],[3.8623,43.69377],[3.86233,43.69362],[3.86238,43.6936],[3.86245,43.69296]]},"properties":{"slope_pct":0.3,"start_km":71.633,"end_km":72.527,"ele_start":62.3,"ele_end":65.2,"class":"plat","label":"Plat (−2 à 2 %)","color":"#94a3b8"}},{"type":"Feature","geometry":{"type":"LineString","coordinates":[[3.86245,43.69296],[3.86271,43.69197],[3.86271,43.69156],[3.86271,43.69145],[3.86265,43.69045],[3.86266,43.6897],[3.86277,43.68912],[3.86297,43.68847],[3.86366,43.68667],[3.86369,43.68657],[3.86371,43.68651],[3.86379,43.68625],[3.86385,43.68576],[3.86385,43.68559],[3.86374,43.6852],[3.86352,43.68438]]},"properties":{"slope_pct":-0.8,"start_km":72.527,"end_km":73.497,"ele_start":65.2,"ele_end":57.4,"class":"plat","label":"Plat (−2 à 2 %)","color":"#94a3b8"}},{"type":"Feature","geometry":{"type":"LineString","coordinates":[[3.86352,43.68438],[3.86345,43.68423],[3.8635,43.68422],[3.86358,43.68422],[3.86363,43.68422],[3.86358,43.68387],[3.86367,43.68369],[3.86368,43.68358],[3.86429,43.68308],[3.86453,43.68274],[3.86528,43.68194],[3.86551,43.68106],[3.86561,43.68081],[3.86592,43.68028],[3.86666,43.67897],[3.86727,43.67778],[3.86731,43.67764],[3.86731,43.67738],[3.8673,43.67728],[3.86738,43.67715],[3.86742,43.67712],[3.86748,43.6771],[3.86758,43.67705],[3.86764,43.67702],[3.86765,43.67692]]},"properties":{"slope_pct":-0.3,"start_km":73.497,"end_km":74.425,"ele_start":57.4,"ele_end":55.0,"class":"plat","label":"Plat (−2 à 2 %)","color":"#94a3b8"}},{"type":"Feature","geometry":{"type":"LineString","coordinates":[[3.86765,43.67692],[3.8678,43.67685],[3.8678,43.6768],[3.86781,43.67667],[3.86781,43.67663],[3.86767,43.67654],[3.86761,43.67645],[3.86762,43.6764],[3.86759,43.67637],[3.86751,43.67632],[3.86735,43.6763],[3.86727,43.67626],[3.8672,43.67608],[3.86717,43.67586],[3.86718,43.67564],[3.86726,43.67541],[3.86729,43.67538],[3.86736,43.67521],[3.86776,43.67437],[3.86769,43.67356],[3.86763,43.67356],[3.86756,43.67357],[3.86748,43.67355],[3.8674,43.6735],[3.86737,43.67339],[3.86737,43.67336],[3.86743,43.67329],[3.86751,43.67325],[3.86773,43.67211],[3.86829,43.66975],[3.86836,43.66918],[3.86831,43.66879]]},"properties":{"slope_pct":-0.4,"start_km":74.425,"end_km":75.398,"ele_start":55.0,"ele_end":51.5,"class":"plat","label":"Plat (−2 à 2 %)","color":"#94a3b8"}},{"type":"Feature","geometry":{"type":"LineString","coordinates":[[3.86831,43.66879],[3.86824,43.6686],[3.86806,43.66826],[3.86781,43.66795],[3.86748,43.66764],[3.86679,43.66711],[3.86652,43.66686],[3.8663,43.66658],[3.86612,43.66639],[3.86602,43.66621],[3.86594,43.66586],[3.86592,43.6656],[3.86596,43.66504],[3.86604,43.6647],[3.86601,43.66454],[3.86585,43.66428],[3.86577,43.66378],[3.86569,43.66349],[3.8653,43.66281],[3.86519,43.66254],[3.86519,43.66238],[3.86574,43.66082]]},"properties":{"slope_pct":-0.7,"start_km":75.398,"end_km":76.362,"ele_start":51.5,"ele_end":45.2,"class":"plat","label":"Plat (−2 à 2 %)","color":"#94a3b8"}},{"type":"Feature","geometry":{"type":"LineString","coordinates":[[3.86574,43.66082],[3.86602,43.66049],[3.86626,43.66036],[3.86641,43.6603],[3.86653,43.66021],[3.86678,43.65989],[3.8677,43.65912],[3.86878,43.65821],[3.87008,43.6568],[3.87085,43.65597],[3.87116,43.65575],[3.87152,43.65552],[3.87204,43.65525]]},"properties":{"slope_pct":-0.0,"start_km":76.362,"end_km":77.169,"ele_start":45.2,"ele_end":45.0,"class":"plat","label":"Plat (−2 à 2 %)","color":"#94a3b8"}},{"type":"Feature","geometry":{"type":"LineString","coordinates":[[3.87204,43.65525],[3.87206,43.65523],[3.8723,43.65514],[3.87241,43.6551],[3.87251,43.65512],[3.87261,43.65512],[3.8732,43.65496]]},"properties":{"slope_pct":2.0,"start_km":77.169,"end_km":77.27,"ele_start":45.0,"ele_end":47.0,"class":"montee-faible","label":"Montée faible (2 à 4 %)","color":"#22c55e"}},{"type":"Feature","geometry":{"type":"LineString","coordinates":[[3.8732,43.65496],[3.87359,43.65481],[3.87362,43.65487],[3.87366,43.65491],[3.87382,43.655],[3.87392,43.65501],[3.87411,43.65499],[3.87424,43.65494],[3.87448,43.65497],[3.87531,43.65499],[3.87647,43.65497],[3.87829,43.65492],[3.87867,43.65489],[3.87877,43.65494],[3.87928,43.65509],[3.8795,43.65515],[3.87983,43.65523],[3.88043,43.65539],[3.88053,43.65542],[3.88068,43.65546],[3.88087,43.65538],[3.88096,43.65533],[3.88098,43.65526],[3.88095,43.65525]]},"properties":{"slope_pct":0.3,"start_km":77.27,"end_km":77.938,"ele_start":47.0,"ele_end":49.3,"class":"plat","label":"Plat (−2 à 2 %)","color":"#94a3b8"}}]}
