{"type":"FeatureCollection","generator":"tools/slope_colors.py","format_version":1,"source_gpx":"2026-07-27_3145954460_TMP - Tour de l'etang de Thau.gpx","source_sha256":"3673d4cfe94128898daac4bd88c76225b220d36c8ec7f0777146e2c775032fa8","params_fingerprint":"9b5318af1abbe178","params":{"segment_length_m":100.0,"smoothing_window_m":150.0,"resample_step_m":10.0,"max_merged_length_m":1000.0,"classes":[{"key":"descente-forte","label":"Descente forte (< −8 %)","min":null,"max":-8.0,"color":"#1e3a8a"},{"key":"descente","label":"Descente (−8 à −4 %)","min":-8.0,"max":-4.0,"color":"#2563eb"},{"key":"descente-legere","label":"Descente légère (−4 à −2 %)","min":-4.0,"max":-2.0,"color":"#7cb4f5"},{"key":"plat","label":"Plat (−2 à 2 %)","min":-2.0,"max":2.0,"color":"#22a650"},{"key":"montee-faible","label":"Montée faible (2 à 4 %)","min":2.0,"max":4.0,"color":"#f2c418"},{"key":"montee-moderee","label":"Montée modérée (4 à 7 %)","min":4.0,"max":7.0,"color":"#f59e0b"},{"key":"montee-soutenue","label":"Montée soutenue (7 à 10 %)","min":7.0,"max":10.0,"color":"#ea580c"},{"key":"montee-forte","label":"Montée forte (≥ 10 %)","min":10.0,"max":null,"color":"#dc2626"}]},"legend":[{"key":"descente-forte","label":"Descente forte (< −8 %)","min":null,"max":-8.0,"color":"#1e3a8a"},{"key":"descente","label":"Descente (−8 à −4 %)","min":-8.0,"max":-4.0,"color":"#2563eb"},{"key":"descente-legere","label":"Descente légère (−4 à −2 %)","min":-4.0,"max":-2.0,"color":"#7cb4f5"},{"key":"plat","label":"Plat (−2 à 2 %)","min":-2.0,"max":2.0,"color":"#22a650"},{"key":"montee-faible","label":"Montée faible (2 à 4 %)","min":2.0,"max":4.0,"color":"#f2c418"},{"key":"montee-moderee","label":"Montée modérée (4 à 7 %)","min":4.0,"max":7.0,"color":"#f59e0b"},{"key":"montee-soutenue","label":"Montée soutenue (7 à 10 %)","min":7.0,"max":10.0,"color":"#ea580c"},{"key":"montee-forte","label":"Montée forte (≥ 10 %)","min":10.0,"max":null,"color":"#dc2626"}],"stats":{"distance_km":115.06,"elevation_valid_ratio":1.0,"elevation_ok":true,"smoothed_gain_m":420,"max_slope_pct":4.3,"min_slope_pct":-9.1},"features":[{"type":"Feature","geometry":{"type":"LineString","coordinates":[[3.89555,43.59979],[3.89561,43.59984],[3.8957,43.59986],[3.89568,43.59988],[3.89548,43.59985],[3.89524,43.59989],[3.8952,43.5999],[3.89512,43.59993],[3.89465,43.60015],[3.89457,43.60019],[3.89451,43.60011],[3.8942,43.59963],[3.89411,43.59951],[3.89405,43.59949],[3.89389,43.59928],[3.89387,43.59918],[3.89382,43.59911],[3.89372,43.59913],[3.89377,43.5992],[3.89381,43.59926],[3.89354,43.59932],[3.89274,43.59949]]},"properties":{"slope_pct":0.7,"start_km":0.0,"end_km":0.369,"ele_start":13.6,"ele_end":16.2,"class":"plat","label":"Plat (−2 à 2 %)","color":"#22a650"}},{"type":"Feature","geometry":{"type":"LineString","coordinates":[[3.89274,43.59949],[3.89241,43.59952],[3.89188,43.59952],[3.89111,43.59943]]},"properties":{"slope_pct":2.5,"start_km":0.369,"end_km":0.501,"ele_start":16.2,"ele_end":19.4,"class":"montee-faible","label":"Montée faible (2 à 4 %)","color":"#f2c418"}},{"type":"Feature","geometry":{"type":"LineString","coordinates":[[3.89111,43.59943],[3.89105,43.59943],[3.89048,43.59935],[3.89004,43.59909],[3.88985,43.59898]]},"properties":{"slope_pct":1.5,"start_km":0.501,"end_km":0.618,"ele_start":19.4,"ele_end":21.3,"class":"plat","label":"Plat (−2 à 2 %)","color":"#22a650"}},{"type":"Feature","geometry":{"type":"LineString","coordinates":[[3.88985,43.59898],[3.88971,43.5989],[3.88775,43.59777]]},"properties":{"slope_pct":2.3,"start_km":0.618,"end_km":0.834,"ele_start":21.3,"ele_end":26.2,"class":"montee-faible","label":"Montée faible (2 à 4 %)","color":"#f2c418"}},{"type":"Feature","geometry":{"type":"LineString","coordinates":[[3.88775,43.59777],[3.88714,43.59746],[3.88674,43.59732],[3.88649,43.59725],[3.88586,43.59711],[3.88578,43.5971],[3.88547,43.59705],[3.88471,43.597],[3.88359,43.59699],[3.88339,43.59699],[3.88062,43.59699],[3.88058,43.59699],[3.8805,43.59699],[3.88043,43.59699],[3.87812,43.59699],[3.87803,43.59708],[3.87796,43.59702],[3.87795,43.59696],[3.87794,43.5969],[3.87789,43.59687],[3.87777,43.59685],[3.87774,43.59626]]},"properties":{"slope_pct":0.4,"start_km":0.834,"end_km":1.744,"ele_start":26.2,"ele_end":29.7,"class":"plat","label":"Plat (−2 à 2 %)","color":"#22a650"}},{"type":"Feature","geometry":{"type":"LineString","coordinates":[[3.87774,43.59626],[3.87765,43.59626],[3.87764,43.59613],[3.87725,43.59625],[3.87701,43.59636],[3.87661,43.59664],[3.87658,43.59669],[3.87648,43.59679],[3.87624,43.59687],[3.87616,43.59689],[3.876,43.59686],[3.87591,43.59665],[3.87574,43.59655],[3.87558,43.59655],[3.87547,43.59657],[3.87515,43.59675],[3.87484,43.59683],[3.87459,43.59683],[3.87436,43.59678],[3.87427,43.59674],[3.87406,43.59658],[3.87371,43.59641],[3.87356,43.59639],[3.87335,43.59643],[3.87326,43.59645],[3.87312,43.59655],[3.87251,43.59697],[3.8724,43.59705],[3.8718,43.59746],[3.8713,43.59781],[3.87128,43.59783],[3.87115,43.59792],[3.87062,43.59762],[3.87028,43.59739],[3.86985,43.59706],[3.86962,43.59697],[3.86949,43.59695],[3.86922,43.59695],[3.86914,43.59699],[3.86904,43.59703],[3.86903,43.59704],[3.86897,43.59705],[3.86891,43.59703],[3.86888,43.59699],[3.8688,43.59692],[3.86875,43.59682],[3.86864,43.59669],[3.86867,43.59632]]},"properties":{"slope_pct":-0.4,"start_km":1.744,"end_km":2.741,"ele_start":29.7,"ele_end":26.0,"class":"plat","label":"Plat (−2 à 2 %)","color":"#22a650"}},{"type":"Feature","geometry":{"type":"LineString","coordinates":[[3.86867,43.59632],[3.86861,43.59619],[3.86836,43.59597],[3.86834,43.59595],[3.86829,43.59592],[3.86816,43.59591],[3.86766,43.59617],[3.86725,43.59576],[3.86701,43.59554],[3.8669,43.59562],[3.86686,43.59565],[3.86679,43.59568],[3.86653,43.59579],[3.86643,43.59582],[3.86634,43.59585],[3.86614,43.59593],[3.86608,43.59595],[3.86585,43.59603],[3.86573,43.59611],[3.86567,43.59619],[3.86558,43.59658],[3.86549,43.59668],[3.86531,43.59678],[3.86526,43.59681],[3.8646,43.59718],[3.86449,43.59724],[3.86422,43.5974],[3.86368,43.59689],[3.86362,43.59685],[3.86355,43.59678],[3.86266,43.59596]]},"properties":{"slope_pct":0.6,"start_km":2.741,"end_km":3.467,"ele_start":26.0,"ele_end":30.2,"class":"plat","label":"Plat (−2 à 2 %)","color":"#22a650"}},{"type":"Feature","geometry":{"type":"LineString","coordinates":[[3.86266,43.59596],[3.86242,43.59575],[3.86199,43.59535],[3.86188,43.59525],[3.86171,43.59509],[3.86158,43.59507],[3.86148,43.59502],[3.8611,43.59472],[3.86093,43.59463],[3.86047,43.59458],[3.85956,43.59448],[3.8584,43.59437],[3.85782,43.59427],[3.85659,43.59393]]},"properties":{"slope_pct":2.8,"start_km":3.467,"end_km":4.033,"ele_start":30.2,"ele_end":45.9,"class":"montee-faible","label":"Montée faible (2 à 4 %)","color":"#f2c418"}},{"type":"Feature","geometry":{"type":"LineString","coordinates":[[3.85659,43.59393],[3.85619,43.5938],[3.85596,43.59371],[3.85549,43.59354],[3.85535,43.59348]]},"properties":{"slope_pct":2.0,"start_km":4.033,"end_km":4.145,"ele_start":45.9,"ele_end":48.1,"class":"plat","label":"Plat (−2 à 2 %)","color":"#22a650"}},{"type":"Feature","geometry":{"type":"LineString","coordinates":[[3.85535,43.59348],[3.85525,43.59343],[3.85479,43.59323],[3.85446,43.59313],[3.85361,43.59298]]},"properties":{"slope_pct":2.6,"start_km":4.145,"end_km":4.296,"ele_start":48.1,"ele_end":52.0,"class":"montee-faible","label":"Montée faible (2 à 4 %)","color":"#f2c418"}},{"type":"Feature","geometry":{"type":"LineString","coordinates":[[3.85361,43.59298],[3.85326,43.59284],[3.85317,43.5928],[3.8528,43.59266],[3.85282,43.59263],[3.85283,43.59255],[3.85278,43.59254],[3.85274,43.59256],[3.8526,43.59251],[3.85247,43.59247],[3.8516,43.59219],[3.85123,43.59213]]},"properties":{"slope_pct":-0.4,"start_km":4.296,"end_km":4.523,"ele_start":52.0,"ele_end":51.0,"class":"plat","label":"Plat (−2 à 2 %)","color":"#22a650"}},{"type":"Feature","geometry":{"type":"LineString","coordinates":[[3.85123,43.59213],[3.85041,43.59184],[3.85005,43.59172],[3.84946,43.59152],[3.84933,43.59151],[3.84819,43.59135],[3.84715,43.5912],[3.84548,43.59096]]},"properties":{"slope_pct":-2.4,"start_km":4.523,"end_km":5.008,"ele_start":51.0,"ele_end":39.2,"class":"descente-legere","label":"Descente légère (−4 à −2 %)","color":"#7cb4f5"}},{"type":"Feature","geometry":{"type":"LineString","coordinates":[[3.84548,43.59096],[3.84545,43.591],[3.84536,43.59101],[3.84531,43.59105],[3.84509,43.59096],[3.84406,43.59086],[3.84374,43.59083],[3.84317,43.59085],[3.84309,43.59085],[3.843,43.59086],[3.8425,43.59086]]},"properties":{"slope_pct":-0.8,"start_km":5.008,"end_km":5.255,"ele_start":39.2,"ele_end":37.3,"class":"plat","label":"Plat (−2 à 2 %)","color":"#22a650"}},{"type":"Feature","geometry":{"type":"LineString","coordinates":[[3.8425,43.59086],[3.84241,43.59086],[3.84238,43.59052],[3.84218,43.5904],[3.84167,43.59041],[3.84114,43.59042],[3.84103,43.59045],[3.84092,43.59059],[3.84083,43.59071],[3.84071,43.59077],[3.84049,43.59079]]},"properties":{"slope_pct":-3.0,"start_km":5.255,"end_km":5.478,"ele_start":37.3,"ele_end":30.7,"class":"descente-legere","label":"Descente légère (−4 à −2 %)","color":"#7cb4f5"}},{"type":"Feature","geometry":{"type":"LineString","coordinates":[[3.84049,43.59079],[3.84019,43.59075],[3.84005,43.59076],[3.83996,43.59081],[3.83981,43.59091],[3.8396,43.59117],[3.83957,43.59132],[3.83953,43.59152],[3.83944,43.59169],[3.83912,43.59215],[3.83898,43.59255],[3.83873,43.59275],[3.83858,43.59273],[3.83843,43.59279],[3.83837,43.59286],[3.83832,43.59314],[3.83827,43.59318],[3.83817,43.59319],[3.83805,43.59322],[3.83799,43.5933],[3.83744,43.59411],[3.83748,43.59417],[3.83778,43.5943],[3.83773,43.59437],[3.83787,43.59444],[3.838,43.5945],[3.83824,43.59466],[3.83804,43.59486],[3.83788,43.59513],[3.83775,43.59525],[3.83763,43.59533],[3.83714,43.59554],[3.83683,43.59567],[3.83662,43.59578],[3.83659,43.59573],[3.83645,43.59551],[3.83632,43.59533],[3.83608,43.59496],[3.83595,43.59504],[3.83571,43.59473],[3.83547,43.59452]]},"properties":{"slope_pct":0.9,"start_km":5.478,"end_km":6.435,"ele_start":30.7,"ele_end":39.5,"class":"plat","label":"Plat (−2 à 2 %)","color":"#22a650"}},{"type":"Feature","geometry":{"type":"LineString","coordinates":[[3.83547,43.59452],[3.83502,43.59427],[3.8348,43.5942],[3.8345,43.59413],[3.83361,43.59397]]},"properties":{"slope_pct":1.9,"start_km":6.435,"end_km":6.599,"ele_start":39.5,"ele_end":42.7,"class":"plat","label":"Plat (−2 à 2 %)","color":"#22a650"}},{"type":"Feature","geometry":{"type":"LineString","coordinates":[[3.83361,43.59397],[3.83035,43.59334]]},"properties":{"slope_pct":3.7,"start_km":6.599,"end_km":6.871,"ele_start":42.7,"ele_end":52.6,"class":"montee-faible","label":"Montée faible (2 à 4 %)","color":"#f2c418"}},{"type":"Feature","geometry":{"type":"LineString","coordinates":[[3.83035,43.59334],[3.83001,43.59325],[3.82924,43.59299],[3.82898,43.59291]]},"properties":{"slope_pct":1.7,"start_km":6.871,"end_km":6.991,"ele_start":52.6,"ele_end":54.7,"class":"plat","label":"Plat (−2 à 2 %)","color":"#22a650"}},{"type":"Feature","geometry":{"type":"LineString","coordinates":[[3.82898,43.59291],[3.82848,43.59279],[3.82793,43.59277],[3.82584,43.59303]]},"properties":{"slope_pct":-3.8,"start_km":6.991,"end_km":7.249,"ele_start":54.7,"ele_end":45.0,"class":"descente-legere","label":"Descente légère (−4 à −2 %)","color":"#7cb4f5"}},{"type":"Feature","geometry":{"type":"LineString","coordinates":[[3.82584,43.59303],[3.82562,43.59314],[3.82525,43.5932],[3.82483,43.59324],[3.82426,43.59325],[3.82374,43.59322],[3.82281,43.59311]]},"properties":{"slope_pct":-5.2,"start_km":7.249,"end_km":7.498,"ele_start":45.0,"ele_end":32.0,"class":"descente","label":"Descente (−8 à −4 %)","color":"#2563eb"}},{"type":"Feature","geometry":{"type":"LineString","coordinates":[[3.82281,43.59311],[3.82197,43.59306],[3.82171,43.59302],[3.82151,43.59305],[3.82137,43.59314],[3.82122,43.59322],[3.82097,43.59333],[3.82086,43.59344],[3.82076,43.59363],[3.82067,43.59364],[3.82054,43.59364]]},"properties":{"slope_pct":-3.0,"start_km":7.498,"end_km":7.713,"ele_start":32.0,"ele_end":25.7,"class":"descente-legere","label":"Descente légère (−4 à −2 %)","color":"#7cb4f5"}},{"type":"Feature","geometry":{"type":"LineString","coordinates":[[3.82054,43.59364],[3.82045,43.5936],[3.82031,43.59328],[3.8203,43.59326],[3.82016,43.59317],[3.82012,43.59309],[3.82007,43.59299],[3.81793,43.5926],[3.81786,43.59255],[3.81782,43.59221],[3.81774,43.59213],[3.81705,43.59194],[3.81664,43.59179],[3.81593,43.5916],[3.81555,43.59154],[3.8146,43.59128],[3.81417,43.59115],[3.81344,43.59084],[3.81282,43.59046]]},"properties":{"slope_pct":-0.0,"start_km":7.713,"end_km":8.473,"ele_start":25.7,"ele_end":25.3,"class":"plat","label":"Plat (−2 à 2 %)","color":"#22a650"}},{"type":"Feature","geometry":{"type":"LineString","coordinates":[[3.81282,43.59046],[3.81231,43.59004],[3.81093,43.58855],[3.81068,43.58836],[3.81043,43.58821],[3.8101,43.58814],[3.80999,43.5881],[3.8098,43.58799],[3.80964,43.58795],[3.8093,43.58802],[3.80902,43.58811],[3.80871,43.5883],[3.80668,43.58976]]},"properties":{"slope_pct":1.2,"start_km":8.473,"end_km":9.177,"ele_start":25.3,"ele_end":33.5,"class":"plat","label":"Plat (−2 à 2 %)","color":"#22a650"}},{"type":"Feature","geometry":{"type":"LineString","coordinates":[[3.80668,43.58976],[3.80579,43.59038],[3.80534,43.59063],[3.80505,43.59074],[3.80477,43.59084],[3.80445,43.59091],[3.80396,43.59097]]},"properties":{"slope_pct":3.3,"start_km":9.177,"end_km":9.441,"ele_start":33.5,"ele_end":42.3,"class":"montee-faible","label":"Montée faible (2 à 4 %)","color":"#f2c418"}},{"type":"Feature","geometry":{"type":"LineString","coordinates":[[3.80396,43.59097],[3.80364,43.59098],[3.80323,43.59096],[3.80283,43.5909],[3.80249,43.59082],[3.80213,43.59069],[3.80108,43.59022],[3.80096,43.59016],[3.80083,43.5901],[3.80077,43.59008],[3.80073,43.59006],[3.79969,43.58953],[3.79563,43.58755],[3.79391,43.58672]]},"properties":{"slope_pct":-1.0,"start_km":9.441,"end_km":10.389,"ele_start":42.3,"ele_end":32.9,"class":"plat","label":"Plat (−2 à 2 %)","color":"#22a650"}},{"type":"Feature","geometry":{"type":"LineString","coordinates":[[3.79391,43.58672],[3.79312,43.58643],[3.79259,43.58628],[3.79185,43.58612],[3.79146,43.58606],[3.79136,43.58604],[3.79089,43.586],[3.79038,43.58597],[3.79,43.58597],[3.78973,43.58601],[3.78958,43.58599],[3.78947,43.58598],[3.78871,43.58599],[3.788,43.58597],[3.78741,43.58591],[3.7835,43.58503],[3.78287,43.58493],[3.78222,43.58491]]},"properties":{"slope_pct":0.7,"start_km":10.389,"end_km":11.363,"ele_start":32.9,"ele_end":40.1,"class":"plat","label":"Plat (−2 à 2 %)","color":"#22a650"}},{"type":"Feature","geometry":{"type":"LineString","coordinates":[[3.78222,43.58491],[3.78094,43.58489],[3.78017,43.58489],[3.77941,43.58498],[3.77907,43.58505],[3.77895,43.58502],[3.77878,43.58491],[3.77869,43.58494],[3.77847,43.58496],[3.77835,43.58493],[3.77828,43.58488],[3.77826,43.58485],[3.77815,43.58474],[3.77806,43.58469],[3.77735,43.58454],[3.77664,43.58425],[3.77313,43.58251]]},"properties":{"slope_pct":-0.5,"start_km":11.363,"end_km":12.187,"ele_start":40.1,"ele_end":35.5,"class":"plat","label":"Plat (−2 à 2 %)","color":"#22a650"}},{"type":"Feature","geometry":{"type":"LineString","coordinates":[[3.77313,43.58251],[3.77086,43.58137],[3.76927,43.58058],[3.76858,43.58023],[3.76843,43.58019],[3.76833,43.58019],[3.76786,43.5802],[3.76776,43.58017],[3.76759,43.58009],[3.76749,43.57997],[3.76736,43.57968],[3.76725,43.57958],[3.76701,43.57944],[3.76566,43.57879],[3.76468,43.57844],[3.76428,43.57833]]},"properties":{"slope_pct":-0.1,"start_km":12.187,"end_km":13.058,"ele_start":35.5,"ele_end":35.0,"class":"plat","label":"Plat (−2 à 2 %)","color":"#22a650"}},{"type":"Feature","geometry":{"type":"LineString","coordinates":[[3.76428,43.57833],[3.7636,43.57819],[3.76312,43.57811],[3.76213,43.57805],[3.76163,43.57809],[3.76135,43.57816],[3.76124,43.57813],[3.76095,43.57808],[3.76042,43.57813],[3.75748,43.57851],[3.75681,43.57856],[3.75647,43.57865],[3.75639,43.57868],[3.75612,43.57866],[3.75608,43.57864],[3.75598,43.5786],[3.75581,43.57845],[3.75512,43.57829],[3.75447,43.57806],[3.75391,43.57783],[3.75358,43.57777],[3.75347,43.57775],[3.75332,43.57759]]},"properties":{"slope_pct":0.7,"start_km":13.058,"end_km":13.99,"ele_start":35.0,"ele_end":41.5,"class":"plat","label":"Plat (−2 à 2 %)","color":"#22a650"}},{"type":"Feature","geometry":{"type":"LineString","coordinates":[[3.75332,43.57759],[3.75287,43.57738],[3.75276,43.5773],[3.75267,43.57725],[3.75207,43.57697],[3.75175,43.5769],[3.75011,43.57619],[3.74801,43.57555],[3.74733,43.57534],[3.747,43.57515],[3.74654,43.57498],[3.74536,43.5743],[3.74498,43.5741],[3.74433,43.57385],[3.74281,43.57348]]},"properties":{"slope_pct":0.7,"start_km":13.99,"end_km":14.959,"ele_start":41.5,"ele_end":48.7,"class":"plat","label":"Plat (−2 à 2 %)","color":"#22a650"}},{"type":"Feature","geometry":{"type":"LineString","coordinates":[[3.74281,43.57348],[3.74241,43.57344],[3.74217,43.57339],[3.74187,43.57324],[3.74109,43.57277],[3.74089,43.57262],[3.74033,43.5721],[3.73952,43.57137],[3.73821,43.57037],[3.73768,43.57],[3.73632,43.56916],[3.73472,43.56805]]},"properties":{"slope_pct":-0.0,"start_km":14.959,"end_km":15.859,"ele_start":48.7,"ele_end":48.7,"class":"plat","label":"Plat (−2 à 2 %)","color":"#22a650"}},{"type":"Feature","geometry":{"type":"LineString","coordinates":[[3.73472,43.56805],[3.73383,43.56743],[3.73329,43.56701],[3.7324,43.56625],[3.7323,43.56623],[3.73219,43.56624],[3.73213,43.5662],[3.73208,43.56616],[3.73209,43.56603],[3.73207,43.56597],[3.73134,43.56542],[3.73065,43.5649],[3.73032,43.5646],[3.72984,43.56401],[3.72971,43.56377]]},"properties":{"slope_pct":-0.2,"start_km":15.859,"end_km":16.497,"ele_start":48.7,"ele_end":47.3,"class":"plat","label":"Plat (−2 à 2 %)","color":"#22a650"}},{"type":"Feature","geometry":{"type":"LineString","coordinates":[[3.72971,43.56377],[3.72975,43.5636],[3.72921,43.56255],[3.72913,43.56226],[3.72913,43.56197],[3.72905,43.56196],[3.72899,43.56196],[3.72903,43.56162]]},"properties":{"slope_pct":-3.2,"start_km":16.497,"end_km":16.755,"ele_start":47.3,"ele_end":39.1,"class":"descente-legere","label":"Descente légère (−4 à −2 %)","color":"#7cb4f5"}},{"type":"Feature","geometry":{"type":"LineString","coordinates":[[3.72903,43.56162],[3.72901,43.56139],[3.72892,43.5612],[3.72879,43.56101],[3.72864,43.56086],[3.7284,43.56068]]},"properties":{"slope_pct":1.1,"start_km":16.755,"end_km":16.876,"ele_start":39.1,"ele_end":40.5,"class":"plat","label":"Plat (−2 à 2 %)","color":"#22a650"}},{"type":"Feature","geometry":{"type":"LineString","coordinates":[[3.7284,43.56068],[3.72812,43.56053],[3.72809,43.56049],[3.72809,43.56041],[3.72814,43.5603],[3.7282,43.56027],[3.72834,43.56025],[3.72843,43.56026],[3.72844,43.5602],[3.72855,43.55952]]},"properties":{"slope_pct":2.1,"start_km":16.876,"end_km":17.038,"ele_start":40.5,"ele_end":43.9,"class":"montee-faible","label":"Montée faible (2 à 4 %)","color":"#f2c418"}},{"type":"Feature","geometry":{"type":"LineString","coordinates":[[3.72855,43.55952],[3.72859,43.55905],[3.72857,43.559],[3.72862,43.55798],[3.72859,43.55768],[3.72853,43.55752],[3.72859,43.55752],[3.72861,43.55747],[3.7287,43.55742],[3.7287,43.55736],[3.7286,43.55692],[3.72845,43.55648],[3.72824,43.55593],[3.72806,43.55559],[3.72766,43.55486],[3.72752,43.55466],[3.72742,43.5545],[3.72725,43.55436],[3.72712,43.55416],[3.72711,43.55412],[3.72644,43.55335],[3.72627,43.55324],[3.72618,43.55316],[3.72608,43.55316],[3.72591,43.55318],[3.72589,43.55319],[3.72584,43.55315],[3.72573,43.55296],[3.72497,43.5525]]},"properties":{"slope_pct":0.3,"start_km":17.038,"end_km":17.936,"ele_start":43.9,"ele_end":46.9,"class":"plat","label":"Plat (−2 à 2 %)","color":"#22a650"}},{"type":"Feature","geometry":{"type":"LineString","coordinates":[[3.72497,43.5525],[3.72395,43.55201],[3.72334,43.55177],[3.72289,43.5517],[3.72268,43.55161],[3.72258,43.55156],[3.72234,43.55147],[3.72111,43.55121],[3.71964,43.55093],[3.7184,43.55069],[3.71836,43.55065],[3.71818,43.55061],[3.71801,43.55061],[3.71723,43.55049],[3.71692,43.55049],[3.71685,43.55046],[3.71683,43.55039],[3.71682,43.55034],[3.71685,43.55027],[3.71685,43.5502],[3.71663,43.54995],[3.71648,43.54987],[3.71629,43.54985],[3.71616,43.54986],[3.71597,43.54995],[3.71584,43.54997],[3.71407,43.54969]]},"properties":{"slope_pct":0.5,"start_km":17.936,"end_km":18.917,"ele_start":46.9,"ele_end":51.7,"class":"plat","label":"Plat (−2 à 2 %)","color":"#22a650"}},{"type":"Feature","geometry":{"type":"LineString","coordinates":[[3.71407,43.54969],[3.71108,43.54913],[3.7107,43.54904],[3.70982,43.54876],[3.7097,43.54866],[3.70954,43.54835],[3.70949,43.54832],[3.70937,43.54827],[3.7093,43.54825],[3.70885,43.54832],[3.70872,43.54827],[3.70789,43.54765],[3.70696,43.54675],[3.70553,43.54531]]},"properties":{"slope_pct":0.1,"start_km":18.917,"end_km":19.816,"ele_start":51.7,"ele_end":52.7,"class":"plat","label":"Plat (−2 à 2 %)","color":"#22a650"}},{"type":"Feature","geometry":{"type":"LineString","coordinates":[[3.70553,43.54531],[3.70552,43.54525],[3.70575,43.5451],[3.70576,43.54503],[3.70572,43.54501],[3.70548,43.545],[3.70546,43.54493],[3.70526,43.54483],[3.70516,43.54481],[3.70483,43.54479],[3.70444,43.54463],[3.70422,43.54446],[3.7037,43.54379],[3.70353,43.54362],[3.70259,43.54284],[3.70127,43.54173],[3.70027,43.54086],[3.70005,43.54061],[3.69978,43.5402],[3.69929,43.53916]]},"properties":{"slope_pct":-0.4,"start_km":19.816,"end_km":20.722,"ele_start":52.7,"ele_end":49.1,"class":"plat","label":"Plat (−2 à 2 %)","color":"#22a650"}},{"type":"Feature","geometry":{"type":"LineString","coordinates":[[3.69929,43.53916],[3.69801,43.53605]]},"properties":{"slope_pct":-0.9,"start_km":20.722,"end_km":21.083,"ele_start":49.1,"ele_end":45.8,"class":"plat","label":"Plat (−2 à 2 %)","color":"#22a650"}},{"type":"Feature","geometry":{"type":"LineString","coordinates":[[3.69801,43.53605],[3.69705,43.53364]]},"properties":{"slope_pct":-2.5,"start_km":21.083,"end_km":21.362,"ele_start":45.8,"ele_end":38.7,"class":"descente-legere","label":"Descente légère (−4 à −2 %)","color":"#7cb4f5"}},{"type":"Feature","geometry":{"type":"LineString","coordinates":[[3.69705,43.53364],[3.69689,43.5333],[3.69679,43.53319],[3.69671,43.533],[3.69672,43.5329],[3.69635,43.53193]]},"properties":{"slope_pct":1.1,"start_km":21.362,"end_km":21.563,"ele_start":38.7,"ele_end":40.9,"class":"plat","label":"Plat (−2 à 2 %)","color":"#22a650"}},{"type":"Feature","geometry":{"type":"LineString","coordinates":[[3.69635,43.53193],[3.69576,43.53051],[3.69545,43.52992],[3.69531,43.52974],[3.69514,43.5296]]},"properties":{"slope_pct":2.8,"start_km":21.563,"end_km":21.841,"ele_start":40.9,"ele_end":48.6,"class":"montee-faible","label":"Montée faible (2 à 4 %)","color":"#f2c418"}},{"type":"Feature","geometry":{"type":"LineString","coordinates":[[3.69514,43.5296],[3.69412,43.52889]]},"properties":{"slope_pct":1.3,"start_km":21.841,"end_km":21.955,"ele_start":48.6,"ele_end":50.0,"class":"plat","label":"Plat (−2 à 2 %)","color":"#22a650"}},{"type":"Feature","geometry":{"type":"LineString","coordinates":[[3.69412,43.52889],[3.69408,43.52881],[3.69399,43.52875],[3.69387,43.52873],[3.6937,43.52863],[3.69192,43.52729]]},"properties":{"slope_pct":-2.5,"start_km":21.955,"end_km":22.209,"ele_start":50.0,"ele_end":43.7,"class":"descente-legere","label":"Descente légère (−4 à −2 %)","color":"#7cb4f5"}},{"type":"Feature","geometry":{"type":"LineString","coordinates":[[3.69192,43.52729],[3.6917,43.52716],[3.69141,43.52701],[3.6909,43.52679],[3.69059,43.52667]]},"properties":{"slope_pct":-1.6,"start_km":22.209,"end_km":22.337,"ele_start":43.7,"ele_end":41.6,"class":"plat","label":"Plat (−2 à 2 %)","color":"#22a650"}},{"type":"Feature","geometry":{"type":"LineString","coordinates":[[3.69059,43.52667],[3.69007,43.52653],[3.69002,43.52651],[3.68955,43.52632],[3.68936,43.52627]]},"properties":{"slope_pct":2.7,"start_km":22.337,"end_km":22.446,"ele_start":41.6,"ele_end":44.6,"class":"montee-faible","label":"Montée faible (2 à 4 %)","color":"#f2c418"}},{"type":"Feature","geometry":{"type":"LineString","coordinates":[[3.68936,43.52627],[3.68922,43.52629],[3.68913,43.52627],[3.68881,43.52613],[3.68846,43.52594],[3.68828,43.52578]]},"properties":{"slope_pct":1.1,"start_km":22.446,"end_km":22.554,"ele_start":44.6,"ele_end":45.8,"class":"plat","label":"Plat (−2 à 2 %)","color":"#22a650"}},{"type":"Feature","geometry":{"type":"LineString","coordinates":[[3.68828,43.52578],[3.68736,43.52482]]},"properties":{"slope_pct":-2.1,"start_km":22.554,"end_km":22.684,"ele_start":45.8,"ele_end":43.1,"class":"descente-legere","label":"Descente légère (−4 à −2 %)","color":"#7cb4f5"}},{"type":"Feature","geometry":{"type":"LineString","coordinates":[[3.68736,43.52482],[3.68715,43.52448],[3.687,43.52419],[3.68698,43.52408],[3.68657,43.5234],[3.68633,43.52316],[3.6861,43.52216]]},"properties":{"slope_pct":-0.8,"start_km":22.684,"end_km":23.0,"ele_start":43.1,"ele_end":40.7,"class":"plat","label":"Plat (−2 à 2 %)","color":"#22a650"}},{"type":"Feature","geometry":{"type":"LineString","coordinates":[[3.6861,43.52216],[3.6861,43.52211],[3.68571,43.52087],[3.68531,43.51984]]},"properties":{"slope_pct":2.8,"start_km":23.0,"end_km":23.266,"ele_start":40.7,"ele_end":48.1,"class":"montee-faible","label":"Montée faible (2 à 4 %)","color":"#f2c418"}},{"type":"Feature","geometry":{"type":"LineString","coordinates":[[3.68531,43.51984],[3.68493,43.51862],[3.68468,43.51796],[3.68432,43.51705],[3.68369,43.51581],[3.68366,43.51565],[3.68372,43.51535],[3.68373,43.51531],[3.68375,43.51523],[3.68307,43.5131],[3.68301,43.51287],[3.68283,43.5123],[3.68276,43.51187]]},"properties":{"slope_pct":-0.5,"start_km":23.266,"end_km":24.181,"ele_start":48.1,"ele_end":43.7,"class":"plat","label":"Plat (−2 à 2 %)","color":"#22a650"}},{"type":"Feature","geometry":{"type":"LineString","coordinates":[[3.68276,43.51187],[3.68277,43.51172],[3.68335,43.511],[3.6838,43.51031],[3.68394,43.51002],[3.68417,43.5094],[3.68425,43.50901],[3.68433,43.5084],[3.68435,43.50798]]},"properties":{"slope_pct":-0.1,"start_km":24.181,"end_km":24.64,"ele_start":43.7,"ele_end":43.0,"class":"plat","label":"Plat (−2 à 2 %)","color":"#22a650"}},{"type":"Feature","geometry":{"type":"LineString","coordinates":[[3.68435,43.50798],[3.68434,43.5079],[3.68375,43.5077],[3.68348,43.50753],[3.68302,43.50717]]},"properties":{"slope_pct":-2.0,"start_km":24.64,"end_km":24.785,"ele_start":43.0,"ele_end":40.1,"class":"descente-legere","label":"Descente légère (−4 à −2 %)","color":"#7cb4f5"}},{"type":"Feature","geometry":{"type":"LineString","coordinates":[[3.68302,43.50717],[3.68297,43.50712],[3.683,43.50703],[3.68305,43.50695],[3.68301,43.506],[3.68244,43.50112],[3.68243,43.50104],[3.68216,43.49884]]},"properties":{"slope_pct":-0.9,"start_km":24.785,"end_km":25.715,"ele_start":40.1,"ele_end":32.1,"class":"plat","label":"Plat (−2 à 2 %)","color":"#22a650"}},{"type":"Feature","geometry":{"type":"LineString","coordinates":[[3.68216,43.49884],[3.68201,43.4971],[3.68175,43.49477],[3.68162,43.49432],[3.6813,43.49357]]},"properties":{"slope_pct":-0.5,"start_km":25.715,"end_km":26.308,"ele_start":32.1,"ele_end":29.3,"class":"plat","label":"Plat (−2 à 2 %)","color":"#22a650"}},{"type":"Feature","geometry":{"type":"LineString","coordinates":[[3.6813,43.49357],[3.68124,43.49343],[3.68033,43.49135]]},"properties":{"slope_pct":2.5,"start_km":26.308,"end_km":26.567,"ele_start":29.3,"ele_end":35.7,"class":"montee-faible","label":"Montée faible (2 à 4 %)","color":"#f2c418"}},{"type":"Feature","geometry":{"type":"LineString","coordinates":[[3.68033,43.49135],[3.67995,43.49079],[3.67954,43.48985],[3.67946,43.48951],[3.67938,43.48944],[3.67903,43.48937],[3.67899,43.48933],[3.67891,43.48917],[3.67888,43.48909],[3.67891,43.48899],[3.67903,43.48877],[3.67914,43.48875],[3.67951,43.48865],[3.67908,43.48793],[3.67894,43.48791],[3.67875,43.4876],[3.67859,43.48697]]},"properties":{"slope_pct":0.5,"start_km":26.567,"end_km":27.144,"ele_start":35.7,"ele_end":38.8,"class":"plat","label":"Plat (−2 à 2 %)","color":"#22a650"}},{"type":"Feature","geometry":{"type":"LineString","coordinates":[[3.67859,43.48697],[3.67857,43.48662],[3.67857,43.48597]]},"properties":{"slope_pct":-2.3,"start_km":27.144,"end_km":27.256,"ele_start":38.8,"ele_end":36.2,"class":"descente-legere","label":"Descente légère (−4 à −2 %)","color":"#7cb4f5"}},{"type":"Feature","geometry":{"type":"LineString","coordinates":[[3.67857,43.48597],[3.67874,43.4847]]},"properties":{"slope_pct":-4.6,"start_km":27.256,"end_km":27.397,"ele_start":36.2,"ele_end":29.7,"class":"descente","label":"Descente (−8 à −4 %)","color":"#2563eb"}},{"type":"Feature","geometry":{"type":"LineString","coordinates":[[3.67874,43.4847],[3.67881,43.48423],[3.67885,43.48433],[3.67905,43.48459],[3.6789,43.48465],[3.67883,43.48468],[3.67868,43.48473],[3.67858,43.48475],[3.67865,43.48441],[3.67863,43.48437],[3.6786,43.48427],[3.67783,43.4838]]},"properties":{"slope_pct":0.5,"start_km":27.397,"end_km":27.672,"ele_start":29.7,"ele_end":31.1,"class":"plat","label":"Plat (−2 à 2 %)","color":"#22a650"}},{"type":"Feature","geometry":{"type":"LineString","coordinates":[[3.67783,43.4838],[3.67704,43.48346],[3.67673,43.48324]]},"properties":{"slope_pct":4.3,"start_km":27.672,"end_km":27.781,"ele_start":31.1,"ele_end":35.8,"class":"montee-moderee","label":"Montée modérée (4 à 7 %)","color":"#f59e0b"}},{"type":"Feature","geometry":{"type":"LineString","coordinates":[[3.67673,43.48324],[3.67663,43.48319],[3.67622,43.48314],[3.67505,43.48302]]},"properties":{"slope_pct":2.1,"start_km":27.781,"end_km":27.919,"ele_start":35.8,"ele_end":38.7,"class":"montee-faible","label":"Montée faible (2 à 4 %)","color":"#f2c418"}},{"type":"Feature","geometry":{"type":"LineString","coordinates":[[3.67505,43.48302],[3.67512,43.48293],[3.67615,43.48248]]},"properties":{"slope_pct":-3.7,"start_km":27.919,"end_km":28.028,"ele_start":38.7,"ele_end":34.7,"class":"descente-legere","label":"Descente légère (−4 à −2 %)","color":"#7cb4f5"}},{"type":"Feature","geometry":{"type":"LineString","coordinates":[[3.67615,43.48248],[3.67678,43.4823],[3.67688,43.48221],[3.67708,43.48188]]},"properties":{"slope_pct":-9.1,"start_km":28.028,"end_km":28.135,"ele_start":34.7,"ele_end":25.0,"class":"descente-forte","label":"Descente forte (< −8 %)","color":"#1e3a8a"}},{"type":"Feature","geometry":{"type":"LineString","coordinates":[[3.67708,43.48188],[3.67708,43.4818],[3.67702,43.48167],[3.67702,43.48167],[3.67704,43.48161],[3.67752,43.48126],[3.67758,43.48119],[3.67717,43.48096]]},"properties":{"slope_pct":-6.6,"start_km":28.135,"end_km":28.272,"ele_start":25.0,"ele_end":16.0,"class":"descente","label":"Descente (−8 à −4 %)","color":"#2563eb"}},{"type":"Feature","geometry":{"type":"LineString","coordinates":[[3.67717,43.48096],[3.67702,43.48092],[3.67665,43.48102],[3.67624,43.48104],[3.675,43.48124],[3.67464,43.48125],[3.67421,43.48118],[3.67397,43.48115],[3.67365,43.4811],[3.67346,43.48112],[3.67325,43.48123],[3.67322,43.48128],[3.67311,43.48135],[3.67297,43.48134],[3.67285,43.48127],[3.67284,43.48115],[3.67291,43.48108],[3.67301,43.48098],[3.6731,43.48078],[3.67323,43.48061],[3.67347,43.48031],[3.67358,43.48022],[3.67404,43.47963],[3.67399,43.47962],[3.67392,43.47958],[3.67389,43.47954],[3.67391,43.47948],[3.6742,43.47923],[3.67441,43.47896],[3.67517,43.47798],[3.67518,43.47793],[3.67516,43.47788],[3.6743,43.47725]]},"properties":{"slope_pct":-0.4,"start_km":28.272,"end_km":29.179,"ele_start":16.0,"ele_end":12.0,"class":"plat","label":"Plat (−2 à 2 %)","color":"#22a650"}},{"type":"Feature","geometry":{"type":"LineString","coordinates":[[3.6743,43.47725],[3.67416,43.47712],[3.67413,43.47707],[3.67416,43.47701],[3.6746,43.47668],[3.67478,43.4766],[3.67491,43.47653],[3.67499,43.4764],[3.67639,43.47575],[3.67623,43.47549],[3.6762,43.47536],[3.67605,43.47513],[3.67579,43.47446],[3.67541,43.47373],[3.67534,43.47365],[3.67524,43.47343],[3.67518,43.47306],[3.67518,43.47293],[3.67529,43.4726],[3.67527,43.47233],[3.67527,43.47214],[3.67537,43.47185],[3.67552,43.47143],[3.67555,43.47125],[3.67552,43.47117],[3.67523,43.47086],[3.67518,43.47077],[3.67512,43.47051]]},"properties":{"slope_pct":-1.1,"start_km":29.179,"end_km":30.055,"ele_start":12.0,"ele_end":2.3,"class":"plat","label":"Plat (−2 à 2 %)","color":"#22a650"}},{"type":"Feature","geometry":{"type":"LineString","coordinates":[[3.67512,43.47051],[3.67513,43.47039],[3.67525,43.47011],[3.6754,43.4699],[3.6755,43.4698],[3.6769,43.47059],[3.67781,43.47097],[3.67821,43.47111],[3.67892,43.47138],[3.67919,43.47155],[3.67948,43.47172],[3.67963,43.47178],[3.67965,43.47171],[3.67987,43.47131],[3.67991,43.47119],[3.68003,43.47113],[3.68003,43.4711],[3.67999,43.47109],[3.67953,43.47117],[3.67951,43.47111],[3.67954,43.4711],[3.67982,43.47105],[3.68023,43.471],[3.68078,43.47097],[3.68117,43.47081],[3.68131,43.4708],[3.68123,43.4706],[3.68061,43.46967]]},"properties":{"slope_pct":-0.0,"start_km":30.055,"end_km":30.962,"ele_start":2.3,"ele_end":1.9,"class":"plat","label":"Plat (−2 à 2 %)","color":"#22a650"}},{"type":"Feature","geometry":{"type":"LineString","coordinates":[[3.68061,43.46967],[3.68008,43.46905],[3.67987,43.46876],[3.6785,43.46771],[3.67348,43.46383]]},"properties":{"slope_pct":-0.2,"start_km":30.962,"end_km":31.832,"ele_start":1.9,"ele_end":-0.1,"class":"plat","label":"Plat (−2 à 2 %)","color":"#22a650"}},{"type":"Feature","geometry":{"type":"LineString","coordinates":[[3.67348,43.46383],[3.67038,43.46145],[3.67024,43.46134],[3.6687,43.46012],[3.66804,43.45948],[3.66757,43.45896],[3.66714,43.45835],[3.66675,43.45775]]},"properties":{"slope_pct":-0.0,"start_km":31.832,"end_km":32.705,"ele_start":-0.1,"ele_end":-0.1,"class":"plat","label":"Plat (−2 à 2 %)","color":"#22a650"}},{"type":"Feature","geometry":{"type":"LineString","coordinates":[[3.66675,43.45775],[3.66669,43.45765],[3.66648,43.45732],[3.66639,43.45718],[3.66611,43.45674],[3.66418,43.45367],[3.66395,43.45336],[3.66375,43.45316],[3.66337,43.45286]]},"properties":{"slope_pct":2.8,"start_km":32.705,"end_km":33.317,"ele_start":-0.1,"ele_end":17.2,"class":"montee-faible","label":"Montée faible (2 à 4 %)","color":"#f2c418"}},{"type":"Feature","geometry":{"type":"LineString","coordinates":[[3.66337,43.45286],[3.66309,43.45268],[3.6625,43.45241],[3.6619,43.45223]]},"properties":{"slope_pct":-0.3,"start_km":33.317,"end_km":33.455,"ele_start":17.2,"ele_end":16.8,"class":"plat","label":"Plat (−2 à 2 %)","color":"#22a650"}},{"type":"Feature","geometry":{"type":"LineString","coordinates":[[3.6619,43.45223],[3.66119,43.45213],[3.6598,43.45209],[3.65804,43.45204]]},"properties":{"slope_pct":-2.3,"start_km":33.455,"end_km":33.768,"ele_start":16.8,"ele_end":9.6,"class":"descente-legere","label":"Descente légère (−4 à −2 %)","color":"#7cb4f5"}},{"type":"Feature","geometry":{"type":"LineString","coordinates":[[3.65804,43.45204],[3.65794,43.45203],[3.65566,43.45195],[3.65509,43.45187],[3.65492,43.45183],[3.65508,43.4516],[3.65528,43.45126],[3.65569,43.45056],[3.65577,43.45042],[3.65581,43.45036],[3.65611,43.4498],[3.65615,43.44973],[3.65685,43.44857],[3.65695,43.4484],[3.65758,43.44851],[3.65764,43.44848],[3.65767,43.4484],[3.65778,43.44813],[3.65747,43.4481],[3.65751,43.44794],[3.65755,43.44787],[3.65768,43.44759],[3.65775,43.44756],[3.65811,43.44763]]},"properties":{"slope_pct":-0.6,"start_km":33.768,"end_km":34.656,"ele_start":9.6,"ele_end":4.5,"class":"plat","label":"Plat (−2 à 2 %)","color":"#22a650"}},{"type":"Feature","geometry":{"type":"LineString","coordinates":[[3.65811,43.44763],[3.65817,43.44763],[3.65825,43.44764],[3.65839,43.44745],[3.65846,43.44724],[3.65859,43.44724],[3.65861,43.44724],[3.65876,43.44725],[3.65861,43.44724],[3.65859,43.44716]]},"properties":{"slope_pct":-2.6,"start_km":34.656,"end_km":34.761,"ele_start":4.5,"ele_end":1.8,"class":"descente-legere","label":"Descente légère (−4 à −2 %)","color":"#7cb4f5"}},{"type":"Feature","geometry":{"type":"LineString","coordinates":[[3.65859,43.44716],[3.65856,43.44716],[3.65848,43.44715],[3.65856,43.44702],[3.65865,43.44688],[3.65873,43.44676],[3.65869,43.44667],[3.65857,43.44673],[3.65826,43.44687],[3.65793,43.44702],[3.65778,43.44712],[3.65668,43.44808],[3.65656,43.44815],[3.65649,43.44818],[3.65583,43.44834],[3.65575,43.44836],[3.65521,43.44849],[3.65575,43.44836],[3.65521,43.44849],[3.65449,43.44865],[3.65404,43.44871],[3.65354,43.44872],[3.65204,43.44863],[3.65193,43.44862],[3.65181,43.44861],[3.6502,43.4485]]},"properties":{"slope_pct":0.1,"start_km":34.761,"end_km":35.685,"ele_start":1.8,"ele_end":2.3,"class":"plat","label":"Plat (−2 à 2 %)","color":"#22a650"}},{"type":"Feature","geometry":{"type":"LineString","coordinates":[[3.6502,43.4485],[3.64975,43.44848],[3.64934,43.44843],[3.64884,43.44833],[3.64846,43.44828],[3.64823,43.44827],[3.64721,43.44838]]},"properties":{"slope_pct":0.1,"start_km":35.685,"end_km":35.929,"ele_start":2.3,"ele_end":2.6,"class":"plat","label":"Plat (−2 à 2 %)","color":"#22a650"}},{"type":"Feature","geometry":{"type":"LineString","coordinates":[[3.64721,43.44838],[3.64696,43.44836],[3.64648,43.44826],[3.64621,43.4483],[3.64611,43.44835],[3.6458,43.44863]]},"properties":{"slope_pct":2.3,"start_km":35.929,"end_km":36.062,"ele_start":2.6,"ele_end":5.6,"class":"montee-faible","label":"Montée faible (2 à 4 %)","color":"#f2c418"}},{"type":"Feature","geometry":{"type":"LineString","coordinates":[[3.6458,43.44863],[3.64568,43.44871],[3.6455,43.44891],[3.64542,43.44884],[3.6454,43.44882],[3.64518,43.4488],[3.64497,43.44884],[3.64252,43.44765],[3.64055,43.4466],[3.6402,43.44648],[3.63878,43.44573],[3.63842,43.44552],[3.63823,43.44536],[3.63783,43.44512],[3.63708,43.44471],[3.63673,43.44453]]},"properties":{"slope_pct":0.7,"start_km":36.062,"end_km":36.971,"ele_start":5.6,"ele_end":12.1,"class":"plat","label":"Plat (−2 à 2 %)","color":"#22a650"}},{"type":"Feature","geometry":{"type":"LineString","coordinates":[[3.63673,43.44453],[3.63635,43.44438],[3.63598,43.44418],[3.63575,43.44409],[3.63552,43.44402],[3.63455,43.4438],[3.63384,43.44381]]},"properties":{"slope_pct":0.2,"start_km":36.971,"end_km":37.224,"ele_start":12.1,"ele_end":12.7,"class":"plat","label":"Plat (−2 à 2 %)","color":"#22a650"}},{"type":"Feature","geometry":{"type":"LineString","coordinates":[[3.63384,43.44381],[3.63368,43.4438],[3.63357,43.44372],[3.63354,43.44368],[3.63338,43.44365],[3.63295,43.44328],[3.63285,43.44314]]},"properties":{"slope_pct":-2.2,"start_km":37.224,"end_km":37.339,"ele_start":12.7,"ele_end":10.1,"class":"descente-legere","label":"Descente légère (−4 à −2 %)","color":"#7cb4f5"}},{"type":"Feature","geometry":{"type":"LineString","coordinates":[[3.63285,43.44314],[3.63278,43.44311],[3.63272,43.44314],[3.63265,43.44325],[3.63168,43.44409],[3.63139,43.4443],[3.63128,43.44434],[3.63029,43.44443],[3.62973,43.44442],[3.62926,43.44437],[3.6289,43.44431],[3.62851,43.44423],[3.6279,43.44403],[3.6273,43.44379],[3.62513,43.44293],[3.62458,43.44277],[3.62402,43.44269],[3.62336,43.44266]]},"properties":{"slope_pct":0.4,"start_km":37.339,"end_km":38.211,"ele_start":10.1,"ele_end":14.0,"class":"plat","label":"Plat (−2 à 2 %)","color":"#22a650"}},{"type":"Feature","geometry":{"type":"LineString","coordinates":[[3.62336,43.44266],[3.62297,43.44268],[3.62265,43.44272],[3.62131,43.44307]]},"properties":{"slope_pct":-0.4,"start_km":38.211,"end_km":38.385,"ele_start":14.0,"ele_end":13.2,"class":"plat","label":"Plat (−2 à 2 %)","color":"#22a650"}},{"type":"Feature","geometry":{"type":"LineString","coordinates":[[3.62131,43.44307],[3.62081,43.44317],[3.62055,43.4432],[3.61987,43.44321]]},"properties":{"slope_pct":-2.4,"start_km":38.385,"end_km":38.503,"ele_start":13.2,"ele_end":10.4,"class":"descente-legere","label":"Descente légère (−4 à −2 %)","color":"#7cb4f5"}},{"type":"Feature","geometry":{"type":"LineString","coordinates":[[3.61987,43.44321],[3.61981,43.44321],[3.61973,43.4432],[3.61929,43.44317],[3.61811,43.44301],[3.61722,43.44293],[3.61636,43.4429]]},"properties":{"slope_pct":-0.9,"start_km":38.503,"end_km":38.788,"ele_start":10.4,"ele_end":7.8,"class":"plat","label":"Plat (−2 à 2 %)","color":"#22a650"}},{"type":"Feature","geometry":{"type":"LineString","coordinates":[[3.61636,43.4429],[3.61554,43.44287],[3.61399,43.44275],[3.61294,43.44266],[3.61257,43.44261]]},"properties":{"slope_pct":2.9,"start_km":38.788,"end_km":39.096,"ele_start":7.8,"ele_end":16.7,"class":"montee-faible","label":"Montée faible (2 à 4 %)","color":"#f2c418"}},{"type":"Feature","geometry":{"type":"LineString","coordinates":[[3.61257,43.44261],[3.61181,43.44239],[3.61125,43.44215]]},"properties":{"slope_pct":1.3,"start_km":39.096,"end_km":39.214,"ele_start":16.7,"ele_end":18.3,"class":"plat","label":"Plat (−2 à 2 %)","color":"#22a650"}},{"type":"Feature","geometry":{"type":"LineString","coordinates":[[3.61125,43.44215],[3.61071,43.4418],[3.61044,43.44155],[3.61021,43.44129],[3.61008,43.44108],[3.60984,43.44056],[3.60977,43.44022],[3.60953,43.43841]]},"properties":{"slope_pct":-2.5,"start_km":39.214,"end_km":39.67,"ele_start":18.3,"ele_end":7.0,"class":"descente-legere","label":"Descente légère (−4 à −2 %)","color":"#7cb4f5"}},{"type":"Feature","geometry":{"type":"LineString","coordinates":[[3.60953,43.43841],[3.60928,43.43671],[3.60902,43.4359],[3.60874,43.43546],[3.60823,43.4349],[3.60797,43.43467],[3.60776,43.43456],[3.60696,43.43393],[3.6065,43.43362],[3.60447,43.43207],[3.60362,43.43142],[3.60356,43.43128]]},"properties":{"slope_pct":0.2,"start_km":39.67,"end_km":40.635,"ele_start":7.0,"ele_end":9.3,"class":"plat","label":"Plat (−2 à 2 %)","color":"#22a650"}},{"type":"Feature","geometry":{"type":"LineString","coordinates":[[3.60356,43.43128],[3.60358,43.43124],[3.60353,43.43122],[3.60348,43.4312],[3.60344,43.43119],[3.6034,43.43123],[3.60335,43.43121],[3.60324,43.4311],[3.60268,43.43069],[3.60175,43.42996],[3.60139,43.42971],[3.60133,43.42968],[3.60104,43.42944],[3.60098,43.42936],[3.60094,43.42931],[3.60083,43.42927],[3.60048,43.42903],[3.6002,43.42879],[3.59997,43.4286],[3.59994,43.42854],[3.5999,43.42847],[3.59974,43.42818],[3.59974,43.42816],[3.59967,43.42786],[3.59965,43.42744],[3.59975,43.42704],[3.59992,43.42657],[3.59994,43.42652]]},"properties":{"slope_pct":0.1,"start_km":40.635,"end_km":41.301,"ele_start":9.3,"ele_end":10.0,"class":"plat","label":"Plat (−2 à 2 %)","color":"#22a650"}},{"type":"Feature","geometry":{"type":"LineString","coordinates":[[3.59994,43.42652],[3.59985,43.42652],[3.59979,43.4265],[3.59975,43.42645],[3.59849,43.42621]]},"properties":{"slope_pct":3.0,"start_km":41.301,"end_km":41.425,"ele_start":10.0,"ele_end":13.8,"class":"montee-faible","label":"Montée faible (2 à 4 %)","color":"#f2c418"}},{"type":"Feature","geometry":{"type":"LineString","coordinates":[[3.59849,43.42621],[3.59792,43.4261],[3.59793,43.42607],[3.59784,43.42605],[3.59773,43.42603],[3.59754,43.42606],[3.59774,43.4259],[3.59794,43.42567],[3.59797,43.42559],[3.59791,43.42556],[3.59823,43.42464],[3.59826,43.42454],[3.59852,43.42383],[3.59849,43.42361],[3.59861,43.4235],[3.59866,43.42342],[3.59867,43.42333],[3.59859,43.42323],[3.59773,43.42276],[3.59767,43.42273],[3.5974,43.42259],[3.59678,43.42224],[3.59657,43.42208],[3.59647,43.42201],[3.596,43.4216],[3.59553,43.4211]]},"properties":{"slope_pct":-0.7,"start_km":41.425,"end_km":42.195,"ele_start":13.8,"ele_end":8.1,"class":"plat","label":"Plat (−2 à 2 %)","color":"#22a650"}},{"type":"Feature","geometry":{"type":"LineString","coordinates":[[3.59553,43.4211],[3.59512,43.42075],[3.59498,43.42067],[3.59487,43.4206],[3.59369,43.41999]]},"properties":{"slope_pct":-2.7,"start_km":42.195,"end_km":42.389,"ele_start":8.1,"ele_end":2.8,"class":"descente-legere","label":"Descente légère (−4 à −2 %)","color":"#7cb4f5"}},{"type":"Feature","geometry":{"type":"LineString","coordinates":[[3.59369,43.41999],[3.59297,43.41967],[3.59124,43.41927],[3.58892,43.4187],[3.58817,43.41864],[3.58774,43.41865],[3.58766,43.41861],[3.5875,43.41869],[3.58694,43.41898],[3.58687,43.41899],[3.58679,43.419],[3.58618,43.41895],[3.58445,43.41877]]},"properties":{"slope_pct":-0.2,"start_km":42.389,"end_km":43.18,"ele_start":2.8,"ele_end":1.6,"class":"plat","label":"Plat (−2 à 2 %)","color":"#22a650"}},{"type":"Feature","geometry":{"type":"LineString","coordinates":[[3.58445,43.41877],[3.58429,43.41873],[3.58414,43.41866],[3.5839,43.41846],[3.58388,43.41845],[3.58347,43.41806],[3.58323,43.41779],[3.58284,43.41742],[3.58249,43.41719]]},"properties":{"slope_pct":2.9,"start_km":43.18,"end_km":43.419,"ele_start":1.6,"ele_end":8.5,"class":"montee-faible","label":"Montée faible (2 à 4 %)","color":"#f2c418"}},{"type":"Feature","geometry":{"type":"LineString","coordinates":[[3.58249,43.41719],[3.58209,43.41703],[3.58174,43.41694],[3.58033,43.41672],[3.57968,43.41667],[3.5787,43.41653],[3.57868,43.41653],[3.57822,43.4164],[3.57752,43.41614],[3.57674,43.41554],[3.57575,43.41479],[3.57477,43.41401],[3.57444,43.41373],[3.57381,43.41308],[3.57365,43.41292],[3.57304,43.41223]]},"properties":{"slope_pct":-0.2,"start_km":43.419,"end_km":44.408,"ele_start":8.5,"ele_end":6.7,"class":"plat","label":"Plat (−2 à 2 %)","color":"#22a650"}},{"type":"Feature","geometry":{"type":"LineString","coordinates":[[3.57304,43.41223],[3.57144,43.41099]]},"properties":{"slope_pct":-2.6,"start_km":44.408,"end_km":44.598,"ele_start":6.7,"ele_end":1.8,"class":"descente-legere","label":"Descente légère (−4 à −2 %)","color":"#7cb4f5"}},{"type":"Feature","geometry":{"type":"LineString","coordinates":[[3.57144,43.41099],[3.57127,43.41085],[3.57025,43.41007],[3.57017,43.41001],[3.56971,43.40963],[3.56947,43.40948],[3.56897,43.40926],[3.56683,43.4083],[3.56569,43.40753],[3.56509,43.40704],[3.5641,43.40624]]},"properties":{"slope_pct":0.5,"start_km":44.598,"end_km":45.397,"ele_start":1.8,"ele_end":5.4,"class":"plat","label":"Plat (−2 à 2 %)","color":"#22a650"}},{"type":"Feature","geometry":{"type":"LineString","coordinates":[[3.5641,43.40624],[3.56152,43.40399]]},"properties":{"slope_pct":0.9,"start_km":45.397,"end_km":45.723,"ele_start":5.4,"ele_end":8.3,"class":"plat","label":"Plat (−2 à 2 %)","color":"#22a650"}},{"type":"Feature","geometry":{"type":"LineString","coordinates":[[3.56152,43.40399],[3.55989,43.40254]]},"properties":{"slope_pct":2.3,"start_km":45.723,"end_km":45.931,"ele_start":8.3,"ele_end":13.1,"class":"montee-faible","label":"Montée faible (2 à 4 %)","color":"#f2c418"}},{"type":"Feature","geometry":{"type":"LineString","coordinates":[[3.55989,43.40254],[3.55889,43.40166],[3.56062,43.40089],[3.56245,43.40007],[3.56373,43.39945]]},"properties":{"slope_pct":0.4,"start_km":45.931,"end_km":46.52,"ele_start":13.1,"ele_end":15.7,"class":"plat","label":"Plat (−2 à 2 %)","color":"#22a650"}},{"type":"Feature","geometry":{"type":"LineString","coordinates":[[3.56373,43.39945],[3.56376,43.39924],[3.56369,43.399],[3.56357,43.39887],[3.56345,43.39869],[3.56327,43.39854],[3.56325,43.39847],[3.56456,43.39779]]},"properties":{"slope_pct":-2.9,"start_km":46.52,"end_km":46.769,"ele_start":15.7,"ele_end":8.4,"class":"descente-legere","label":"Descente légère (−4 à −2 %)","color":"#7cb4f5"}},{"type":"Feature","geometry":{"type":"LineString","coordinates":[[3.56456,43.39779],[3.56511,43.39755],[3.56535,43.39742],[3.56554,43.39729],[3.56574,43.39708]]},"properties":{"slope_pct":-4.1,"start_km":46.769,"end_km":46.895,"ele_start":8.4,"ele_end":3.2,"class":"descente","label":"Descente (−8 à −4 %)","color":"#2563eb"}},{"type":"Feature","geometry":{"type":"LineString","coordinates":[[3.56574,43.39708],[3.56586,43.397],[3.56589,43.39692],[3.56582,43.39682],[3.56446,43.3956],[3.56398,43.39511],[3.56391,43.39507],[3.56376,43.39506],[3.56315,43.39545],[3.56292,43.39562],[3.56286,43.39565],[3.5628,43.39564],[3.56156,43.39415],[3.56009,43.39284],[3.55998,43.39276],[3.55986,43.3927],[3.55841,43.3929]]},"properties":{"slope_pct":-0.2,"start_km":46.895,"end_km":47.819,"ele_start":3.2,"ele_end":1.2,"class":"plat","label":"Plat (−2 à 2 %)","color":"#22a650"}},{"type":"Feature","geometry":{"type":"LineString","coordinates":[[3.55841,43.3929],[3.55782,43.39293],[3.55756,43.3929],[3.55679,43.39243],[3.55654,43.39223],[3.55551,43.39125]]},"properties":{"slope_pct":2.8,"start_km":47.819,"end_km":48.137,"ele_start":1.2,"ele_end":10.2,"class":"montee-faible","label":"Montée faible (2 à 4 %)","color":"#f2c418"}},{"type":"Feature","geometry":{"type":"LineString","coordinates":[[3.55551,43.39125],[3.55527,43.39107],[3.55457,43.39043],[3.55389,43.39005],[3.55331,43.38963],[3.55242,43.3887]]},"properties":{"slope_pct":-0.1,"start_km":48.137,"end_km":48.517,"ele_start":10.2,"ele_end":9.6,"class":"plat","label":"Plat (−2 à 2 %)","color":"#22a650"}},{"type":"Feature","geometry":{"type":"LineString","coordinates":[[3.55242,43.3887],[3.55175,43.38802],[3.55121,43.38762],[3.551,43.38753],[3.54976,43.38717]]},"properties":{"slope_pct":-2.8,"start_km":48.517,"end_km":48.8,"ele_start":9.6,"ele_end":1.8,"class":"descente-legere","label":"Descente légère (−4 à −2 %)","color":"#7cb4f5"}},{"type":"Feature","geometry":{"type":"LineString","coordinates":[[3.54976,43.38717],[3.5488,43.3869],[3.54849,43.38694],[3.54819,43.38707],[3.54807,43.38706],[3.54516,43.38654],[3.54462,43.38643],[3.5443,43.38633],[3.54391,43.38613]]},"properties":{"slope_pct":1.0,"start_km":48.8,"end_km":49.301,"ele_start":1.8,"ele_end":6.8,"class":"plat","label":"Plat (−2 à 2 %)","color":"#22a650"}},{"type":"Feature","geometry":{"type":"LineString","coordinates":[[3.54391,43.38613],[3.54257,43.38538]]},"properties":{"slope_pct":-2.3,"start_km":49.301,"end_km":49.438,"ele_start":6.8,"ele_end":3.7,"class":"descente-legere","label":"Descente légère (−4 à −2 %)","color":"#7cb4f5"}},{"type":"Feature","geometry":{"type":"LineString","coordinates":[[3.54257,43.38538],[3.54195,43.38504],[3.54069,43.38446],[3.54045,43.38433],[3.54105,43.38424],[3.54121,43.3842],[3.54144,43.3841],[3.54161,43.38397],[3.54204,43.38355],[3.54225,43.38339],[3.54236,43.38334],[3.54333,43.38307],[3.54346,43.38294],[3.54442,43.38269],[3.54468,43.38259],[3.546,43.38194],[3.54605,43.38189],[3.54636,43.38085],[3.54657,43.38053],[3.54678,43.38012],[3.54699,43.37983]]},"properties":{"slope_pct":-0.4,"start_km":49.438,"end_km":50.431,"ele_start":3.7,"ele_end":-0.5,"class":"plat","label":"Plat (−2 à 2 %)","color":"#22a650"}},{"type":"Feature","geometry":{"type":"LineString","coordinates":[[3.54699,43.37983],[3.54703,43.37968],[3.54692,43.37907],[3.54694,43.37901],[3.54576,43.37837],[3.54573,43.37835],[3.54565,43.3783],[3.54565,43.3783],[3.54555,43.37827],[3.54534,43.37828],[3.54523,43.37825],[3.54465,43.3779],[3.54402,43.37778],[3.54397,43.37775],[3.5439,43.3776],[3.54326,43.3772],[3.54206,43.37615],[3.54148,43.37586],[3.54128,43.37573],[3.5411,43.37558],[3.54099,43.37541],[3.54093,43.37519],[3.54086,43.37481],[3.5406,43.374]]},"properties":{"slope_pct":0.6,"start_km":50.431,"end_km":51.325,"ele_start":-0.5,"ele_end":4.8,"class":"plat","label":"Plat (−2 à 2 %)","color":"#22a650"}},{"type":"Feature","geometry":{"type":"LineString","coordinates":[[3.5406,43.374],[3.53972,43.37244],[3.53965,43.37226],[3.54039,43.37212],[3.54111,43.3719],[3.54131,43.37188],[3.54206,43.37191],[3.54223,43.3719],[3.54231,43.37186],[3.54229,43.37178],[3.54221,43.37167],[3.54202,43.37144],[3.54204,43.37139],[3.54211,43.37135],[3.54232,43.37129],[3.54253,43.37119],[3.54248,43.37112],[3.5424,43.37104],[3.54235,43.37098],[3.54232,43.37094],[3.54224,43.37086],[3.54215,43.37076],[3.54209,43.37069],[3.54202,43.37062],[3.54155,43.37002],[3.54138,43.36977],[3.54135,43.36973],[3.54125,43.36959],[3.54112,43.36935],[3.54096,43.36915],[3.54077,43.36884],[3.54069,43.36872],[3.54064,43.36863],[3.54058,43.36853],[3.54054,43.36847],[3.54033,43.36816]]},"properties":{"slope_pct":-0.5,"start_km":51.325,"end_km":52.243,"ele_start":4.8,"ele_end":0.2,"class":"plat","label":"Plat (−2 à 2 %)","color":"#22a650"}},{"type":"Feature","geometry":{"type":"LineString","coordinates":[[3.54033,43.36816],[3.54015,43.36785],[3.54005,43.36768],[3.53938,43.36781],[3.53884,43.36676],[3.53872,43.36655],[3.53852,43.36618],[3.53821,43.366],[3.53796,43.3659],[3.53785,43.3659],[3.53774,43.36593],[3.53708,43.36623],[3.53689,43.36624],[3.53677,43.36621],[3.53629,43.36568],[3.5361,43.36536],[3.53684,43.36509],[3.53765,43.36485],[3.53771,43.3648],[3.5377,43.36475],[3.53764,43.36466],[3.53751,43.36446],[3.53704,43.3639],[3.53661,43.36316],[3.53658,43.36309],[3.53646,43.36288]]},"properties":{"slope_pct":-0.0,"start_km":52.243,"end_km":53.203,"ele_start":0.2,"ele_end":0.1,"class":"plat","label":"Plat (−2 à 2 %)","color":"#22a650"}},{"type":"Feature","geometry":{"type":"LineString","coordinates":[[3.53646,43.36288],[3.5362,43.36243],[3.53584,43.36169],[3.53582,43.36148],[3.53543,43.36017],[3.53532,43.35921],[3.53521,43.35861],[3.53514,43.35839],[3.53486,43.35783],[3.53469,43.35759],[3.5345,43.35739],[3.5344,43.3574],[3.53407,43.35712],[3.53353,43.3565],[3.53331,43.35666],[3.53293,43.35683],[3.53247,43.35624]]},"properties":{"slope_pct":0.3,"start_km":53.203,"end_km":54.106,"ele_start":0.1,"ele_end":2.7,"class":"plat","label":"Plat (−2 à 2 %)","color":"#22a650"}},{"type":"Feature","geometry":{"type":"LineString","coordinates":[[3.53247,43.35624],[3.53237,43.35621],[3.53191,43.35635],[3.53187,43.35637],[3.53049,43.35697],[3.53042,43.35682],[3.53021,43.35633],[3.52996,43.35559],[3.52993,43.35551],[3.5298,43.3552],[3.52963,43.35479],[3.52961,43.35474],[3.5295,43.35463],[3.52942,43.3546],[3.52939,43.35455],[3.52941,43.35449],[3.5295,43.35445],[3.52957,43.35446],[3.52967,43.3544],[3.53086,43.35397],[3.53076,43.35385],[3.53063,43.35368],[3.53061,43.35364],[3.53078,43.35343],[3.53113,43.35299],[3.53079,43.35211]]},"properties":{"slope_pct":-0.0,"start_km":54.106,"end_km":54.942,"ele_start":2.7,"ele_end":2.5,"class":"plat","label":"Plat (−2 à 2 %)","color":"#22a650"}},{"type":"Feature","geometry":{"type":"LineString","coordinates":[[3.53079,43.35211],[3.53081,43.35205],[3.53175,43.3518],[3.53179,43.35179],[3.53187,43.35176],[3.53141,43.35079],[3.53135,43.35037],[3.5313,43.34949],[3.53126,43.34903],[3.53126,43.34893],[3.53126,43.3482],[3.53132,43.34777],[3.5315,43.34655],[3.5319,43.34457]]},"properties":{"slope_pct":-0.4,"start_km":54.942,"end_km":55.85,"ele_start":2.5,"ele_end":-0.9,"class":"plat","label":"Plat (−2 à 2 %)","color":"#22a650"}},{"type":"Feature","geometry":{"type":"LineString","coordinates":[[3.5319,43.34457],[3.53204,43.34412],[3.53238,43.3434],[3.53285,43.3426],[3.53324,43.34209],[3.53443,43.34058],[3.53624,43.33894],[3.53641,43.33874],[3.53633,43.33868],[3.53637,43.33863],[3.53641,43.33859],[3.53644,43.33854],[3.53657,43.33837],[3.53666,43.33807],[3.53669,43.33787],[3.53675,43.33747],[3.53678,43.33732],[3.53681,43.33718]]},"properties":{"slope_pct":0.1,"start_km":55.85,"end_km":56.783,"ele_start":-0.9,"ele_end":0.3,"class":"plat","label":"Plat (−2 à 2 %)","color":"#22a650"}},{"type":"Feature","geometry":{"type":"LineString","coordinates":[[3.53681,43.33718],[3.53681,43.3371],[3.53682,43.33693],[3.53683,43.33635],[3.53669,43.33577],[3.53653,43.33545],[3.53634,43.33483],[3.53605,43.33397],[3.53592,43.3337],[3.53584,43.33341],[3.53556,43.33268],[3.53549,43.33239],[3.53551,43.33223],[3.53545,43.33208],[3.53443,43.3313],[3.53414,43.33107],[3.53357,43.33054],[3.53236,43.32932]]},"properties":{"slope_pct":-0.1,"start_km":56.783,"end_km":57.761,"ele_start":0.3,"ele_end":-0.9,"class":"plat","label":"Plat (−2 à 2 %)","color":"#22a650"}},{"type":"Feature","geometry":{"type":"LineString","coordinates":[[3.53236,43.32932],[3.53213,43.32927],[3.53207,43.32891],[3.53154,43.32792],[3.5315,43.32782],[3.53117,43.32709],[3.531,43.3265],[3.53097,43.32627],[3.53108,43.32513],[3.53119,43.32456],[3.53119,43.32444],[3.53119,43.324],[3.53123,43.32307],[3.53129,43.32164],[3.53139,43.3216],[3.53173,43.32155],[3.53178,43.3215],[3.53178,43.32145],[3.53172,43.32132],[3.53153,43.32132],[3.53141,43.32136],[3.53137,43.32139],[3.53138,43.32142],[3.53143,43.32143]]},"properties":{"slope_pct":0.2,"start_km":57.761,"end_km":58.746,"ele_start":-0.9,"ele_end":0.9,"class":"plat","label":"Plat (−2 à 2 %)","color":"#22a650"}},{"type":"Feature","geometry":{"type":"LineString","coordinates":[[3.53143,43.32143],[3.5317,43.32137],[3.53198,43.32132],[3.53228,43.32126],[3.53233,43.32122],[3.53255,43.32117],[3.53331,43.32109],[3.53414,43.321],[3.53445,43.32093],[3.53454,43.3209],[3.53459,43.32085],[3.53459,43.32077],[3.53456,43.32064],[3.53434,43.32029],[3.53435,43.32027],[3.53451,43.32027],[3.53492,43.32034],[3.53512,43.32034],[3.53544,43.32046],[3.53561,43.32046],[3.53578,43.32055],[3.53583,43.32055],[3.53585,43.3205],[3.5359,43.32051],[3.53604,43.32051],[3.53614,43.32059],[3.53625,43.32064],[3.5366,43.32087],[3.53695,43.32104],[3.53715,43.32111],[3.53776,43.32122],[3.53818,43.32121],[3.53835,43.32117],[3.53852,43.32112],[3.5387,43.32103],[3.53962,43.32038],[3.53993,43.32017],[3.54028,43.31998],[3.5405,43.31989],[3.54091,43.31978]]},"properties":{"slope_pct":0.0,"start_km":58.746,"end_km":59.703,"ele_start":0.9,"ele_end":1.3,"class":"plat","label":"Plat (−2 à 2 %)","color":"#22a650"}},{"type":"Feature","geometry":{"type":"LineString","coordinates":[[3.54091,43.31978],[3.54175,43.31965],[3.54252,43.31946],[3.54309,43.31933],[3.54337,43.3193],[3.54487,43.31932],[3.54504,43.31933],[3.54549,43.31944],[3.5457,43.31938],[3.54576,43.3194],[3.5459,43.31945],[3.54595,43.31947],[3.54599,43.31944],[3.54618,43.31942],[3.54644,43.31935],[3.54649,43.31936],[3.54651,43.31931],[3.54655,43.31923],[3.54658,43.31917],[3.54816,43.3197],[3.54942,43.32008],[3.54965,43.32015],[3.54992,43.32023],[3.55021,43.32031],[3.5519,43.32084]]},"properties":{"slope_pct":-0.1,"start_km":59.703,"end_km":60.662,"ele_start":1.3,"ele_end":0.7,"class":"plat","label":"Plat (−2 à 2 %)","color":"#22a650"}},{"type":"Feature","geometry":{"type":"LineString","coordinates":[[3.5519,43.32084],[3.55195,43.32087],[3.55243,43.32102],[3.55263,43.32109],[3.55344,43.32134],[3.55424,43.32165],[3.55467,43.32186],[3.55586,43.32251],[3.55707,43.32318],[3.55838,43.3239],[3.55883,43.32414],[3.55914,43.32427],[3.5592,43.32433],[3.5594,43.32444],[3.55994,43.32471],[3.56012,43.32472],[3.56016,43.32475],[3.56024,43.32479],[3.56028,43.32481],[3.56032,43.32494],[3.56071,43.32518]]},"properties":{"slope_pct":0.1,"start_km":60.662,"end_km":61.533,"ele_start":0.7,"ele_end":1.6,"class":"plat","label":"Plat (−2 à 2 %)","color":"#22a650"}},{"type":"Feature","geometry":{"type":"LineString","coordinates":[[3.56071,43.32518],[3.5611,43.32539],[3.56159,43.32567],[3.56218,43.32597],[3.56232,43.32602],[3.56252,43.32603],[3.56256,43.32606],[3.56258,43.32613],[3.56265,43.32616],[3.56371,43.32656],[3.5642,43.32675],[3.5648,43.32699],[3.56574,43.32736],[3.56616,43.32755],[3.56661,43.32779],[3.56666,43.32781],[3.56756,43.3283],[3.56859,43.3291],[3.5703,43.33054]]},"properties":{"slope_pct":-0.1,"start_km":61.533,"end_km":62.526,"ele_start":1.6,"ele_end":0.4,"class":"plat","label":"Plat (−2 à 2 %)","color":"#22a650"}},{"type":"Feature","geometry":{"type":"LineString","coordinates":[[3.5703,43.33054],[3.57112,43.33129],[3.57203,43.33203],[3.57369,43.33342],[3.57418,43.33388],[3.57477,43.33435],[3.57506,43.33476],[3.57509,43.33484],[3.57506,43.33489],[3.57468,43.33515],[3.57452,43.33522],[3.5745,43.33525],[3.57452,43.33529],[3.57535,43.33592]]},"properties":{"slope_pct":0.0,"start_km":62.526,"end_km":63.312,"ele_start":0.4,"ele_end":0.6,"class":"plat","label":"Plat (−2 à 2 %)","color":"#22a650"}},{"type":"Feature","geometry":{"type":"LineString","coordinates":[[3.57535,43.33592],[3.57614,43.33652],[3.57733,43.33742],[3.57739,43.33742],[3.57757,43.33731],[3.57768,43.33732],[3.57809,43.33705],[3.57816,43.33706],[3.5788,43.33758],[3.57904,43.33777],[3.58156,43.33987],[3.5827,43.34078]]},"properties":{"slope_pct":0.0,"start_km":63.312,"end_km":64.18,"ele_start":0.6,"ele_end":0.9,"class":"plat","label":"Plat (−2 à 2 %)","color":"#22a650"}},{"type":"Feature","geometry":{"type":"LineString","coordinates":[[3.5827,43.34078],[3.58291,43.34099],[3.58531,43.34296],[3.58766,43.34485],[3.58939,43.34622],[3.59052,43.34714]]},"properties":{"slope_pct":-0.0,"start_km":64.18,"end_km":65.128,"ele_start":0.9,"ele_end":0.6,"class":"plat","label":"Plat (−2 à 2 %)","color":"#22a650"}},{"type":"Feature","geometry":{"type":"LineString","coordinates":[[3.59052,43.34714],[3.59055,43.34716],[3.59066,43.34727],[3.59069,43.34735],[3.59067,43.34742],[3.59062,43.34749],[3.59034,43.34769],[3.5903,43.34783],[3.59035,43.3479],[3.59058,43.34811],[3.59063,43.3483],[3.59064,43.34832],[3.59068,43.34839],[3.59236,43.34945],[3.5926,43.34978],[3.59335,43.35027],[3.59343,43.35043],[3.59354,43.35055],[3.59433,43.35105],[3.59455,43.35134],[3.59468,43.35145],[3.59556,43.35194],[3.59654,43.35254],[3.597,43.35287],[3.59748,43.35314]]},"properties":{"slope_pct":0.0,"start_km":65.128,"end_km":66.06,"ele_start":0.6,"ele_end":0.9,"class":"plat","label":"Plat (−2 à 2 %)","color":"#22a650"}},{"type":"Feature","geometry":{"type":"LineString","coordinates":[[3.59748,43.35314],[3.59757,43.35322],[3.59776,43.35352],[3.59864,43.35408],[3.59869,43.35411],[3.59982,43.35484],[3.59988,43.35513],[3.59999,43.35525],[3.60119,43.35604],[3.60141,43.35629],[3.6037,43.35778],[3.60375,43.35787],[3.60373,43.35799],[3.60375,43.35808],[3.60378,43.35814],[3.60385,43.3582],[3.60495,43.35889]]},"properties":{"slope_pct":-0.1,"start_km":66.06,"end_km":66.961,"ele_start":0.9,"ele_end":0.3,"class":"plat","label":"Plat (−2 à 2 %)","color":"#22a650"}},{"type":"Feature","geometry":{"type":"LineString","coordinates":[[3.60495,43.35889],[3.60709,43.36019],[3.6072,43.36027],[3.60723,43.36034],[3.60721,43.36041],[3.60705,43.3606],[3.60702,43.36068],[3.60703,43.36077],[3.6071,43.36087],[3.61079,43.36315],[3.61113,43.36335],[3.61205,43.36395],[3.61355,43.36487]]},"properties":{"slope_pct":0.0,"start_km":66.961,"end_km":67.957,"ele_start":0.3,"ele_end":0.7,"class":"plat","label":"Plat (−2 à 2 %)","color":"#22a650"}},{"type":"Feature","geometry":{"type":"LineString","coordinates":[[3.61355,43.36487],[3.61389,43.36503],[3.61469,43.3655],[3.61547,43.36601],[3.61574,43.36614],[3.61601,43.36635],[3.61575,43.36659],[3.61556,43.36682],[3.61573,43.36702],[3.61602,43.36719],[3.61646,43.36749],[3.61679,43.36775],[3.61716,43.3683],[3.6173,43.36846],[3.6181,43.369],[3.61923,43.36968]]},"properties":{"slope_pct":-0.1,"start_km":67.957,"end_km":68.72,"ele_start":0.7,"ele_end":0.1,"class":"plat","label":"Plat (−2 à 2 %)","color":"#22a650"}},{"type":"Feature","geometry":{"type":"LineString","coordinates":[[3.61923,43.36968],[3.62404,43.37271],[3.62402,43.37262],[3.62418,43.37242],[3.62418,43.37223],[3.62584,43.37338],[3.62764,43.3746]]},"properties":{"slope_pct":0.0,"start_km":68.72,"end_km":69.673,"ele_start":0.1,"ele_end":0.2,"class":"plat","label":"Plat (−2 à 2 %)","color":"#22a650"}},{"type":"Feature","geometry":{"type":"LineString","coordinates":[[3.62764,43.3746],[3.62897,43.37557],[3.62944,43.37587],[3.63099,43.37685],[3.63129,43.37704],[3.63195,43.37746],[3.63262,43.3779],[3.63309,43.37821],[3.63415,43.37889],[3.63426,43.37896],[3.63491,43.37936],[3.63563,43.37981]]},"properties":{"slope_pct":0.0,"start_km":69.673,"end_km":70.542,"ele_start":0.2,"ele_end":0.3,"class":"plat","label":"Plat (−2 à 2 %)","color":"#22a650"}},{"type":"Feature","geometry":{"type":"LineString","coordinates":[[3.63563,43.37981],[3.63639,43.38028],[3.63715,43.38076],[3.63785,43.3812],[3.63867,43.38171],[3.63943,43.38218],[3.64019,43.38265],[3.64092,43.3831],[3.64167,43.38357],[3.64241,43.38404],[3.64316,43.3845],[3.64391,43.38498],[3.64468,43.38546]]},"properties":{"slope_pct":-0.1,"start_km":70.542,"end_km":71.506,"ele_start":0.3,"ele_end":-0.7,"class":"plat","label":"Plat (−2 à 2 %)","color":"#22a650"}},{"type":"Feature","geometry":{"type":"LineString","coordinates":[[3.64468,43.38546],[3.6454,43.38591],[3.64615,43.38638],[3.6469,43.38685],[3.6475,43.38727],[3.64775,43.38744],[3.64826,43.38786],[3.64834,43.38791],[3.64969,43.38864],[3.64983,43.38872],[3.65025,43.38895],[3.65109,43.3894],[3.65145,43.38959],[3.65181,43.38978],[3.65218,43.38998],[3.65219,43.38999],[3.65231,43.39004],[3.65354,43.39053]]},"properties":{"slope_pct":0.1,"start_km":71.506,"end_km":72.421,"ele_start":-0.7,"ele_end":-0.1,"class":"plat","label":"Plat (−2 à 2 %)","color":"#22a650"}},{"type":"Feature","geometry":{"type":"LineString","coordinates":[[3.65354,43.39053],[3.65463,43.39096],[3.65567,43.39138],[3.65668,43.39178],[3.65736,43.39204],[3.6575,43.3921],[3.65794,43.39227],[3.65905,43.39271],[3.65926,43.39279],[3.66048,43.39327],[3.66051,43.39328],[3.66097,43.39328],[3.66143,43.39329],[3.66148,43.39329],[3.66158,43.3933],[3.6618,43.3931],[3.66191,43.39309],[3.66202,43.3931],[3.66207,43.39312],[3.66255,43.39331],[3.66258,43.39332],[3.6626,43.39329],[3.66269,43.39331],[3.66285,43.39336],[3.66335,43.39352]]},"properties":{"slope_pct":-0.0,"start_km":72.421,"end_km":73.316,"ele_start":-0.1,"ele_end":-0.1,"class":"plat","label":"Plat (−2 à 2 %)","color":"#22a650"}},{"type":"Feature","geometry":{"type":"LineString","coordinates":[[3.66335,43.39352],[3.66341,43.39354],[3.66355,43.39359],[3.66374,43.39365],[3.6638,43.39364],[3.664,43.39357],[3.66452,43.39363],[3.66479,43.39366],[3.66544,43.39374],[3.66551,43.39376],[3.66579,43.39387],[3.66602,43.3939],[3.66699,43.39403],[3.66783,43.39412],[3.66849,43.39419],[3.66954,43.39427],[3.66959,43.39427],[3.67014,43.39415],[3.67099,43.39392],[3.67123,43.39386],[3.67138,43.39382],[3.67144,43.3938],[3.67161,43.39373],[3.67237,43.39333]]},"properties":{"slope_pct":0.3,"start_km":73.316,"end_km":74.083,"ele_start":-0.1,"ele_end":2.5,"class":"plat","label":"Plat (−2 à 2 %)","color":"#22a650"}},{"type":"Feature","geometry":{"type":"LineString","coordinates":[[3.67237,43.39333],[3.67358,43.39267],[3.67385,43.3926],[3.67448,43.39261],[3.67482,43.39268]]},"properties":{"slope_pct":3.3,"start_km":74.083,"end_km":74.307,"ele_start":2.5,"ele_end":9.9,"class":"montee-faible","label":"Montée faible (2 à 4 %)","color":"#f2c418"}},{"type":"Feature","geometry":{"type":"LineString","coordinates":[[3.67482,43.39268],[3.67491,43.39269],[3.67513,43.39279],[3.6756,43.39307],[3.67584,43.39322]]},"properties":{"slope_pct":4.2,"start_km":74.307,"end_km":74.411,"ele_start":9.9,"ele_end":14.3,"class":"montee-moderee","label":"Montée modérée (4 à 7 %)","color":"#f59e0b"}},{"type":"Feature","geometry":{"type":"LineString","coordinates":[[3.67584,43.39322],[3.67628,43.39356],[3.67683,43.39412]]},"properties":{"slope_pct":3.6,"start_km":74.411,"end_km":74.539,"ele_start":14.3,"ele_end":18.9,"class":"montee-faible","label":"Montée faible (2 à 4 %)","color":"#f2c418"}},{"type":"Feature","geometry":{"type":"LineString","coordinates":[[3.67683,43.39412],[3.67694,43.39423],[3.67702,43.39433],[3.67708,43.39442],[3.67715,43.3945],[3.67718,43.39449],[3.6774,43.39442],[3.67743,43.39441],[3.67796,43.39425]]},"properties":{"slope_pct":-0.5,"start_km":74.539,"end_km":74.66,"ele_start":18.9,"ele_end":18.3,"class":"plat","label":"Plat (−2 à 2 %)","color":"#22a650"}},{"type":"Feature","geometry":{"type":"LineString","coordinates":[[3.67796,43.39425],[3.67812,43.3942],[3.67853,43.39408],[3.67911,43.39395],[3.67967,43.39381]]},"properties":{"slope_pct":-2.7,"start_km":74.66,"end_km":74.806,"ele_start":18.3,"ele_end":14.3,"class":"descente-legere","label":"Descente légère (−4 à −2 %)","color":"#7cb4f5"}},{"type":"Feature","geometry":{"type":"LineString","coordinates":[[3.67967,43.39381],[3.67972,43.3938],[3.67975,43.39375],[3.67988,43.39371],[3.68005,43.39374],[3.68011,43.39374],[3.68035,43.39373],[3.68182,43.3938]]},"properties":{"slope_pct":-4.4,"start_km":74.806,"end_km":74.986,"ele_start":14.3,"ele_end":6.3,"class":"descente","label":"Descente (−8 à −4 %)","color":"#2563eb"}},{"type":"Feature","geometry":{"type":"LineString","coordinates":[[3.68182,43.3938],[3.68264,43.39383],[3.68286,43.39379],[3.68306,43.39374],[3.68378,43.39342],[3.6844,43.39314],[3.6849,43.39296],[3.68542,43.39281],[3.6859,43.39264],[3.68616,43.39259],[3.68666,43.3926],[3.68916,43.39244],[3.68991,43.3924],[3.69011,43.3924],[3.69036,43.39242],[3.69083,43.39256]]},"properties":{"slope_pct":-0.4,"start_km":74.986,"end_km":75.751,"ele_start":6.3,"ele_end":3.3,"class":"plat","label":"Plat (−2 à 2 %)","color":"#22a650"}},{"type":"Feature","geometry":{"type":"LineString","coordinates":[[3.69083,43.39256],[3.69106,43.39264],[3.69133,43.39277],[3.69139,43.39281],[3.69133,43.39277],[3.6913,43.39281],[3.69177,43.39314],[3.69188,43.39327],[3.69221,43.39373],[3.6924,43.39402]]},"properties":{"slope_pct":2.3,"start_km":75.751,"end_km":75.979,"ele_start":3.3,"ele_end":8.6,"class":"montee-faible","label":"Montée faible (2 à 4 %)","color":"#f2c418"}},{"type":"Feature","geometry":{"type":"LineString","coordinates":[[3.6924,43.39402],[3.69252,43.39417],[3.69265,43.39427],[3.69287,43.39437],[3.69387,43.39469]]},"properties":{"slope_pct":-4.1,"start_km":75.979,"end_km":76.123,"ele_start":8.6,"ele_end":2.8,"class":"descente","label":"Descente (−8 à −4 %)","color":"#2563eb"}},{"type":"Feature","geometry":{"type":"LineString","coordinates":[[3.69387,43.39469],[3.69408,43.39476],[3.69445,43.39488],[3.69463,43.39492],[3.69474,43.39497],[3.69481,43.39502],[3.69494,43.39502],[3.69504,43.39509]]},"properties":{"slope_pct":-2.0,"start_km":76.123,"end_km":76.229,"ele_start":2.8,"ele_end":0.6,"class":"descente-legere","label":"Descente légère (−4 à −2 %)","color":"#7cb4f5"}},{"type":"Feature","geometry":{"type":"LineString","coordinates":[[3.69504,43.39509],[3.69505,43.39516],[3.6951,43.39522],[3.69516,43.39547],[3.69523,43.39561],[3.69534,43.39582],[3.69571,43.39633],[3.69608,43.39717],[3.69613,43.39732],[3.69633,43.39761],[3.69662,43.3978],[3.69669,43.39795],[3.69685,43.39837],[3.69687,43.39848],[3.69674,43.399],[3.69659,43.39954],[3.69656,43.39957],[3.69652,43.3996],[3.69648,43.39962],[3.69653,43.39971],[3.69656,43.39978],[3.69669,43.40041],[3.6968,43.40077],[3.69681,43.40081],[3.69701,43.40148],[3.69703,43.40167],[3.6971,43.40166],[3.69714,43.40172],[3.69738,43.40174],[3.69753,43.40174],[3.69775,43.40177],[3.69779,43.40178],[3.69869,43.40181]]},"properties":{"slope_pct":0.4,"start_km":76.229,"end_km":77.144,"ele_start":0.6,"ele_end":3.9,"class":"plat","label":"Plat (−2 à 2 %)","color":"#22a650"}},{"type":"Feature","geometry":{"type":"LineString","coordinates":[[3.69869,43.40181],[3.69866,43.40263],[3.69864,43.40299],[3.69843,43.40387],[3.69829,43.40442],[3.69796,43.40577],[3.69887,43.40617],[3.69899,43.40637],[3.6989,43.40652],[3.69882,43.40661],[3.69875,43.40669],[3.69867,43.40673],[3.69841,43.40675],[3.6978,43.40646],[3.69769,43.40696],[3.69725,43.40888]]},"properties":{"slope_pct":0.1,"start_km":77.144,"end_km":78.101,"ele_start":3.9,"ele_end":4.6,"class":"plat","label":"Plat (−2 à 2 %)","color":"#22a650"}},{"type":"Feature","geometry":{"type":"LineString","coordinates":[[3.69725,43.40888],[3.69696,43.40882],[3.69659,43.40985],[3.69654,43.41],[3.6975,43.41019],[3.6987,43.41043]]},"properties":{"slope_pct":0.0,"start_km":78.101,"end_km":78.442,"ele_start":4.6,"ele_end":4.8,"class":"plat","label":"Plat (−2 à 2 %)","color":"#22a650"}},{"type":"Feature","geometry":{"type":"LineString","coordinates":[[3.6987,43.41043],[3.69969,43.41061],[3.70062,43.41079]]},"properties":{"slope_pct":-2.2,"start_km":78.442,"end_km":78.602,"ele_start":4.8,"ele_end":1.3,"class":"descente-legere","label":"Descente légère (−4 à −2 %)","color":"#7cb4f5"}},{"type":"Feature","geometry":{"type":"LineString","coordinates":[[3.70062,43.41079],[3.70062,43.41064],[3.70063,43.4105],[3.70063,43.41035],[3.70064,43.41019],[3.70067,43.40891],[3.7007,43.40872],[3.7007,43.40869],[3.70068,43.40858],[3.70068,43.40849],[3.70064,43.40843],[3.70066,43.40807],[3.7007,43.40807],[3.70072,43.40799],[3.70074,43.40795],[3.70069,43.40785],[3.70074,43.40778],[3.7008,43.40776],[3.70092,43.40777],[3.701,43.40786],[3.70116,43.40797],[3.70129,43.40808],[3.70172,43.40827],[3.70234,43.40855],[3.70287,43.40879],[3.70299,43.40884],[3.70323,43.40889],[3.70343,43.40897],[3.70349,43.40895],[3.70355,43.40896],[3.70361,43.40902],[3.70357,43.40908],[3.7038,43.40911],[3.70397,43.40923],[3.70448,43.40946],[3.70469,43.40954],[3.70475,43.40946],[3.70485,43.40946],[3.70586,43.40991]]},"properties":{"slope_pct":-0.1,"start_km":78.602,"end_km":79.451,"ele_start":1.3,"ele_end":0.4,"class":"plat","label":"Plat (−2 à 2 %)","color":"#22a650"}},{"type":"Feature","geometry":{"type":"LineString","coordinates":[[3.70586,43.40991],[3.71643,43.41478]]},"properties":{"slope_pct":-0.0,"start_km":79.451,"end_km":80.462,"ele_start":0.4,"ele_end":-0.1,"class":"plat","label":"Plat (−2 à 2 %)","color":"#22a650"}},{"type":"Feature","geometry":{"type":"LineString","coordinates":[[3.71643,43.41478],[3.71653,43.41482],[3.71852,43.41575],[3.71871,43.41581],[3.7192,43.41603],[3.71925,43.41607],[3.7226,43.41761],[3.72276,43.41771],[3.72283,43.4178],[3.72301,43.418],[3.72315,43.41804],[3.72318,43.41826],[3.72306,43.41835],[3.72311,43.41856],[3.72311,43.41869],[3.72292,43.419],[3.72226,43.42075]]},"properties":{"slope_pct":0.1,"start_km":80.462,"end_km":81.435,"ele_start":-0.1,"ele_end":0.7,"class":"plat","label":"Plat (−2 à 2 %)","color":"#22a650"}},{"type":"Feature","geometry":{"type":"LineString","coordinates":[[3.72226,43.42075],[3.72229,43.42084],[3.72257,43.42089],[3.7227,43.42087],[3.72272,43.42088],[3.72273,43.42099],[3.72273,43.42104],[3.72246,43.42175],[3.7224,43.422],[3.72239,43.42205],[3.72226,43.42253],[3.72226,43.42256],[3.72234,43.42262],[3.72258,43.42261],[3.723,43.42264],[3.72323,43.42261],[3.72365,43.42268],[3.72389,43.42277],[3.72423,43.42283],[3.72513,43.42301],[3.72545,43.42304],[3.72885,43.42371],[3.72912,43.42399],[3.72983,43.42414],[3.72997,43.42423]]},"properties":{"slope_pct":-0.1,"start_km":81.435,"end_km":82.338,"ele_start":0.7,"ele_end":-0.4,"class":"plat","label":"Plat (−2 à 2 %)","color":"#22a650"}},{"type":"Feature","geometry":{"type":"LineString","coordinates":[[3.72997,43.42423],[3.72967,43.42459],[3.72966,43.42469],[3.72979,43.42469],[3.73021,43.42491],[3.73033,43.42497],[3.73096,43.42532],[3.73127,43.42544],[3.73156,43.4255],[3.73171,43.42556],[3.73183,43.42554],[3.73233,43.42553],[3.73281,43.42558],[3.73323,43.4257],[3.7334,43.42576],[3.73402,43.42603],[3.73458,43.42627],[3.73481,43.42637],[3.73525,43.42654],[3.73578,43.42673],[3.73677,43.42716],[3.73705,43.42739],[3.73727,43.42764],[3.73752,43.42799],[3.73767,43.42819],[3.73777,43.42828],[3.73833,43.42861],[3.73837,43.42863],[3.73901,43.42916]]},"properties":{"slope_pct":-0.3,"start_km":82.338,"end_km":83.334,"ele_start":-0.4,"ele_end":-3.6,"class":"plat","label":"Plat (−2 à 2 %)","color":"#22a650"}},{"type":"Feature","geometry":{"type":"LineString","coordinates":[[3.73901,43.42916],[3.73912,43.42928],[3.73952,43.43008],[3.73977,43.43049],[3.73997,43.43074],[3.74,43.43087],[3.73998,43.43098],[3.73986,43.43128],[3.7399,43.43144],[3.73999,43.4316],[3.74018,43.43176],[3.74073,43.43206],[3.74131,43.43244],[3.74176,43.43267],[3.74203,43.43286],[3.74363,43.43422],[3.7438,43.43437],[3.74387,43.43446],[3.74398,43.4346],[3.74408,43.4348],[3.74398,43.43552],[3.74398,43.43579],[3.74403,43.43603],[3.744,43.43619],[3.74409,43.43627],[3.74418,43.43656]]},"properties":{"slope_pct":0.3,"start_km":83.334,"end_km":84.316,"ele_start":-3.6,"ele_end":-0.3,"class":"plat","label":"Plat (−2 à 2 %)","color":"#22a650"}},{"type":"Feature","geometry":{"type":"LineString","coordinates":[[3.74418,43.43656],[3.74471,43.43747],[3.74549,43.43875],[3.74561,43.43899],[3.7457,43.43913],[3.74591,43.43935],[3.74633,43.43968],[3.74687,43.44002],[3.74714,43.44015],[3.7473,43.44023],[3.74746,43.44033],[3.74784,43.44058],[3.74791,43.44063],[3.74829,43.44094],[3.7486,43.44114],[3.7487,43.44118],[3.74879,43.44113],[3.74886,43.44116],[3.74912,43.4409],[3.74929,43.44064],[3.74943,43.44051],[3.74984,43.44011],[3.75003,43.44007],[3.75016,43.44009],[3.75038,43.44026],[3.75049,43.44036],[3.75102,43.44084],[3.75128,43.44107]]},"properties":{"slope_pct":0.0,"start_km":84.316,"end_km":85.286,"ele_start":-0.3,"ele_end":0.1,"class":"plat","label":"Plat (−2 à 2 %)","color":"#22a650"}},{"type":"Feature","geometry":{"type":"LineString","coordinates":[[3.75128,43.44107],[3.7516,43.44129],[3.7519,43.44147],[3.75295,43.44211],[3.75304,43.44212],[3.75314,43.44206],[3.75335,43.44187],[3.75357,43.44169],[3.75434,43.44146],[3.75439,43.44144],[3.75441,43.44148],[3.75445,43.44154],[3.7552,43.44278],[3.75524,43.44285],[3.75568,43.4435],[3.75592,43.44361],[3.75628,43.44378],[3.75679,43.44399],[3.75795,43.4442],[3.75833,43.44426],[3.75834,43.44414],[3.75834,43.44399],[3.75834,43.44389],[3.75839,43.44393],[3.75873,43.44406]]},"properties":{"slope_pct":0.1,"start_km":85.286,"end_km":86.169,"ele_start":0.1,"ele_end":0.7,"class":"plat","label":"Plat (−2 à 2 %)","color":"#22a650"}},{"type":"Feature","geometry":{"type":"LineString","coordinates":[[3.75873,43.44406],[3.75889,43.44411],[3.75908,43.44415],[3.75915,43.44418],[3.75922,43.44408],[3.75916,43.44368],[3.75907,43.44318],[3.75907,43.44317],[3.75884,43.44225],[3.75886,43.44196],[3.759,43.44151],[3.75905,43.44134],[3.75906,43.4413],[3.75918,43.44094],[3.75937,43.44053],[3.75943,43.44041],[3.75948,43.44016],[3.75977,43.43951],[3.75968,43.43949],[3.75962,43.43947],[3.75998,43.4386],[3.76012,43.43816],[3.76021,43.43802],[3.76054,43.43769],[3.76052,43.43753],[3.76045,43.43742],[3.76049,43.4374],[3.76059,43.43736],[3.76076,43.43723],[3.7609,43.43719],[3.76097,43.43715],[3.761,43.43712],[3.76107,43.43717],[3.76126,43.43721]]},"properties":{"slope_pct":-0.0,"start_km":86.169,"end_km":87.076,"ele_start":0.7,"ele_end":0.5,"class":"plat","label":"Plat (−2 à 2 %)","color":"#22a650"}},{"type":"Feature","geometry":{"type":"LineString","coordinates":[[3.76126,43.43721],[3.76143,43.4372],[3.76172,43.43711],[3.76271,43.43655],[3.7633,43.43618],[3.76338,43.43607],[3.76334,43.43595],[3.76322,43.43588],[3.76277,43.43592],[3.76277,43.43586],[3.76277,43.43583],[3.76276,43.43577],[3.76486,43.43567],[3.76521,43.4357],[3.76585,43.43567],[3.76812,43.43556],[3.76877,43.4355],[3.77037,43.43542]]},"properties":{"slope_pct":-0.2,"start_km":87.076,"end_km":87.989,"ele_start":0.5,"ele_end":-0.9,"class":"plat","label":"Plat (−2 à 2 %)","color":"#22a650"}},{"type":"Feature","geometry":{"type":"LineString","coordinates":[[3.77037,43.43542],[3.77058,43.43541],[3.7708,43.43535],[3.77111,43.43513],[3.77126,43.43512],[3.77134,43.43513],[3.77146,43.43516],[3.77158,43.4353],[3.77184,43.43534],[3.77295,43.43529],[3.77383,43.43521],[3.77397,43.4352],[3.7741,43.43515],[3.77422,43.43514],[3.77432,43.43513],[3.77441,43.43519],[3.7745,43.4352],[3.77502,43.43521],[3.77591,43.43527],[3.77643,43.43532],[3.77669,43.43535],[3.7773,43.43541],[3.77764,43.43546],[3.778,43.43534],[3.77808,43.43535],[3.77815,43.43537],[3.77824,43.43539],[3.77833,43.43559]]},"properties":{"slope_pct":0.2,"start_km":87.989,"end_km":88.679,"ele_start":-0.9,"ele_end":0.4,"class":"plat","label":"Plat (−2 à 2 %)","color":"#22a650"}},{"type":"Feature","geometry":{"type":"LineString","coordinates":[[3.77833,43.43559],[3.77846,43.43567],[3.779,43.43595],[3.78249,43.43756]]},"properties":{"slope_pct":-0.2,"start_km":88.679,"end_km":89.08,"ele_start":0.4,"ele_end":-0.3,"class":"plat","label":"Plat (−2 à 2 %)","color":"#22a650"}},{"type":"Feature","geometry":{"type":"LineString","coordinates":[[3.78249,43.43756],[3.78972,43.44089],[3.79019,43.44101],[3.7911,43.44109],[3.79127,43.4411],[3.7914,43.44104],[3.79148,43.44093],[3.79156,43.44093],[3.79167,43.44094],[3.79175,43.44104],[3.79205,43.44125]]},"properties":{"slope_pct":0.0,"start_km":89.08,"end_km":89.988,"ele_start":-0.3,"ele_end":-0.0,"class":"plat","label":"Plat (−2 à 2 %)","color":"#22a650"}},{"type":"Feature","geometry":{"type":"LineString","coordinates":[[3.79205,43.44125],[3.79206,43.44131],[3.79205,43.44138],[3.79196,43.44144],[3.79175,43.44165],[3.79179,43.44191],[3.79184,43.44203],[3.79203,43.44225],[3.79252,43.44266],[3.7928,43.44292],[3.79319,43.44335],[3.79337,43.44355],[3.7974,43.44836]]},"properties":{"slope_pct":-0.1,"start_km":89.988,"end_km":90.921,"ele_start":-0.0,"ele_end":-0.5,"class":"plat","label":"Plat (−2 à 2 %)","color":"#22a650"}},{"type":"Feature","geometry":{"type":"LineString","coordinates":[[3.7974,43.44836],[3.79788,43.44879],[3.7982,43.44904],[3.79861,43.44931],[3.79911,43.44958],[3.80666,43.4531]]},"properties":{"slope_pct":-0.2,"start_km":90.921,"end_km":91.839,"ele_start":-0.5,"ele_end":-1.9,"class":"plat","label":"Plat (−2 à 2 %)","color":"#22a650"}},{"type":"Feature","geometry":{"type":"LineString","coordinates":[[3.80666,43.4531],[3.81072,43.45515],[3.81105,43.45529],[3.81114,43.45531],[3.81145,43.45552],[3.81437,43.457],[3.81494,43.45734],[3.81578,43.45791]]},"properties":{"slope_pct":0.1,"start_km":91.839,"end_km":92.751,"ele_start":-1.9,"ele_end":-0.9,"class":"plat","label":"Plat (−2 à 2 %)","color":"#22a650"}},{"type":"Feature","geometry":{"type":"LineString","coordinates":[[3.81578,43.45791],[3.8175,43.45912],[3.81829,43.45966],[3.81893,43.46019],[3.81905,43.46033],[3.81929,43.46066],[3.81943,43.46091],[3.8196,43.46146],[3.81965,43.46189],[3.81962,43.46222],[3.81956,43.46248],[3.81943,43.46284],[3.8194,43.46291],[3.81943,43.46296],[3.81914,43.46349],[3.81875,43.46392],[3.81861,43.46401],[3.81849,43.46406],[3.81823,43.46426]]},"properties":{"slope_pct":0.1,"start_km":92.751,"end_km":93.61,"ele_start":-0.9,"ele_end":-0.2,"class":"plat","label":"Plat (−2 à 2 %)","color":"#22a650"}},{"type":"Feature","geometry":{"type":"LineString","coordinates":[[3.81823,43.46426],[3.8182,43.46439],[3.81829,43.4646],[3.82187,43.46814],[3.82368,43.46983]]},"properties":{"slope_pct":-0.3,"start_km":93.61,"end_km":94.376,"ele_start":-0.2,"ele_end":-2.3,"class":"plat","label":"Plat (−2 à 2 %)","color":"#22a650"}},{"type":"Feature","geometry":{"type":"LineString","coordinates":[[3.82368,43.46983],[3.82632,43.47222],[3.82799,43.47373]]},"properties":{"slope_pct":0.1,"start_km":94.376,"end_km":94.932,"ele_start":-2.3,"ele_end":-1.7,"class":"plat","label":"Plat (−2 à 2 %)","color":"#22a650"}},{"type":"Feature","geometry":{"type":"LineString","coordinates":[[3.82799,43.47373],[3.82873,43.4744],[3.8346,43.47973]]},"properties":{"slope_pct":-0.0,"start_km":94.932,"end_km":95.786,"ele_start":-1.7,"ele_end":-2.0,"class":"plat","label":"Plat (−2 à 2 %)","color":"#22a650"}},{"type":"Feature","geometry":{"type":"LineString","coordinates":[[3.8346,43.47973],[3.8384,43.48323],[3.83872,43.48342],[3.84041,43.48499],[3.84145,43.48589]]},"properties":{"slope_pct":-0.0,"start_km":95.786,"end_km":96.666,"ele_start":-2.0,"ele_end":-2.1,"class":"plat","label":"Plat (−2 à 2 %)","color":"#22a650"}},{"type":"Feature","geometry":{"type":"LineString","coordinates":[[3.84145,43.48589],[3.84728,43.49119],[3.84778,43.49173],[3.84807,43.49195]]},"properties":{"slope_pct":0.0,"start_km":96.666,"end_km":97.526,"ele_start":-2.1,"ele_end":-1.8,"class":"plat","label":"Plat (−2 à 2 %)","color":"#22a650"}},{"type":"Feature","geometry":{"type":"LineString","coordinates":[[3.84807,43.49195],[3.85485,43.49721]]},"properties":{"slope_pct":0.0,"start_km":97.526,"end_km":98.328,"ele_start":-1.8,"ele_end":-1.5,"class":"plat","label":"Plat (−2 à 2 %)","color":"#22a650"}},{"type":"Feature","geometry":{"type":"LineString","coordinates":[[3.85485,43.49721],[3.85862,43.50009],[3.85886,43.50028],[3.86246,43.50292]]},"properties":{"slope_pct":-0.0,"start_km":98.328,"end_km":99.211,"ele_start":-1.5,"ele_end":-1.7,"class":"plat","label":"Plat (−2 à 2 %)","color":"#22a650"}},{"type":"Feature","geometry":{"type":"LineString","coordinates":[[3.86246,43.50292],[3.86782,43.50718],[3.86951,43.50848]]},"properties":{"slope_pct":0.1,"start_km":99.211,"end_km":100.051,"ele_start":-1.7,"ele_end":-1.1,"class":"plat","label":"Plat (−2 à 2 %)","color":"#22a650"}},{"type":"Feature","geometry":{"type":"LineString","coordinates":[[3.86951,43.50848],[3.86975,43.50866],[3.87553,43.51302]]},"properties":{"slope_pct":0.0,"start_km":100.051,"end_km":100.751,"ele_start":-1.1,"ele_end":-1.1,"class":"plat","label":"Plat (−2 à 2 %)","color":"#22a650"}},{"type":"Feature","geometry":{"type":"LineString","coordinates":[[3.87553,43.51302],[3.8787,43.51547],[3.8794,43.51593],[3.8798,43.51616],[3.8803,43.51645],[3.88042,43.5165],[3.88065,43.5166],[3.88088,43.51671],[3.88154,43.51696],[3.88191,43.51707],[3.88209,43.51713]]},"properties":{"slope_pct":-0.1,"start_km":100.751,"end_km":101.456,"ele_start":-1.1,"ele_end":-1.5,"class":"plat","label":"Plat (−2 à 2 %)","color":"#22a650"}},{"type":"Feature","geometry":{"type":"LineString","coordinates":[[3.88209,43.51713],[3.88274,43.51729],[3.88703,43.51816],[3.89231,43.52014]]},"properties":{"slope_pct":-0.0,"start_km":101.456,"end_km":102.35,"ele_start":-1.5,"ele_end":-1.6,"class":"plat","label":"Plat (−2 à 2 %)","color":"#22a650"}},{"type":"Feature","geometry":{"type":"LineString","coordinates":[[3.89231,43.52014],[3.89788,43.52317],[3.89888,43.52377]]},"properties":{"slope_pct":0.0,"start_km":102.35,"end_km":103.016,"ele_start":-1.6,"ele_end":-1.3,"class":"plat","label":"Plat (−2 à 2 %)","color":"#22a650"}},{"type":"Feature","geometry":{"type":"LineString","coordinates":[[3.89888,43.52377],[3.89909,43.52389],[3.90412,43.52665]]},"properties":{"slope_pct":0.0,"start_km":103.016,"end_km":103.547,"ele_start":-1.3,"ele_end":-1.2,"class":"plat","label":"Plat (−2 à 2 %)","color":"#22a650"}},{"type":"Feature","geometry":{"type":"LineString","coordinates":[[3.90412,43.52665],[3.90916,43.52942],[3.90951,43.52954],[3.90981,43.52967],[3.91299,43.53144]]},"properties":{"slope_pct":0.1,"start_km":103.547,"end_km":104.439,"ele_start":-1.2,"ele_end":-0.6,"class":"plat","label":"Plat (−2 à 2 %)","color":"#22a650"}},{"type":"Feature","geometry":{"type":"LineString","coordinates":[[3.91299,43.53144],[3.91407,43.53204],[3.91503,43.53246],[3.91614,43.53277],[3.91714,43.53324],[3.91748,43.53337],[3.91731,43.53351],[3.91749,43.53368],[3.91743,43.53371],[3.91755,43.53378],[3.91768,43.53383],[3.91775,43.53383],[3.91781,43.53388],[3.91794,43.5339],[3.91804,43.53394],[3.91815,43.53412],[3.9182,43.53417],[3.91834,43.53422],[3.91879,43.53432],[3.91904,43.53431],[3.91912,43.53432],[3.9188,43.5345],[3.91846,43.53468],[3.9183,43.53475],[3.91763,43.53511],[3.91732,43.53524],[3.91627,43.53558]]},"properties":{"slope_pct":0.0,"start_km":104.439,"end_km":105.346,"ele_start":-0.6,"ele_end":-0.5,"class":"plat","label":"Plat (−2 à 2 %)","color":"#22a650"}},{"type":"Feature","geometry":{"type":"LineString","coordinates":[[3.91627,43.53558],[3.91529,43.53583],[3.91467,43.53594],[3.91415,43.53603],[3.91344,43.53609],[3.91338,43.5361],[3.91325,43.5361],[3.91319,43.5361],[3.90847,43.53604],[3.90762,43.53608],[3.90696,43.53618],[3.90635,43.53635],[3.90569,43.5366]]},"properties":{"slope_pct":0.0,"start_km":105.346,"end_km":106.218,"ele_start":-0.5,"ele_end":-0.2,"class":"plat","label":"Plat (−2 à 2 %)","color":"#22a650"}},{"type":"Feature","geometry":{"type":"LineString","coordinates":[[3.90569,43.5366],[3.90533,43.53679],[3.90493,43.53704],[3.9041,43.5377],[3.90301,43.53867],[3.90051,43.5408],[3.90021,43.54115],[3.89985,43.54146],[3.89946,43.54192],[3.89925,43.54209],[3.89858,43.54258]]},"properties":{"slope_pct":0.1,"start_km":106.218,"end_km":107.099,"ele_start":-0.2,"ele_end":0.2,"class":"plat","label":"Plat (−2 à 2 %)","color":"#22a650"}},{"type":"Feature","geometry":{"type":"LineString","coordinates":[[3.89858,43.54258],[3.89822,43.54295],[3.89773,43.54367],[3.89756,43.54406],[3.89742,43.54475],[3.89731,43.54564],[3.89721,43.54764],[3.89717,43.54778],[3.8972,43.54835],[3.89732,43.54923],[3.89781,43.5511]]},"properties":{"slope_pct":0.0,"start_km":107.099,"end_km":108.073,"ele_start":0.2,"ele_end":0.3,"class":"plat","label":"Plat (−2 à 2 %)","color":"#22a650"}},{"type":"Feature","geometry":{"type":"LineString","coordinates":[[3.89781,43.5511],[3.89805,43.55181],[3.89687,43.5517],[3.89677,43.55173],[3.89674,43.55183],[3.89716,43.55426],[3.8973,43.55526],[3.89726,43.55557],[3.89719,43.5558],[3.89692,43.5564],[3.89679,43.55667],[3.89667,43.55683],[3.89657,43.55691],[3.89673,43.55708],[3.89682,43.55735]]},"properties":{"slope_pct":0.0,"start_km":108.073,"end_km":108.902,"ele_start":0.3,"ele_end":0.7,"class":"plat","label":"Plat (−2 à 2 %)","color":"#22a650"}},{"type":"Feature","geometry":{"type":"LineString","coordinates":[[3.89682,43.55735],[3.89682,43.55744],[3.89675,43.55767],[3.89675,43.55772],[3.89668,43.55806],[3.8957,43.56198],[3.89599,43.56288],[3.89615,43.56337],[3.89653,43.56456],[3.89657,43.56462],[3.89676,43.56474],[3.89668,43.56475],[3.89646,43.56477],[3.89673,43.56556]]},"properties":{"slope_pct":0.1,"start_km":108.902,"end_km":109.862,"ele_start":0.7,"ele_end":2.1,"class":"plat","label":"Plat (−2 à 2 %)","color":"#22a650"}},{"type":"Feature","geometry":{"type":"LineString","coordinates":[[3.89673,43.56556],[3.8969,43.56607],[3.89711,43.5668],[3.89726,43.56775],[3.89763,43.56925],[3.89809,43.57049],[3.89813,43.57053],[3.89854,43.57014],[3.8986,43.57016],[3.89884,43.57027],[3.89899,43.57058],[3.89907,43.57066],[3.89933,43.5708],[3.89932,43.57084],[3.89927,43.57086],[3.899,43.5707],[3.89893,43.57073],[3.89883,43.57069],[3.89875,43.57065],[3.89847,43.57081],[3.89819,43.57106],[3.89813,43.57124],[3.89815,43.57145],[3.89818,43.57152],[3.89833,43.5716]]},"properties":{"slope_pct":0.2,"start_km":109.862,"end_km":110.775,"ele_start":2.1,"ele_end":4.0,"class":"plat","label":"Plat (−2 à 2 %)","color":"#22a650"}},{"type":"Feature","geometry":{"type":"LineString","coordinates":[[3.89833,43.5716],[3.8983,43.57164],[3.89816,43.57176],[3.89806,43.57185],[3.89801,43.57192],[3.89796,43.57196],[3.89782,43.57209],[3.89773,43.57231],[3.89771,43.57306],[3.89782,43.57361],[3.89803,43.57404],[3.89821,43.57426],[3.89853,43.57451],[3.89873,43.57464],[3.89888,43.57465],[3.89895,43.57462],[3.89929,43.57433],[3.89937,43.57435],[3.8996,43.57453],[3.89966,43.57456],[3.89977,43.57458],[3.89997,43.57467],[3.90005,43.57471],[3.90024,43.57495],[3.90047,43.57538],[3.90097,43.57576],[3.90107,43.5759],[3.90079,43.57609],[3.90081,43.57614],[3.90122,43.57651],[3.90287,43.57794]]},"properties":{"slope_pct":0.2,"start_km":110.775,"end_km":111.745,"ele_start":4.0,"ele_end":5.9,"class":"plat","label":"Plat (−2 à 2 %)","color":"#22a650"}},{"type":"Feature","geometry":{"type":"LineString","coordinates":[[3.90287,43.57794],[3.90388,43.57878],[3.90414,43.57894],[3.90444,43.57909],[3.90489,43.57925],[3.90695,43.58021],[3.9075,43.58062],[3.9077,43.58084],[3.90783,43.58107],[3.90798,43.5815],[3.90815,43.58343],[3.90815,43.58369],[3.90805,43.58408],[3.90791,43.58453]]},"properties":{"slope_pct":0.0,"start_km":111.745,"end_km":112.672,"ele_start":5.9,"ele_end":6.0,"class":"plat","label":"Plat (−2 à 2 %)","color":"#22a650"}},{"type":"Feature","geometry":{"type":"LineString","coordinates":[[3.90791,43.58453],[3.90771,43.5849],[3.90758,43.58523],[3.90743,43.58575],[3.90739,43.58602],[3.90745,43.58644],[3.90751,43.58651],[3.90765,43.58658],[3.90769,43.58662],[3.90804,43.58799],[3.90789,43.58808],[3.90789,43.58839],[3.90758,43.58988],[3.90732,43.59037],[3.90716,43.59058],[3.907,43.59073],[3.90659,43.59108],[3.90604,43.59144],[3.90572,43.59162],[3.90532,43.5919],[3.90498,43.5922]]},"properties":{"slope_pct":0.2,"start_km":112.672,"end_km":113.63,"ele_start":6.0,"ele_end":7.9,"class":"plat","label":"Plat (−2 à 2 %)","color":"#22a650"}},{"type":"Feature","geometry":{"type":"LineString","coordinates":[[3.90498,43.5922],[3.90482,43.59238],[3.90457,43.59278],[3.90419,43.5936],[3.90407,43.59389],[3.90393,43.59412],[3.90358,43.59447],[3.90328,43.59476],[3.9027,43.59519],[3.90262,43.59525],[3.90239,43.59542],[3.90211,43.59564],[3.9017,43.59594],[3.90144,43.59614],[3.90084,43.59655],[3.90076,43.59657],[3.89982,43.59714],[3.89944,43.59757],[3.89913,43.59795],[3.8988,43.5986],[3.89862,43.599],[3.89828,43.59952]]},"properties":{"slope_pct":0.2,"start_km":113.63,"end_km":114.628,"ele_start":7.9,"ele_end":9.7,"class":"plat","label":"Plat (−2 à 2 %)","color":"#22a650"}},{"type":"Feature","geometry":{"type":"LineString","coordinates":[[3.89828,43.59952],[3.89801,43.59984],[3.89778,43.6001],[3.89733,43.60061],[3.8974,43.60069],[3.89737,43.60073],[3.89713,43.60063],[3.89632,43.60021],[3.89625,43.60016],[3.89583,43.59994],[3.89579,43.59992],[3.89582,43.59989],[3.89587,43.5999],[3.89603,43.59989],[3.89629,43.59958],[3.89626,43.59957],[3.89607,43.59979],[3.89576,43.59967]]},"properties":{"slope_pct":1.0,"start_km":114.628,"end_km":115.064,"ele_start":9.7,"ele_end":13.9,"class":"plat","label":"Plat (−2 à 2 %)","color":"#22a650"}}]}
