{"type":"FeatureCollection","generator":"tools/slope_colors.py","format_version":1,"source_gpx":"2026-07-27_MTP-Aigues-mortes.gpx","source_sha256":"1e1c5ad95f1fd07e3ec8c0897b4570a3c9b29aa3be9da5051e0c650e285f2c27","params_fingerprint":"4bb834e818a4f3f7","params":{"segment_length_m":100.0,"smoothing_window_m":150.0,"resample_step_m":10.0,"max_merged_length_m":1000.0,"classes":[{"key":"descente-forte","label":"Descente forte (< −6 %)","min":null,"max":-6.0,"color":"#1d4ed8"},{"key":"descente","label":"Descente (−6 à −2 %)","min":-6.0,"max":-2.0,"color":"#60a5fa"},{"key":"plat","label":"Plat (−2 à 2 %)","min":-2.0,"max":2.0,"color":"#94a3b8"},{"key":"montee-faible","label":"Montée faible (2 à 4 %)","min":2.0,"max":4.0,"color":"#22c55e"},{"key":"montee-moderee","label":"Montée modérée (4 à 7 %)","min":4.0,"max":7.0,"color":"#eab308"},{"key":"montee-soutenue","label":"Montée soutenue (7 à 10 %)","min":7.0,"max":10.0,"color":"#f97316"},{"key":"montee-forte","label":"Montée forte (≥ 10 %)","min":10.0,"max":null,"color":"#dc2626"}]},"legend":[{"key":"descente-forte","label":"Descente forte (< −6 %)","min":null,"max":-6.0,"color":"#1d4ed8"},{"key":"descente","label":"Descente (−6 à −2 %)","min":-6.0,"max":-2.0,"color":"#60a5fa"},{"key":"plat","label":"Plat (−2 à 2 %)","min":-2.0,"max":2.0,"color":"#94a3b8"},{"key":"montee-faible","label":"Montée faible (2 à 4 %)","min":2.0,"max":4.0,"color":"#22c55e"},{"key":"montee-moderee","label":"Montée modérée (4 à 7 %)","min":4.0,"max":7.0,"color":"#eab308"},{"key":"montee-soutenue","label":"Montée soutenue (7 à 10 %)","min":7.0,"max":10.0,"color":"#f97316"},{"key":"montee-forte","label":"Montée forte (≥ 10 %)","min":10.0,"max":null,"color":"#dc2626"}],"stats":{"distance_km":68.73,"elevation_valid_ratio":1.0,"elevation_ok":true,"smoothed_gain_m":92,"max_slope_pct":2.6,"min_slope_pct":-1.9},"features":[{"type":"Feature","geometry":{"type":"LineString","coordinates":[[3.89558,43.59967],[3.89548,43.59974],[3.89536,43.59965],[3.89535,43.59966],[3.89561,43.59984],[3.8957,43.59986],[3.89568,43.59988],[3.89579,43.59992],[3.89583,43.59994],[3.89625,43.60016],[3.89632,43.60021],[3.89713,43.60063],[3.89737,43.60073],[3.8974,43.60069],[3.89733,43.60061],[3.89778,43.6001],[3.89801,43.59984],[3.89828,43.59952],[3.89862,43.599],[3.8988,43.5986],[3.89906,43.59809],[3.89913,43.59795],[3.89944,43.59757],[3.89982,43.59714],[3.90076,43.59657],[3.90084,43.59655],[3.90144,43.59614],[3.9017,43.59594],[3.90211,43.59564]]},"properties":{"slope_pct":-0.5,"start_km":0.0,"end_km":0.933,"ele_start":13.1,"ele_end":8.4,"class":"plat","label":"Plat (−2 à 2 %)","color":"#94a3b8"}},{"type":"Feature","geometry":{"type":"LineString","coordinates":[[3.90211,43.59564],[3.90239,43.59542],[3.90262,43.59525],[3.9027,43.59519],[3.90328,43.59476],[3.90358,43.59447],[3.90393,43.59412],[3.90407,43.59389],[3.90419,43.5936],[3.90528,43.59414],[3.90558,43.59428],[3.90591,43.59367],[3.90593,43.59364],[3.90635,43.59295],[3.90645,43.59281],[3.90646,43.59279],[3.90665,43.59255],[3.90674,43.59244],[3.90688,43.59227],[3.90738,43.59178],[3.90823,43.5911]]},"properties":{"slope_pct":0.0,"start_km":0.933,"end_km":1.77,"ele_start":8.4,"ele_end":8.4,"class":"plat","label":"Plat (−2 à 2 %)","color":"#94a3b8"}},{"type":"Feature","geometry":{"type":"LineString","coordinates":[[3.90823,43.5911],[3.9084,43.59099],[3.90843,43.59096],[3.90848,43.59094],[3.90861,43.59088],[3.90906,43.59061],[3.916,43.58721],[3.91681,43.58682],[3.91697,43.58678],[3.91714,43.58675]]},"properties":{"slope_pct":-0.2,"start_km":1.77,"end_km":2.638,"ele_start":8.4,"ele_end":6.8,"class":"plat","label":"Plat (−2 à 2 %)","color":"#94a3b8"}},{"type":"Feature","geometry":{"type":"LineString","coordinates":[[3.91714,43.58675],[3.91736,43.58664],[3.91744,43.5866],[3.91759,43.58644],[3.91893,43.58576],[3.91904,43.58572],[3.91914,43.58572],[3.91979,43.58542],[3.92025,43.5852],[3.92033,43.58513],[3.92045,43.58506],[3.92464,43.58299],[3.92491,43.58283],[3.92501,43.5828],[3.92506,43.58277],[3.92511,43.58275],[3.9252,43.5827],[3.92532,43.58265],[3.92602,43.5823]]},"properties":{"slope_pct":0.2,"start_km":2.638,"end_km":3.512,"ele_start":6.8,"ele_end":8.7,"class":"plat","label":"Plat (−2 à 2 %)","color":"#94a3b8"}},{"type":"Feature","geometry":{"type":"LineString","coordinates":[[3.92602,43.5823],[3.92605,43.58229],[3.92641,43.58211],[3.92648,43.58208],[3.92695,43.58183],[3.92701,43.58181],[3.92977,43.58047],[3.93226,43.57925],[3.93335,43.57874],[3.93346,43.57862],[3.93388,43.57843],[3.93426,43.57827],[3.93471,43.57806],[3.93486,43.57796],[3.93531,43.57774],[3.93549,43.57766],[3.93562,43.57761],[3.93581,43.57753]]},"properties":{"slope_pct":-0.3,"start_km":3.512,"end_km":4.464,"ele_start":8.7,"ele_end":5.9,"class":"plat","label":"Plat (−2 à 2 %)","color":"#94a3b8"}},{"type":"Feature","geometry":{"type":"LineString","coordinates":[[3.93581,43.57753],[3.93636,43.57728],[3.9381,43.57643],[3.9389,43.57605],[3.94073,43.57512],[3.94434,43.57335]]},"properties":{"slope_pct":-0.4,"start_km":4.464,"end_km":5.294,"ele_start":5.9,"ele_end":2.4,"class":"plat","label":"Plat (−2 à 2 %)","color":"#94a3b8"}},{"type":"Feature","geometry":{"type":"LineString","coordinates":[[3.94434,43.57335],[3.94484,43.5731],[3.9449,43.57308],[3.94501,43.57302],[3.94507,43.57299],[3.94527,43.5729],[3.94647,43.57234],[3.94708,43.57207],[3.9479,43.57168],[3.9523,43.56955],[3.95333,43.56901],[3.95442,43.56849]]},"properties":{"slope_pct":0.1,"start_km":5.294,"end_km":6.269,"ele_start":2.4,"ele_end":2.9,"class":"plat","label":"Plat (−2 à 2 %)","color":"#94a3b8"}},{"type":"Feature","geometry":{"type":"LineString","coordinates":[[3.95442,43.56849],[3.9552,43.56796],[3.95545,43.56779],[3.95579,43.56742],[3.95706,43.56564],[3.95708,43.56561],[3.95746,43.56516],[3.95787,43.56475],[3.95791,43.56472],[3.95802,43.56462],[3.95905,43.56341],[3.9596,43.56272],[3.96092,43.56117]]},"properties":{"slope_pct":-0.1,"start_km":6.269,"end_km":7.242,"ele_start":2.9,"ele_end":1.5,"class":"plat","label":"Plat (−2 à 2 %)","color":"#94a3b8"}},{"type":"Feature","geometry":{"type":"LineString","coordinates":[[3.96092,43.56117],[3.9612,43.56086],[3.96273,43.55913],[3.9633,43.55823],[3.96325,43.55815],[3.9633,43.55805],[3.96368,43.55759],[3.96371,43.55754],[3.96364,43.55739],[3.9636,43.55731],[3.96359,43.55727],[3.96375,43.55713],[3.96381,43.55709],[3.96393,43.55702],[3.96409,43.55692],[3.96419,43.55689],[3.96463,43.55659],[3.96501,43.55635],[3.96536,43.55609],[3.96581,43.55561],[3.9663,43.55512],[3.96667,43.55466],[3.96669,43.55433],[3.96674,43.5542],[3.96697,43.55397],[3.96712,43.5539],[3.96729,43.55387]]},"properties":{"slope_pct":0.0,"start_km":7.242,"end_km":8.239,"ele_start":1.5,"ele_end":1.8,"class":"plat","label":"Plat (−2 à 2 %)","color":"#94a3b8"}},{"type":"Feature","geometry":{"type":"LineString","coordinates":[[3.96729,43.55387],[3.96745,43.55387],[3.96755,43.5538],[3.96829,43.55298],[3.96841,43.55281],[3.9685,43.55261],[3.96855,43.5525],[3.96857,43.55211],[3.96863,43.55198],[3.96877,43.55188],[3.96886,43.55176],[3.96892,43.55149],[3.96894,43.55143],[3.96894,43.55121],[3.96894,43.55119],[3.96893,43.55087],[3.96891,43.5508],[3.96887,43.55045],[3.96861,43.55024],[3.96852,43.55005],[3.96854,43.54991],[3.96874,43.54969],[3.9689,43.54967],[3.96901,43.54966],[3.96906,43.54965],[3.96906,43.54938],[3.96915,43.54892],[3.96932,43.54851],[3.96958,43.54806],[3.96975,43.5479],[3.97012,43.54762],[3.97038,43.54733],[3.97055,43.54684],[3.97058,43.54674],[3.97065,43.54664],[3.97084,43.54635]]},"properties":{"slope_pct":-0.1,"start_km":8.239,"end_km":9.194,"ele_start":1.8,"ele_end":1.0,"class":"plat","label":"Plat (−2 à 2 %)","color":"#94a3b8"}},{"type":"Feature","geometry":{"type":"LineString","coordinates":[[3.97084,43.54635],[3.97093,43.54628],[3.9711,43.54625],[3.97118,43.54619],[3.97126,43.54615],[3.97134,43.54612],[3.97132,43.5459],[3.97127,43.54579],[3.97114,43.5457],[3.97092,43.54559],[3.97074,43.54543],[3.97093,43.54536],[3.97187,43.54507],[3.97193,43.54512],[3.972,43.54525],[3.97204,43.54533],[3.97224,43.5454],[3.97226,43.54537],[3.97224,43.54536],[3.97207,43.54532],[3.97209,43.54528],[3.97241,43.54538],[3.97271,43.54547],[3.97273,43.54544],[3.97256,43.54538],[3.97255,43.54538],[3.97256,43.54535],[3.97268,43.54539],[3.97271,43.54538],[3.97279,43.54536],[3.97291,43.54542],[3.9729,43.54551],[3.97289,43.54557],[3.97321,43.54567],[3.97324,43.54573],[3.97339,43.5458],[3.97344,43.54579],[3.97352,43.5457],[3.97355,43.54566],[3.97348,43.54563],[3.97361,43.54541],[3.97372,43.54522],[3.9742,43.54538],[3.97493,43.54675],[3.97499,43.54676],[3.97565,43.54657],[3.97689,43.54622]]},"properties":{"slope_pct":0.1,"start_km":9.194,"end_km":10.142,"ele_start":1.0,"ele_end":1.5,"class":"plat","label":"Plat (−2 à 2 %)","color":"#94a3b8"}},{"type":"Feature","geometry":{"type":"LineString","coordinates":[[3.97689,43.54622],[3.97623,43.54498],[3.97434,43.54437],[3.97438,43.54434],[3.97441,43.54433],[3.97453,43.5444],[3.9748,43.54449],[3.97482,43.54444],[3.97739,43.54524],[3.97783,43.54538],[3.97784,43.54536],[3.97816,43.54548],[3.97828,43.54558],[3.9785,43.54597],[3.97854,43.54604],[3.97873,43.54643],[3.97875,43.54646],[3.97882,43.5466],[3.97892,43.54657],[3.97895,43.54656],[3.97903,43.54653],[3.97965,43.54673],[3.97985,43.5468],[3.98014,43.54689],[3.98062,43.54704],[3.98064,43.54705],[3.98068,43.54706],[3.98112,43.5472]]},"properties":{"slope_pct":0.1,"start_km":10.142,"end_km":11.14,"ele_start":1.5,"ele_end":2.3,"class":"plat","label":"Plat (−2 à 2 %)","color":"#94a3b8"}},{"type":"Feature","geometry":{"type":"LineString","coordinates":[[3.98112,43.5472],[3.9814,43.54729],[3.98143,43.54724],[3.9819,43.54738],[3.98243,43.54756],[3.98291,43.54771],[3.98302,43.54773],[3.98306,43.54774],[3.98308,43.54785],[3.98329,43.54795],[3.9835,43.5481],[3.98358,43.54816],[3.98367,43.54819],[3.98407,43.54852],[3.98437,43.54869],[3.98469,43.54881],[3.98525,43.54898],[3.98568,43.54912],[3.98625,43.54931],[3.98672,43.54945],[3.98713,43.54959],[3.98758,43.54972],[3.98779,43.54939],[3.98806,43.54894],[3.98824,43.54864],[3.98842,43.54834],[3.98857,43.54809],[3.98863,43.54809],[3.98871,43.54806],[3.98874,43.54804],[3.98961,43.54827]]},"properties":{"slope_pct":0.1,"start_km":11.14,"end_km":12.039,"ele_start":2.3,"ele_end":3.1,"class":"plat","label":"Plat (−2 à 2 %)","color":"#94a3b8"}},{"type":"Feature","geometry":{"type":"LineString","coordinates":[[3.98961,43.54827],[3.99055,43.54855],[3.99149,43.54879],[3.99177,43.54887],[3.99242,43.54904],[3.99337,43.5493],[3.99378,43.54941],[3.99431,43.54955],[3.99448,43.54922],[3.99531,43.54945],[3.99537,43.54942],[3.99546,43.54943],[3.99551,43.54947],[3.99552,43.54951],[3.99573,43.5495],[3.99703,43.54986],[3.99733,43.54994],[3.9992,43.55045],[4.00087,43.55091]]},"properties":{"slope_pct":-0.1,"start_km":12.039,"end_km":13.038,"ele_start":3.1,"ele_end":2.0,"class":"plat","label":"Plat (−2 à 2 %)","color":"#94a3b8"}},{"type":"Feature","geometry":{"type":"LineString","coordinates":[[4.00087,43.55091],[4.00095,43.55093],[4.00121,43.551],[4.00131,43.55103],[4.0026,43.55137],[4.00296,43.55147],[4.00486,43.55198],[4.00649,43.55242],[4.00704,43.55257],[4.00778,43.55277],[4.00949,43.5532],[4.00959,43.55324],[4.00969,43.55342],[4.00969,43.55353],[4.00946,43.5538],[4.00938,43.55397],[4.00939,43.55419]]},"properties":{"slope_pct":-0.2,"start_km":13.038,"end_km":13.9,"ele_start":2.0,"ele_end":0.6,"class":"plat","label":"Plat (−2 à 2 %)","color":"#94a3b8"}},{"type":"Feature","geometry":{"type":"LineString","coordinates":[[4.00939,43.55419],[4.00948,43.55428],[4.00962,43.55435],[4.00997,43.55447],[4.01035,43.55458],[4.01093,43.55485],[4.01176,43.55508],[4.01219,43.5552],[4.01254,43.55525],[4.01295,43.55526],[4.01318,43.55531],[4.01343,43.5554],[4.01424,43.55569],[4.01497,43.55603],[4.01519,43.55609],[4.01595,43.55611],[4.01611,43.55613],[4.01684,43.55642],[4.01706,43.55647],[4.01741,43.55648],[4.01783,43.55648],[4.0188,43.5566],[4.01956,43.55678],[4.02006,43.55687]]},"properties":{"slope_pct":0.0,"start_km":13.9,"end_km":14.827,"ele_start":0.6,"ele_end":1.0,"class":"plat","label":"Plat (−2 à 2 %)","color":"#94a3b8"}},{"type":"Feature","geometry":{"type":"LineString","coordinates":[[4.02006,43.55687],[4.02041,43.55697],[4.02061,43.557],[4.02138,43.55699],[4.02208,43.5571],[4.02275,43.55723],[4.02369,43.55761],[4.02393,43.55765],[4.02464,43.5577],[4.02543,43.55797],[4.02561,43.55801],[4.02583,43.55803],[4.02683,43.55788],[4.02711,43.55791],[4.02773,43.5581],[4.02825,43.55814],[4.02904,43.55828],[4.02955,43.55843],[4.03063,43.55848],[4.03078,43.55848],[4.03164,43.55835]]},"properties":{"slope_pct":0.0,"start_km":14.827,"end_km":15.798,"ele_start":1.0,"ele_end":1.3,"class":"plat","label":"Plat (−2 à 2 %)","color":"#94a3b8"}},{"type":"Feature","geometry":{"type":"LineString","coordinates":[[4.03164,43.55835],[4.0323,43.55838],[4.03254,43.55831],[4.0327,43.55832],[4.03285,43.55829],[4.03298,43.55826],[4.03322,43.55811],[4.03382,43.55748],[4.03393,43.55735],[4.03398,43.5572],[4.03404,43.55687],[4.03438,43.55689],[4.03522,43.55696],[4.03567,43.55699],[4.03703,43.55709],[4.0378,43.55714],[4.0392,43.55724],[4.04003,43.5573],[4.04213,43.55744]]},"properties":{"slope_pct":-0.1,"start_km":15.798,"end_km":16.745,"ele_start":1.3,"ele_end":0.6,"class":"plat","label":"Plat (−2 à 2 %)","color":"#94a3b8"}},{"type":"Feature","geometry":{"type":"LineString","coordinates":[[4.04213,43.55744],[4.04383,43.55757],[4.0447,43.55763],[4.04665,43.55779],[4.04751,43.55786],[4.04838,43.55794],[4.04962,43.55804],[4.05025,43.5581],[4.05093,43.55816],[4.05114,43.55818],[4.05133,43.55819],[4.0523,43.55825],[4.053,43.55827],[4.05392,43.55828]]},"properties":{"slope_pct":0.0,"start_km":16.745,"end_km":17.7,"ele_start":0.6,"ele_end":1.0,"class":"plat","label":"Plat (−2 à 2 %)","color":"#94a3b8"}},{"type":"Feature","geometry":{"type":"LineString","coordinates":[[4.05392,43.55828],[4.05481,43.5583],[4.05579,43.55832],[4.05626,43.55833],[4.05654,43.55833],[4.05718,43.55834],[4.05791,43.55833],[4.05817,43.55838],[4.05882,43.55839],[4.05886,43.55844],[4.06016,43.55845],[4.06038,43.55842],[4.06062,43.55838],[4.06087,43.55837],[4.06118,43.55842],[4.06149,43.55844],[4.0616,43.55845],[4.06162,43.55845],[4.06269,43.55835],[4.0629,43.5583],[4.06322,43.55829],[4.06366,43.55837],[4.06383,43.55835],[4.06421,43.55833],[4.06461,43.55834],[4.06533,43.55828],[4.06576,43.55828]]},"properties":{"slope_pct":0.2,"start_km":17.7,"end_km":18.664,"ele_start":1.0,"ele_end":3.2,"class":"plat","label":"Plat (−2 à 2 %)","color":"#94a3b8"}},{"type":"Feature","geometry":{"type":"LineString","coordinates":[[4.06576,43.55828],[4.06629,43.55826],[4.06639,43.55825],[4.06671,43.55821],[4.06797,43.55821],[4.0685,43.55816],[4.06915,43.55813],[4.06933,43.55813],[4.06973,43.55807],[4.07024,43.55799],[4.07045,43.55795],[4.07089,43.55794],[4.07103,43.55806],[4.07122,43.55806],[4.0714,43.55806],[4.07186,43.55801],[4.07199,43.55799],[4.0727,43.55797],[4.07274,43.55802],[4.07292,43.55804],[4.07313,43.55796],[4.07332,43.55792],[4.07347,43.55792],[4.0739,43.55789],[4.07402,43.55784],[4.07452,43.55785],[4.07473,43.55784],[4.07512,43.55804],[4.07513,43.55807],[4.07521,43.55814],[4.07525,43.55808],[4.07533,43.55805],[4.07541,43.55805],[4.07549,43.55808],[4.07554,43.55815],[4.07554,43.55819],[4.07564,43.55825],[4.07565,43.55829],[4.0764,43.5586]]},"properties":{"slope_pct":-0.2,"start_km":18.664,"end_km":19.583,"ele_start":3.2,"ele_end":1.4,"class":"plat","label":"Plat (−2 à 2 %)","color":"#94a3b8"}},{"type":"Feature","geometry":{"type":"LineString","coordinates":[[4.0764,43.5586],[4.0765,43.55864],[4.07734,43.55899],[4.07757,43.55908],[4.0777,43.55914],[4.07786,43.5592],[4.07788,43.55917],[4.0782,43.5593],[4.07883,43.55956],[4.07897,43.55965],[4.0798,43.55999],[4.08003,43.56009],[4.08019,43.56016],[4.08026,43.56019],[4.08049,43.56029],[4.08106,43.56052],[4.08113,43.56052],[4.08156,43.56069],[4.0818,43.5608],[4.08188,43.56068],[4.08257,43.55981],[4.08262,43.55976],[4.08284,43.55947],[4.08314,43.5591],[4.08322,43.55899]]},"properties":{"slope_pct":0.1,"start_km":19.583,"end_km":20.319,"ele_start":1.4,"ele_end":1.8,"class":"plat","label":"Plat (−2 à 2 %)","color":"#94a3b8"}},{"type":"Feature","geometry":{"type":"LineString","coordinates":[[4.08322,43.55899],[4.08328,43.55891],[4.08337,43.55884],[4.08349,43.55887],[4.08385,43.559],[4.08423,43.55915],[4.08446,43.55925]]},"properties":{"slope_pct":2.6,"start_km":20.319,"end_km":20.438,"ele_start":1.8,"ele_end":4.9,"class":"montee-faible","label":"Montée faible (2 à 4 %)","color":"#22c55e"}},{"type":"Feature","geometry":{"type":"LineString","coordinates":[[4.08446,43.55925],[4.08494,43.55944],[4.08504,43.55944],[4.08505,43.55953],[4.08529,43.55963],[4.08546,43.5597],[4.08568,43.55979],[4.0859,43.55987],[4.08639,43.56007],[4.08661,43.56016],[4.08669,43.56019],[4.08794,43.56068],[4.088,43.56071],[4.08814,43.56076],[4.08813,43.56077],[4.08807,43.56085],[4.0882,43.5609],[4.08982,43.56154],[4.0901,43.56164],[4.0906,43.56184],[4.09055,43.56209],[4.09079,43.56217],[4.09084,43.56217],[4.0912,43.56221],[4.09132,43.56223],[4.09194,43.56247],[4.09244,43.56255],[4.09279,43.56252],[4.09361,43.56269],[4.09394,43.56273]]},"properties":{"slope_pct":-0.2,"start_km":20.438,"end_km":21.342,"ele_start":4.9,"ele_end":2.9,"class":"plat","label":"Plat (−2 à 2 %)","color":"#94a3b8"}},{"type":"Feature","geometry":{"type":"LineString","coordinates":[[4.09394,43.56273],[4.0944,43.56271],[4.09466,43.56264],[4.09494,43.56254],[4.09548,43.56199],[4.09564,43.56186],[4.09582,43.56151],[4.09626,43.56094],[4.09642,43.56091],[4.0965,43.5608],[4.09657,43.56072],[4.09658,43.56071],[4.09668,43.56066],[4.09676,43.56057],[4.09677,43.56049],[4.09703,43.56007],[4.09769,43.55922],[4.09781,43.55923],[4.09804,43.55894],[4.09836,43.55855],[4.09878,43.55806],[4.09882,43.55796],[4.09881,43.55786],[4.09904,43.55751],[4.09922,43.55738],[4.09937,43.55712],[4.09936,43.55708],[4.09942,43.55707],[4.09961,43.55712],[4.09965,43.55703],[4.09986,43.55684],[4.10012,43.55667],[4.10029,43.5566]]},"properties":{"slope_pct":-0.1,"start_km":21.342,"end_km":22.251,"ele_start":2.9,"ele_end":2.4,"class":"plat","label":"Plat (−2 à 2 %)","color":"#94a3b8"}},{"type":"Feature","geometry":{"type":"LineString","coordinates":[[4.10029,43.5566],[4.10076,43.55645],[4.10213,43.55602],[4.10225,43.55598],[4.10264,43.55585],[4.10355,43.55561],[4.10373,43.55557],[4.10732,43.55486],[4.10806,43.55467],[4.1082,43.55459],[4.10826,43.55443],[4.10835,43.55439],[4.10843,43.55436],[4.10846,43.5544],[4.1087,43.55441],[4.10882,43.55438],[4.11029,43.5537]]},"properties":{"slope_pct":-0.2,"start_km":22.251,"end_km":23.138,"ele_start":2.4,"ele_end":0.8,"class":"plat","label":"Plat (−2 à 2 %)","color":"#94a3b8"}},{"type":"Feature","geometry":{"type":"LineString","coordinates":[[4.11029,43.5537],[4.11104,43.5534],[4.11199,43.55308],[4.11205,43.55303],[4.11236,43.55293],[4.11247,43.55292],[4.11386,43.55245],[4.11522,43.55199],[4.11557,43.55188],[4.116,43.55173],[4.11733,43.55125],[4.11738,43.55123],[4.11752,43.55114],[4.11767,43.55083],[4.11773,43.55081],[4.11781,43.55079],[4.11828,43.55088],[4.11842,43.55088],[4.12024,43.55039]]},"properties":{"slope_pct":0.2,"start_km":23.138,"end_km":24.044,"ele_start":0.8,"ele_end":2.5,"class":"plat","label":"Plat (−2 à 2 %)","color":"#94a3b8"}},{"type":"Feature","geometry":{"type":"LineString","coordinates":[[4.12024,43.55039],[4.12058,43.55029],[4.12087,43.55015],[4.12104,43.55007],[4.12168,43.54971],[4.12209,43.54938],[4.12244,43.54901],[4.12272,43.54856],[4.12289,43.54827],[4.1232,43.54779],[4.12332,43.5476],[4.12348,43.54734],[4.124,43.54682],[4.12402,43.54681],[4.12409,43.54675],[4.1245,43.54646],[4.1248,43.5463],[4.12561,43.54587],[4.12625,43.5455],[4.1266,43.54527],[4.12669,43.54521],[4.12733,43.54482],[4.12794,43.54443]]},"properties":{"slope_pct":-0.2,"start_km":24.044,"end_km":24.973,"ele_start":2.5,"ele_end":1.0,"class":"plat","label":"Plat (−2 à 2 %)","color":"#94a3b8"}},{"type":"Feature","geometry":{"type":"LineString","coordinates":[[4.12794,43.54443],[4.12798,43.54441],[4.12886,43.54386],[4.12997,43.54312],[4.13072,43.54255],[4.13139,43.54204],[4.13184,43.54172],[4.133,43.54097],[4.13317,43.54088],[4.13347,43.54069],[4.13357,43.54064],[4.13373,43.54042],[4.13395,43.54016],[4.13399,43.54013],[4.13407,43.54016],[4.1342,43.54005],[4.13501,43.53984],[4.13572,43.53966]]},"properties":{"slope_pct":0.2,"start_km":24.973,"end_km":25.812,"ele_start":1.0,"ele_end":2.5,"class":"plat","label":"Plat (−2 à 2 %)","color":"#94a3b8"}},{"type":"Feature","geometry":{"type":"LineString","coordinates":[[4.13572,43.53966],[4.13596,43.53958],[4.13624,43.53939],[4.13633,43.53929],[4.13643,43.53906],[4.13689,43.53817],[4.13725,43.53771],[4.13729,43.53768],[4.13751,43.53742],[4.13752,43.5374],[4.13754,43.53738],[4.13763,43.53727],[4.13785,43.53697],[4.13808,43.53666],[4.13829,43.53642],[4.13838,43.53637],[4.13847,43.53639],[4.13865,43.5365],[4.13913,43.53672],[4.13938,43.53686],[4.13945,43.5369],[4.13974,43.53724],[4.13995,43.53736],[4.14001,43.53735],[4.14004,43.53737],[4.14012,43.53741],[4.14027,43.53748],[4.1409,43.53778],[4.14112,43.53788],[4.14121,43.53793],[4.14129,43.53796],[4.14203,43.53833],[4.1421,43.53834],[4.14218,43.53835],[4.14226,43.53836],[4.14244,43.53842],[4.14261,43.53854],[4.14269,43.53865],[4.14272,43.53878],[4.14267,43.53894]]},"properties":{"slope_pct":-0.2,"start_km":25.812,"end_km":26.717,"ele_start":2.5,"ele_end":0.8,"class":"plat","label":"Plat (−2 à 2 %)","color":"#94a3b8"}},{"type":"Feature","geometry":{"type":"LineString","coordinates":[[4.14267,43.53894],[4.14253,43.53902],[4.14215,43.53917],[4.14209,43.53919],[4.14194,43.53924],[4.14183,43.53923],[4.14159,43.53908],[4.14152,43.53899],[4.14145,43.53901],[4.1414,43.53908],[4.14135,43.53913],[4.14139,43.53916],[4.14165,43.53928],[4.1419,43.53939],[4.14193,43.53941],[4.14211,43.53951],[4.14217,43.53948],[4.14303,43.53996],[4.14305,43.53998],[4.1436,43.54023],[4.14384,43.54029],[4.1438,43.54022],[4.14362,43.54013],[4.14358,43.54007],[4.14326,43.54003],[4.14318,43.54006],[4.14313,43.54011],[4.14303,43.54022],[4.14283,43.54043],[4.14281,43.54045],[4.14293,43.5405],[4.14301,43.54047],[4.14419,43.54103],[4.14541,43.5416]]},"properties":{"slope_pct":-0.2,"start_km":26.717,"end_km":27.464,"ele_start":0.8,"ele_end":-0.5,"class":"plat","label":"Plat (−2 à 2 %)","color":"#94a3b8"}},{"type":"Feature","geometry":{"type":"LineString","coordinates":[[4.14541,43.5416],[4.14582,43.54184],[4.15101,43.54409],[4.15171,43.54434],[4.15272,43.54483],[4.15523,43.5459]]},"properties":{"slope_pct":-0.0,"start_km":27.464,"end_km":28.389,"ele_start":-0.5,"ele_end":-0.7,"class":"plat","label":"Plat (−2 à 2 %)","color":"#94a3b8"}},{"type":"Feature","geometry":{"type":"LineString","coordinates":[[4.15523,43.5459],[4.15874,43.54747],[4.16055,43.54821],[4.16273,43.54913],[4.16472,43.54992]]},"properties":{"slope_pct":0.1,"start_km":28.389,"end_km":29.276,"ele_start":-0.7,"ele_end":-0.2,"class":"plat","label":"Plat (−2 à 2 %)","color":"#94a3b8"}},{"type":"Feature","geometry":{"type":"LineString","coordinates":[[4.16472,43.54992],[4.16498,43.55001],[4.16542,43.55022],[4.1655,43.55026],[4.16681,43.55083],[4.16883,43.55166],[4.17081,43.55249],[4.17123,43.55266],[4.17295,43.55339]]},"properties":{"slope_pct":0.0,"start_km":29.276,"end_km":30.043,"ele_start":-0.2,"ele_end":-0.0,"class":"plat","label":"Plat (−2 à 2 %)","color":"#94a3b8"}},{"type":"Feature","geometry":{"type":"LineString","coordinates":[[4.17295,43.55339],[4.17553,43.55448],[4.17884,43.55625],[4.17961,43.55667],[4.18046,43.55716],[4.18106,43.5575],[4.18187,43.55809]]},"properties":{"slope_pct":-0.0,"start_km":30.043,"end_km":30.934,"ele_start":-0.0,"ele_end":-0.1,"class":"plat","label":"Plat (−2 à 2 %)","color":"#94a3b8"}},{"type":"Feature","geometry":{"type":"LineString","coordinates":[[4.18187,43.55809],[4.18196,43.55816],[4.18278,43.5589],[4.18331,43.55954],[4.18344,43.55971],[4.18389,43.56039],[4.18413,43.56077],[4.18435,43.56125],[4.18452,43.56162],[4.18511,43.56349],[4.18503,43.5637],[4.18472,43.56399],[4.18473,43.56529],[4.1848,43.56562],[4.18491,43.56577],[4.18507,43.56588],[4.18555,43.56599]]},"properties":{"slope_pct":0.0,"start_km":30.934,"end_km":31.922,"ele_start":-0.1,"ele_end":0.3,"class":"plat","label":"Plat (−2 à 2 %)","color":"#94a3b8"}},{"type":"Feature","geometry":{"type":"LineString","coordinates":[[4.18555,43.56599],[4.18563,43.56607],[4.18585,43.56684],[4.18591,43.56694],[4.18609,43.56709],[4.18654,43.56688],[4.18706,43.5675],[4.18814,43.56835],[4.18831,43.56848],[4.18844,43.56865],[4.1885,43.56885],[4.18856,43.56918],[4.18869,43.56918],[4.18939,43.56912],[4.18953,43.569],[4.18952,43.56898],[4.18955,43.56892],[4.18963,43.56888],[4.18974,43.56888],[4.18996,43.56884],[4.19008,43.56879],[4.19033,43.56866],[4.1907,43.56846],[4.19099,43.56837],[4.19113,43.56836],[4.19113,43.56831],[4.19119,43.56824],[4.19124,43.56822],[4.19136,43.56816],[4.19145,43.56813],[4.19226,43.56769],[4.19298,43.56732],[4.19326,43.56717],[4.19348,43.56706]]},"properties":{"slope_pct":0.4,"start_km":31.922,"end_km":32.89,"ele_start":0.3,"ele_end":4.0,"class":"plat","label":"Plat (−2 à 2 %)","color":"#94a3b8"}},{"type":"Feature","geometry":{"type":"LineString","coordinates":[[4.19348,43.56706],[4.19334,43.56689],[4.19332,43.56688],[4.19326,43.56681],[4.19325,43.56679],[4.19295,43.56643],[4.19265,43.56607],[4.19231,43.56566],[4.19206,43.56535],[4.19173,43.56495],[4.19133,43.56448],[4.19132,43.56446],[4.19126,43.56439],[4.19069,43.56378],[4.19067,43.56375],[4.19069,43.56378],[4.18898,43.56458],[4.18824,43.56494],[4.18747,43.56531],[4.18731,43.56534],[4.18743,43.56565],[4.18759,43.56606],[4.18766,43.56618],[4.18836,43.56714]]},"properties":{"slope_pct":-0.2,"start_km":32.89,"end_km":33.868,"ele_start":4.0,"ele_end":1.9,"class":"plat","label":"Plat (−2 à 2 %)","color":"#94a3b8"}},{"type":"Feature","geometry":{"type":"LineString","coordinates":[[4.18836,43.56714],[4.18923,43.56833],[4.18936,43.56846],[4.18946,43.56854],[4.18968,43.56865],[4.18992,43.56868],[4.18992,43.56873],[4.18995,43.56882],[4.18996,43.56884],[4.18996,43.56885],[4.18999,43.56892],[4.18984,43.56903],[4.18973,43.56909],[4.18968,43.56909],[4.18945,43.56913],[4.18939,43.56912],[4.18869,43.56918],[4.18856,43.56918],[4.18856,43.56929],[4.1885,43.56947],[4.18795,43.57061],[4.18783,43.57083],[4.18765,43.57108],[4.18703,43.5718],[4.18667,43.57213],[4.18655,43.57223],[4.1865,43.57227],[4.18616,43.57257],[4.18603,43.5727],[4.18557,43.57319],[4.18514,43.57355]]},"properties":{"slope_pct":-0.2,"start_km":33.868,"end_km":34.806,"ele_start":1.9,"ele_end":0.3,"class":"plat","label":"Plat (−2 à 2 %)","color":"#94a3b8"}},{"type":"Feature","geometry":{"type":"LineString","coordinates":[[4.18514,43.57355],[4.18456,43.5741],[4.18419,43.57461],[4.18394,43.57496],[4.18373,43.57538],[4.18331,43.57605],[4.183,43.57637],[4.18277,43.57664],[4.18275,43.5767],[4.18273,43.57675],[4.18281,43.5768],[4.18281,43.57688],[4.18259,43.57722],[4.18233,43.57763],[4.18187,43.57822],[4.18059,43.57949],[4.17913,43.58124]]},"properties":{"slope_pct":-0.1,"start_km":34.806,"end_km":35.801,"ele_start":0.3,"ele_end":-0.4,"class":"plat","label":"Plat (−2 à 2 %)","color":"#94a3b8"}},{"type":"Feature","geometry":{"type":"LineString","coordinates":[[4.17913,43.58124],[4.17858,43.58208],[4.17808,43.58276],[4.17718,43.58356],[4.17646,43.58407],[4.17578,43.58448],[4.17493,43.58486],[4.17359,43.58528],[4.17265,43.58547],[4.17165,43.58558],[4.17123,43.58562],[4.17016,43.58568]]},"properties":{"slope_pct":0.0,"start_km":35.801,"end_km":36.736,"ele_start":-0.4,"ele_end":-0.1,"class":"plat","label":"Plat (−2 à 2 %)","color":"#94a3b8"}},{"type":"Feature","geometry":{"type":"LineString","coordinates":[[4.17016,43.58568],[4.16927,43.58569],[4.16481,43.5855],[4.16007,43.58555]]},"properties":{"slope_pct":0.0,"start_km":36.736,"end_km":37.549,"ele_start":-0.1,"ele_end":0.0,"class":"plat","label":"Plat (−2 à 2 %)","color":"#94a3b8"}},{"type":"Feature","geometry":{"type":"LineString","coordinates":[[4.16007,43.58555],[4.15528,43.58558],[4.15362,43.58554],[4.15238,43.58545],[4.15224,43.58541],[4.15215,43.58539],[4.15198,43.5853],[4.15138,43.58493],[4.15123,43.58487],[4.15114,43.58486],[4.15062,43.58486],[4.15046,43.58499],[4.14966,43.5851],[4.14949,43.58514],[4.14928,43.58517],[4.14913,43.58515],[4.14873,43.58499],[4.14853,43.58496],[4.14817,43.5849]]},"properties":{"slope_pct":0.1,"start_km":37.549,"end_km":38.544,"ele_start":0.0,"ele_end":1.0,"class":"plat","label":"Plat (−2 à 2 %)","color":"#94a3b8"}},{"type":"Feature","geometry":{"type":"LineString","coordinates":[[4.14817,43.5849],[4.14615,43.58467],[4.14536,43.58475],[4.14465,43.58475],[4.14383,43.58481],[4.14302,43.58489],[4.1407,43.58528]]},"properties":{"slope_pct":-0.1,"start_km":38.544,"end_km":39.154,"ele_start":1.0,"ele_end":0.3,"class":"plat","label":"Plat (−2 à 2 %)","color":"#94a3b8"}},{"type":"Feature","geometry":{"type":"LineString","coordinates":[[4.1407,43.58528],[4.13109,43.58652]]},"properties":{"slope_pct":-0.0,"start_km":39.154,"end_km":39.94,"ele_start":0.3,"ele_end":-0.0,"class":"plat","label":"Plat (−2 à 2 %)","color":"#94a3b8"}},{"type":"Feature","geometry":{"type":"LineString","coordinates":[[4.13109,43.58652],[4.13031,43.58673],[4.12999,43.58686],[4.12823,43.58787],[4.1278,43.58808],[4.1273,43.58828],[4.1267,43.58849],[4.12627,43.5886],[4.12518,43.58875],[4.12469,43.58878],[4.12383,43.58876],[4.12271,43.58861],[4.1214,43.58843]]},"properties":{"slope_pct":-0.0,"start_km":39.94,"end_km":40.793,"ele_start":-0.0,"ele_end":-0.1,"class":"plat","label":"Plat (−2 à 2 %)","color":"#94a3b8"}},{"type":"Feature","geometry":{"type":"LineString","coordinates":[[4.1214,43.58843],[4.11875,43.58797],[4.11428,43.58711],[4.11297,43.58667],[4.1114,43.58638]]},"properties":{"slope_pct":0.0,"start_km":40.793,"end_km":41.632,"ele_start":-0.1,"ele_end":0.2,"class":"plat","label":"Plat (−2 à 2 %)","color":"#94a3b8"}},{"type":"Feature","geometry":{"type":"LineString","coordinates":[[4.1114,43.58638],[4.10901,43.5859],[4.10882,43.58588],[4.10834,43.58592],[4.10808,43.58591],[4.10482,43.58524],[4.10466,43.5852],[4.10449,43.58515],[4.10431,43.58509],[4.10383,43.58496],[4.10066,43.5834]]},"properties":{"slope_pct":-0.0,"start_km":41.632,"end_km":42.574,"ele_start":0.2,"ele_end":-0.3,"class":"plat","label":"Plat (−2 à 2 %)","color":"#94a3b8"}},{"type":"Feature","geometry":{"type":"LineString","coordinates":[[4.10066,43.5834],[4.09623,43.5811]]},"properties":{"slope_pct":0.0,"start_km":42.574,"end_km":43.014,"ele_start":-0.3,"ele_end":-0.1,"class":"plat","label":"Plat (−2 à 2 %)","color":"#94a3b8"}},{"type":"Feature","geometry":{"type":"LineString","coordinates":[[4.09623,43.5811],[4.0837,43.57449]]},"properties":{"slope_pct":-0.0,"start_km":43.014,"end_km":44.262,"ele_start":-0.1,"ele_end":-0.2,"class":"plat","label":"Plat (−2 à 2 %)","color":"#94a3b8"}},{"type":"Feature","geometry":{"type":"LineString","coordinates":[[4.0837,43.57449],[4.08326,43.57426],[4.08288,43.57416],[4.08272,43.57408],[4.08061,43.57299],[4.07698,43.57106],[4.0762,43.57069],[4.0754,43.57038],[4.07415,43.57]]},"properties":{"slope_pct":0.0,"start_km":44.262,"end_km":45.183,"ele_start":-0.2,"ele_end":0.1,"class":"plat","label":"Plat (−2 à 2 %)","color":"#94a3b8"}},{"type":"Feature","geometry":{"type":"LineString","coordinates":[[4.07415,43.57],[4.07368,43.56989],[4.07354,43.56985],[4.06947,43.56903]]},"properties":{"slope_pct":0.0,"start_km":45.183,"end_km":45.575,"ele_start":0.1,"ele_end":0.3,"class":"plat","label":"Plat (−2 à 2 %)","color":"#94a3b8"}},{"type":"Feature","geometry":{"type":"LineString","coordinates":[[4.06947,43.56903],[4.06069,43.56712]]},"properties":{"slope_pct":0.1,"start_km":45.575,"end_km":46.314,"ele_start":0.3,"ele_end":0.7,"class":"plat","label":"Plat (−2 à 2 %)","color":"#94a3b8"}},{"type":"Feature","geometry":{"type":"LineString","coordinates":[[4.06069,43.56712],[4.03751,43.5622]]},"properties":{"slope_pct":0.1,"start_km":46.314,"end_km":48.26,"ele_start":0.7,"ele_end":1.8,"class":"plat","label":"Plat (−2 à 2 %)","color":"#94a3b8"}},{"type":"Feature","geometry":{"type":"LineString","coordinates":[[4.03751,43.5622],[4.02972,43.56049]]},"properties":{"slope_pct":-0.2,"start_km":48.26,"end_km":48.916,"ele_start":1.8,"ele_end":0.3,"class":"plat","label":"Plat (−2 à 2 %)","color":"#94a3b8"}},{"type":"Feature","geometry":{"type":"LineString","coordinates":[[4.02972,43.56049],[4.02928,43.5604],[4.01773,43.55793]]},"properties":{"slope_pct":-0.1,"start_km":48.916,"end_km":49.923,"ele_start":0.3,"ele_end":-0.3,"class":"plat","label":"Plat (−2 à 2 %)","color":"#94a3b8"}},{"type":"Feature","geometry":{"type":"LineString","coordinates":[[4.01773,43.55793],[4.01395,43.55711]]},"properties":{"slope_pct":-0.0,"start_km":49.923,"end_km":50.241,"ele_start":-0.3,"ele_end":-0.4,"class":"plat","label":"Plat (−2 à 2 %)","color":"#94a3b8"}},{"type":"Feature","geometry":{"type":"LineString","coordinates":[[4.01395,43.55711],[4.00457,43.55512]]},"properties":{"slope_pct":0.1,"start_km":50.241,"end_km":51.029,"ele_start":-0.4,"ele_end":0.1,"class":"plat","label":"Plat (−2 à 2 %)","color":"#94a3b8"}},{"type":"Feature","geometry":{"type":"LineString","coordinates":[[4.00457,43.55512],[3.9971,43.55352],[3.99308,43.55263]]},"properties":{"slope_pct":-0.0,"start_km":51.029,"end_km":51.995,"ele_start":0.1,"ele_end":-0.0,"class":"plat","label":"Plat (−2 à 2 %)","color":"#94a3b8"}},{"type":"Feature","geometry":{"type":"LineString","coordinates":[[3.99308,43.55263],[3.98351,43.5506],[3.98219,43.55028]]},"properties":{"slope_pct":0.1,"start_km":51.995,"end_km":52.91,"ele_start":-0.0,"ele_end":1.1,"class":"plat","label":"Plat (−2 à 2 %)","color":"#94a3b8"}},{"type":"Feature","geometry":{"type":"LineString","coordinates":[[3.98219,43.55028],[3.98106,43.55013],[3.98001,43.5499],[3.97769,43.5494],[3.97681,43.54921],[3.9765,43.5491],[3.97603,43.549],[3.97579,43.54895],[3.97542,43.54886],[3.97499,43.54877],[3.97477,43.5487],[3.97468,43.54866],[3.97453,43.54861],[3.97444,43.54846],[3.97449,43.54834],[3.97428,43.54828],[3.97424,43.54822],[3.97428,43.54814],[3.97436,43.54812],[3.97454,43.54781],[3.97424,43.54772],[3.97393,43.54761],[3.97395,43.5475],[3.97382,43.54727],[3.97378,43.54718],[3.97375,43.54713],[3.97342,43.54654]]},"properties":{"slope_pct":0.2,"start_km":52.91,"end_km":53.85,"ele_start":1.1,"ele_end":2.8,"class":"plat","label":"Plat (−2 à 2 %)","color":"#94a3b8"}},{"type":"Feature","geometry":{"type":"LineString","coordinates":[[3.97342,43.54654],[3.97341,43.54651],[3.9732,43.54613],[3.97339,43.5458],[3.97324,43.54573],[3.97321,43.54567],[3.97289,43.54557],[3.9729,43.54551],[3.97291,43.54542],[3.97279,43.54536],[3.97271,43.54538],[3.97268,43.54539],[3.97256,43.54535],[3.97255,43.54538],[3.97256,43.54538],[3.97273,43.54544],[3.97271,43.54547],[3.97241,43.54538],[3.97236,43.54536],[3.97209,43.54528],[3.97207,43.54532],[3.97224,43.54536],[3.97226,43.54537],[3.97224,43.5454],[3.97204,43.54533],[3.972,43.54525],[3.97193,43.54512],[3.97187,43.54507],[3.97093,43.54536],[3.9711,43.54561],[3.97146,43.54584],[3.97157,43.54598],[3.97157,43.54608],[3.97138,43.5463],[3.97126,43.54642],[3.97109,43.5466],[3.97034,43.54731],[3.97021,43.5473],[3.97003,43.54722],[3.9692,43.5469]]},"properties":{"slope_pct":-0.3,"start_km":53.85,"end_km":54.641,"ele_start":2.8,"ele_end":0.4,"class":"plat","label":"Plat (−2 à 2 %)","color":"#94a3b8"}},{"type":"Feature","geometry":{"type":"LineString","coordinates":[[3.9692,43.5469],[3.96673,43.54626],[3.96278,43.54524]]},"properties":{"slope_pct":-0.1,"start_km":54.641,"end_km":55.191,"ele_start":0.4,"ele_end":-0.0,"class":"plat","label":"Plat (−2 à 2 %)","color":"#94a3b8"}},{"type":"Feature","geometry":{"type":"LineString","coordinates":[[3.96278,43.54524],[3.96268,43.54522],[3.95655,43.54363]]},"properties":{"slope_pct":-0.1,"start_km":55.191,"end_km":55.724,"ele_start":-0.0,"ele_end":-0.7,"class":"plat","label":"Plat (−2 à 2 %)","color":"#94a3b8"}},{"type":"Feature","geometry":{"type":"LineString","coordinates":[[3.95655,43.54363],[3.9563,43.54356],[3.95566,43.5434],[3.93803,43.53888]]},"properties":{"slope_pct":-0.0,"start_km":55.724,"end_km":57.307,"ele_start":-0.7,"ele_end":-1.2,"class":"plat","label":"Plat (−2 à 2 %)","color":"#94a3b8"}},{"type":"Feature","geometry":{"type":"LineString","coordinates":[[3.93803,43.53888],[3.93775,43.53882],[3.93071,43.53727]]},"properties":{"slope_pct":0.0,"start_km":57.307,"end_km":57.924,"ele_start":-1.2,"ele_end":-1.0,"class":"plat","label":"Plat (−2 à 2 %)","color":"#94a3b8"}},{"type":"Feature","geometry":{"type":"LineString","coordinates":[[3.93071,43.53727],[3.91985,43.53488]]},"properties":{"slope_pct":0.1,"start_km":57.924,"end_km":58.839,"ele_start":-1.0,"ele_end":-0.0,"class":"plat","label":"Plat (−2 à 2 %)","color":"#94a3b8"}},{"type":"Feature","geometry":{"type":"LineString","coordinates":[[3.91985,43.53488],[3.91933,43.53471],[3.91882,43.53454],[3.91877,43.53452],[3.91859,43.53442],[3.91834,43.53422],[3.91879,43.53432],[3.91904,43.53431],[3.91912,43.53432],[3.9188,43.5345],[3.91846,43.53468],[3.9183,43.53475],[3.91763,43.53511],[3.91753,43.53515],[3.91732,43.53524],[3.91627,43.53558],[3.91529,43.53583],[3.91467,43.53594],[3.91415,43.53603],[3.91344,43.53609]]},"properties":{"slope_pct":-0.0,"start_km":58.839,"end_km":59.553,"ele_start":-0.0,"ele_end":-0.4,"class":"plat","label":"Plat (−2 à 2 %)","color":"#94a3b8"}},{"type":"Feature","geometry":{"type":"LineString","coordinates":[[3.91344,43.53609],[3.91338,43.5361],[3.91325,43.5361],[3.91319,43.5361],[3.90847,43.53604],[3.90762,43.53608],[3.90696,43.53618],[3.90635,43.53635],[3.90569,43.5366],[3.90533,43.53679],[3.90493,43.53704],[3.9041,43.5377],[3.90301,43.53867]]},"properties":{"slope_pct":0.1,"start_km":59.553,"end_km":60.507,"ele_start":-0.4,"ele_end":0.3,"class":"plat","label":"Plat (−2 à 2 %)","color":"#94a3b8"}},{"type":"Feature","geometry":{"type":"LineString","coordinates":[[3.90301,43.53867],[3.90051,43.5408],[3.90044,43.54088],[3.90021,43.54115],[3.89985,43.54146],[3.89946,43.54192],[3.89925,43.54209],[3.89858,43.54258],[3.89822,43.54295],[3.89773,43.54367],[3.89756,43.54406],[3.89742,43.54475]]},"properties":{"slope_pct":0.0,"start_km":60.507,"end_km":61.333,"ele_start":0.3,"ele_end":0.3,"class":"plat","label":"Plat (−2 à 2 %)","color":"#94a3b8"}},{"type":"Feature","geometry":{"type":"LineString","coordinates":[[3.89742,43.54475],[3.89731,43.54564],[3.89721,43.54764],[3.89717,43.54778],[3.8972,43.54835],[3.89732,43.54923],[3.89781,43.5511]]},"properties":{"slope_pct":0.0,"start_km":61.333,"end_km":62.044,"ele_start":0.3,"ele_end":0.3,"class":"plat","label":"Plat (−2 à 2 %)","color":"#94a3b8"}},{"type":"Feature","geometry":{"type":"LineString","coordinates":[[3.89781,43.5511],[3.89805,43.55181],[3.89959,43.55641],[3.90011,43.55794]]},"properties":{"slope_pct":0.1,"start_km":62.044,"end_km":62.828,"ele_start":0.3,"ele_end":0.9,"class":"plat","label":"Plat (−2 à 2 %)","color":"#94a3b8"}},{"type":"Feature","geometry":{"type":"LineString","coordinates":[[3.90011,43.55794],[3.90017,43.55812],[3.90088,43.56022],[3.90092,43.56055],[3.90099,43.56061],[3.90104,43.56064],[3.90125,43.56133],[3.90179,43.56294],[3.9018,43.56297],[3.90234,43.56455],[3.90292,43.56626]]},"properties":{"slope_pct":0.3,"start_km":62.828,"end_km":63.782,"ele_start":0.9,"ele_end":3.4,"class":"plat","label":"Plat (−2 à 2 %)","color":"#94a3b8"}},{"type":"Feature","geometry":{"type":"LineString","coordinates":[[3.90292,43.56626],[3.90362,43.5676],[3.90379,43.56806],[3.90379,43.56818],[3.90388,43.56827],[3.90384,43.56831],[3.90359,43.56816],[3.90343,43.56817],[3.9033,43.56819],[3.90322,43.56828],[3.90315,43.56835],[3.90322,43.56837],[3.90344,43.56847],[3.90355,43.56858],[3.90359,43.56871],[3.90363,43.56875],[3.90394,43.56975],[3.90386,43.56981],[3.9038,43.56992],[3.90381,43.57006],[3.90395,43.57019],[3.90386,43.57027],[3.90364,43.57049],[3.90362,43.5705],[3.90347,43.57066],[3.9033,43.57081],[3.90321,43.57088],[3.90327,43.57092],[3.903,43.57117],[3.90266,43.57151],[3.90201,43.57213],[3.90197,43.57217],[3.90191,43.57214],[3.90187,43.57218],[3.90147,43.57256],[3.90106,43.57296]]},"properties":{"slope_pct":0.2,"start_km":63.782,"end_km":64.726,"ele_start":3.4,"ele_end":5.0,"class":"plat","label":"Plat (−2 à 2 %)","color":"#94a3b8"}},{"type":"Feature","geometry":{"type":"LineString","coordinates":[[3.90106,43.57296],[3.9009,43.57311],[3.90086,43.57315],[3.90064,43.57336],[3.90061,43.5734],[3.90041,43.57358],[3.90008,43.57391],[3.90001,43.57398],[3.89997,43.57401],[3.89967,43.5743],[3.89965,43.57433],[3.89961,43.57437],[3.89967,43.5744],[3.89971,43.57442],[3.8996,43.57453],[3.89966,43.57456],[3.89977,43.57458],[3.89997,43.57467],[3.90005,43.57471],[3.90024,43.57495],[3.90029,43.57504],[3.90047,43.57538],[3.90097,43.57576],[3.90107,43.5759],[3.90079,43.57609],[3.90081,43.57614],[3.90122,43.57651],[3.90287,43.57794],[3.90388,43.57878]]},"properties":{"slope_pct":0.1,"start_km":64.726,"end_km":65.568,"ele_start":5.0,"ele_end":6.2,"class":"plat","label":"Plat (−2 à 2 %)","color":"#94a3b8"}},{"type":"Feature","geometry":{"type":"LineString","coordinates":[[3.90388,43.57878],[3.90414,43.57894],[3.90444,43.57909],[3.90489,43.57925],[3.90695,43.58021],[3.9075,43.58062],[3.9077,43.58084],[3.90783,43.58107],[3.90798,43.5815],[3.90815,43.58343],[3.90815,43.58348],[3.90815,43.58369],[3.90805,43.58408],[3.90791,43.58453],[3.90771,43.5849],[3.90758,43.58523],[3.90743,43.58575]]},"properties":{"slope_pct":-0.0,"start_km":65.568,"end_km":66.513,"ele_start":6.2,"ele_end":5.9,"class":"plat","label":"Plat (−2 à 2 %)","color":"#94a3b8"}},{"type":"Feature","geometry":{"type":"LineString","coordinates":[[3.90743,43.58575],[3.90739,43.58602],[3.90745,43.58644],[3.90751,43.58651],[3.90765,43.58658],[3.90769,43.58662],[3.90804,43.58799],[3.90789,43.58808],[3.90789,43.58839],[3.90758,43.58988],[3.90732,43.59037],[3.90716,43.59058],[3.907,43.59073],[3.90659,43.59108],[3.90604,43.59144],[3.90572,43.59162],[3.90532,43.5919],[3.90498,43.5922],[3.90482,43.59238],[3.90457,43.59278],[3.90419,43.5936]]},"properties":{"slope_pct":0.4,"start_km":66.513,"end_km":67.498,"ele_start":5.9,"ele_end":9.4,"class":"plat","label":"Plat (−2 à 2 %)","color":"#94a3b8"}},{"type":"Feature","geometry":{"type":"LineString","coordinates":[[3.90419,43.5936],[3.90407,43.59389],[3.90393,43.59412],[3.90358,43.59447],[3.90328,43.59476],[3.9027,43.59519],[3.90262,43.59525],[3.90239,43.59542],[3.90211,43.59564],[3.9017,43.59594],[3.90144,43.59614],[3.90084,43.59655],[3.90076,43.59657],[3.89982,43.59714],[3.89944,43.59757],[3.89913,43.59795],[3.8988,43.5986],[3.89862,43.599],[3.89828,43.59952],[3.89801,43.59984],[3.89778,43.6001],[3.89733,43.60061]]},"properties":{"slope_pct":0.1,"start_km":67.498,"end_km":68.47,"ele_start":9.4,"ele_end":10.1,"class":"plat","label":"Plat (−2 à 2 %)","color":"#94a3b8"}},{"type":"Feature","geometry":{"type":"LineString","coordinates":[[3.89733,43.60061],[3.8974,43.60069],[3.89737,43.60073],[3.89713,43.60063],[3.89632,43.60021],[3.89625,43.60016],[3.89583,43.59994],[3.89579,43.59992],[3.89568,43.59988],[3.8957,43.59986],[3.89561,43.59984],[3.89535,43.59966],[3.89536,43.59965],[3.89548,43.59974],[3.89558,43.59967],[3.89571,43.59958]]},"properties":{"slope_pct":1.2,"start_km":68.47,"end_km":68.731,"ele_start":10.1,"ele_end":13.3,"class":"plat","label":"Plat (−2 à 2 %)","color":"#94a3b8"}}]}
