{"type":"FeatureCollection","generator":"tools/slope_colors.py","format_version":1,"source_gpx":"2026-07-24_3136470194_TMP - Tour du pic saint loup sens horaire.gpx","source_sha256":"45e8156ddba3d44cb866d1ef21f8f9aafe107564129d7155df74268da68fda69","params_fingerprint":"4bb834e818a4f3f7","params":{"segment_length_m":100.0,"smoothing_window_m":150.0,"resample_step_m":10.0,"max_merged_length_m":1000.0,"classes":[{"key":"descente-forte","label":"Descente forte (< −6 %)","min":null,"max":-6.0,"color":"#1d4ed8"},{"key":"descente","label":"Descente (−6 à −2 %)","min":-6.0,"max":-2.0,"color":"#60a5fa"},{"key":"plat","label":"Plat (−2 à 2 %)","min":-2.0,"max":2.0,"color":"#94a3b8"},{"key":"montee-faible","label":"Montée faible (2 à 4 %)","min":2.0,"max":4.0,"color":"#22c55e"},{"key":"montee-moderee","label":"Montée modérée (4 à 7 %)","min":4.0,"max":7.0,"color":"#eab308"},{"key":"montee-soutenue","label":"Montée soutenue (7 à 10 %)","min":7.0,"max":10.0,"color":"#f97316"},{"key":"montee-forte","label":"Montée forte (≥ 10 %)","min":10.0,"max":null,"color":"#dc2626"}]},"legend":[{"key":"descente-forte","label":"Descente forte (< −6 %)","min":null,"max":-6.0,"color":"#1d4ed8"},{"key":"descente","label":"Descente (−6 à −2 %)","min":-6.0,"max":-2.0,"color":"#60a5fa"},{"key":"plat","label":"Plat (−2 à 2 %)","min":-2.0,"max":2.0,"color":"#94a3b8"},{"key":"montee-faible","label":"Montée faible (2 à 4 %)","min":2.0,"max":4.0,"color":"#22c55e"},{"key":"montee-moderee","label":"Montée modérée (4 à 7 %)","min":4.0,"max":7.0,"color":"#eab308"},{"key":"montee-soutenue","label":"Montée soutenue (7 à 10 %)","min":7.0,"max":10.0,"color":"#f97316"},{"key":"montee-forte","label":"Montée forte (≥ 10 %)","min":10.0,"max":null,"color":"#dc2626"}],"stats":{"distance_km":62.91,"elevation_valid_ratio":1.0,"elevation_ok":true,"smoothed_gain_m":667,"max_slope_pct":12.1,"min_slope_pct":-8.2},"features":[{"type":"Feature","geometry":{"type":"LineString","coordinates":[[3.8809,43.65523],[3.88095,43.65525],[3.88098,43.65526],[3.88102,43.65523],[3.88113,43.65524],[3.88117,43.65528],[3.88116,43.65534],[3.88107,43.65538],[3.88102,43.65537],[3.88092,43.65543],[3.88082,43.65558],[3.88076,43.65573],[3.88068,43.65583],[3.88066,43.65587],[3.88056,43.65609],[3.88049,43.65619],[3.88033,43.65638],[3.88029,43.65647],[3.88026,43.65676]]},"properties":{"slope_pct":1.3,"start_km":0.0,"end_km":0.215,"ele_start":52.2,"ele_end":55.0,"class":"plat","label":"Plat (−2 à 2 %)","color":"#94a3b8"}},{"type":"Feature","geometry":{"type":"LineString","coordinates":[[3.88026,43.65676],[3.88018,43.65709],[3.88012,43.65719],[3.87994,43.65736],[3.87989,43.6575],[3.87985,43.65776]]},"properties":{"slope_pct":3.6,"start_km":0.215,"end_km":0.334,"ele_start":55.0,"ele_end":59.3,"class":"montee-faible","label":"Montée faible (2 à 4 %)","color":"#22c55e"}},{"type":"Feature","geometry":{"type":"LineString","coordinates":[[3.87985,43.65776],[3.87987,43.65794],[3.88009,43.65868],[3.88025,43.65916],[3.88052,43.65974]]},"properties":{"slope_pct":4.4,"start_km":0.334,"end_km":0.561,"ele_start":59.3,"ele_end":69.3,"class":"montee-moderee","label":"Montée modérée (4 à 7 %)","color":"#eab308"}},{"type":"Feature","geometry":{"type":"LineString","coordinates":[[3.88052,43.65974],[3.88058,43.65986],[3.88074,43.66019],[3.88085,43.66042],[3.88098,43.66122]]},"properties":{"slope_pct":2.1,"start_km":0.561,"end_km":0.73,"ele_start":69.3,"ele_end":72.9,"class":"montee-faible","label":"Montée faible (2 à 4 %)","color":"#22c55e"}},{"type":"Feature","geometry":{"type":"LineString","coordinates":[[3.88098,43.66122],[3.8811,43.66155],[3.88107,43.66184],[3.88103,43.66197],[3.88094,43.66204],[3.88055,43.66217],[3.88042,43.66226],[3.88037,43.66233],[3.88025,43.6628],[3.88115,43.66433]]},"properties":{"slope_pct":1.4,"start_km":0.73,"end_km":1.122,"ele_start":72.9,"ele_end":78.5,"class":"plat","label":"Plat (−2 à 2 %)","color":"#94a3b8"}},{"type":"Feature","geometry":{"type":"LineString","coordinates":[[3.88115,43.66433],[3.88207,43.66534],[3.88232,43.66551],[3.88253,43.66568],[3.88258,43.66579],[3.88257,43.66587],[3.88202,43.66626],[3.88202,43.66634],[3.88215,43.66653],[3.88221,43.66671],[3.88278,43.66743]]},"properties":{"slope_pct":2.8,"start_km":1.122,"end_km":1.538,"ele_start":78.5,"ele_end":90.0,"class":"montee-faible","label":"Montée faible (2 à 4 %)","color":"#22c55e"}},{"type":"Feature","geometry":{"type":"LineString","coordinates":[[3.88278,43.66743],[3.88307,43.66783],[3.88319,43.66785],[3.88377,43.66779]]},"properties":{"slope_pct":-0.1,"start_km":1.538,"end_km":1.646,"ele_start":90.0,"ele_end":89.9,"class":"plat","label":"Plat (−2 à 2 %)","color":"#94a3b8"}},{"type":"Feature","geometry":{"type":"LineString","coordinates":[[3.88377,43.66779],[3.88392,43.66777],[3.88409,43.66776],[3.88416,43.6678],[3.88476,43.66826]]},"properties":{"slope_pct":-2.2,"start_km":1.646,"end_km":1.749,"ele_start":89.9,"ele_end":87.6,"class":"descente","label":"Descente (−6 à −2 %)","color":"#60a5fa"}},{"type":"Feature","geometry":{"type":"LineString","coordinates":[[3.88476,43.66826],[3.88484,43.66828],[3.88492,43.66826],[3.88504,43.66817],[3.88492,43.66826],[3.88484,43.66828],[3.88481,43.66837],[3.88468,43.66851],[3.88454,43.66865],[3.88435,43.66885]]},"properties":{"slope_pct":1.1,"start_km":1.749,"end_km":1.873,"ele_start":87.6,"ele_end":88.9,"class":"plat","label":"Plat (−2 à 2 %)","color":"#94a3b8"}},{"type":"Feature","geometry":{"type":"LineString","coordinates":[[3.88435,43.66885],[3.88431,43.66896],[3.88436,43.66934],[3.88437,43.6695],[3.88435,43.66969],[3.88418,43.66981],[3.88412,43.66994],[3.88419,43.67001],[3.88429,43.67006],[3.88454,43.6701],[3.88457,43.6701],[3.88487,43.67016],[3.88502,43.67023],[3.88509,43.67029]]},"properties":{"slope_pct":3.5,"start_km":1.873,"end_km":2.091,"ele_start":88.9,"ele_end":96.5,"class":"montee-faible","label":"Montée faible (2 à 4 %)","color":"#22c55e"}},{"type":"Feature","geometry":{"type":"LineString","coordinates":[[3.88509,43.67029],[3.88511,43.67041],[3.88492,43.67074],[3.88483,43.67097],[3.88477,43.67121]]},"properties":{"slope_pct":1.2,"start_km":2.091,"end_km":2.197,"ele_start":96.5,"ele_end":97.8,"class":"plat","label":"Plat (−2 à 2 %)","color":"#94a3b8"}},{"type":"Feature","geometry":{"type":"LineString","coordinates":[[3.88477,43.67121],[3.88468,43.67141],[3.88413,43.67225],[3.88402,43.67241],[3.88395,43.67262],[3.88394,43.67292],[3.88389,43.67306],[3.88378,43.67318]]},"properties":{"slope_pct":4.6,"start_km":2.197,"end_km":2.434,"ele_start":97.8,"ele_end":108.6,"class":"montee-moderee","label":"Montée modérée (4 à 7 %)","color":"#eab308"}},{"type":"Feature","geometry":{"type":"LineString","coordinates":[[3.88378,43.67318],[3.88366,43.67339],[3.88364,43.67357],[3.88353,43.67386],[3.88323,43.67446]]},"properties":{"slope_pct":3.2,"start_km":2.434,"end_km":2.583,"ele_start":108.6,"ele_end":113.3,"class":"montee-faible","label":"Montée faible (2 à 4 %)","color":"#22c55e"}},{"type":"Feature","geometry":{"type":"LineString","coordinates":[[3.88323,43.67446],[3.88299,43.67487],[3.88275,43.67519],[3.88268,43.67532],[3.88266,43.67567],[3.8826,43.67646],[3.88235,43.67724],[3.88196,43.67795],[3.88187,43.67832],[3.8817,43.67879],[3.88142,43.67929],[3.88125,43.67956],[3.88137,43.68035],[3.88164,43.68064],[3.88184,43.68084],[3.88252,43.68176],[3.88271,43.68215],[3.88271,43.68244],[3.88265,43.68266]]},"properties":{"slope_pct":0.4,"start_km":2.583,"end_km":3.551,"ele_start":113.3,"ele_end":117.2,"class":"plat","label":"Plat (−2 à 2 %)","color":"#94a3b8"}},{"type":"Feature","geometry":{"type":"LineString","coordinates":[[3.88265,43.68266],[3.88251,43.68298],[3.88246,43.68318],[3.88245,43.68323],[3.88246,43.68339],[3.88243,43.68365],[3.8824,43.68417],[3.88243,43.68444],[3.88259,43.68492],[3.88273,43.68569],[3.88273,43.68575],[3.88273,43.68596]]},"properties":{"slope_pct":-0.3,"start_km":3.551,"end_km":3.923,"ele_start":117.2,"ele_end":116.0,"class":"plat","label":"Plat (−2 à 2 %)","color":"#94a3b8"}},{"type":"Feature","geometry":{"type":"LineString","coordinates":[[3.88273,43.68596],[3.88273,43.68629],[3.88284,43.68651],[3.88286,43.68654],[3.88297,43.68671],[3.88318,43.68721]]},"properties":{"slope_pct":3.7,"start_km":3.923,"end_km":4.068,"ele_start":116.0,"ele_end":121.4,"class":"montee-faible","label":"Montée faible (2 à 4 %)","color":"#22c55e"}},{"type":"Feature","geometry":{"type":"LineString","coordinates":[[3.88318,43.68721],[3.88324,43.68735],[3.88333,43.68755],[3.88335,43.68789],[3.88339,43.68851],[3.8834,43.68859],[3.88345,43.68915],[3.8835,43.68921],[3.88347,43.68926],[3.88346,43.68928],[3.88339,43.68952],[3.88347,43.68953],[3.88354,43.68967],[3.88375,43.69003],[3.88391,43.6902],[3.88406,43.69033],[3.8843,43.69051],[3.88473,43.69132],[3.88545,43.69206],[3.88583,43.69226],[3.88606,43.69232],[3.88654,43.69245],[3.88691,43.69264]]},"properties":{"slope_pct":-3.5,"start_km":4.068,"end_km":4.799,"ele_start":121.4,"ele_end":95.7,"class":"descente","label":"Descente (−6 à −2 %)","color":"#60a5fa"}},{"type":"Feature","geometry":{"type":"LineString","coordinates":[[3.88691,43.69264],[3.88702,43.69267],[3.88788,43.69278],[3.88832,43.69288]]},"properties":{"slope_pct":0.1,"start_km":4.799,"end_km":4.915,"ele_start":95.7,"ele_end":95.9,"class":"plat","label":"Plat (−2 à 2 %)","color":"#94a3b8"}},{"type":"Feature","geometry":{"type":"LineString","coordinates":[[3.88832,43.69288],[3.88863,43.69302],[3.889,43.6932],[3.88925,43.6937]]},"properties":{"slope_pct":6.9,"start_km":4.915,"end_km":5.039,"ele_start":95.9,"ele_end":104.5,"class":"montee-moderee","label":"Montée modérée (4 à 7 %)","color":"#eab308"}},{"type":"Feature","geometry":{"type":"LineString","coordinates":[[3.88925,43.6937],[3.88947,43.69398],[3.88976,43.69427],[3.89003,43.69451]]},"properties":{"slope_pct":7.2,"start_km":5.039,"end_km":5.15,"ele_start":104.5,"ele_end":112.4,"class":"montee-soutenue","label":"Montée soutenue (7 à 10 %)","color":"#f97316"}},{"type":"Feature","geometry":{"type":"LineString","coordinates":[[3.89003,43.69451],[3.89017,43.69457],[3.89037,43.69459],[3.89069,43.69457],[3.89092,43.6946],[3.89166,43.69485]]},"properties":{"slope_pct":2.7,"start_km":5.15,"end_km":5.289,"ele_start":112.4,"ele_end":116.2,"class":"montee-faible","label":"Montée faible (2 à 4 %)","color":"#22c55e"}},{"type":"Feature","geometry":{"type":"LineString","coordinates":[[3.89166,43.69485],[3.89184,43.69494],[3.89204,43.69523],[3.89221,43.6955],[3.89288,43.69695]]},"properties":{"slope_pct":4.7,"start_km":5.289,"end_km":5.545,"ele_start":116.2,"ele_end":128.2,"class":"montee-moderee","label":"Montée modérée (4 à 7 %)","color":"#eab308"}},{"type":"Feature","geometry":{"type":"LineString","coordinates":[[3.89288,43.69695],[3.89321,43.69756],[3.89331,43.69773],[3.89347,43.69786]]},"properties":{"slope_pct":3.1,"start_km":5.545,"end_km":5.658,"ele_start":128.2,"ele_end":131.7,"class":"montee-faible","label":"Montée faible (2 à 4 %)","color":"#22c55e"}},{"type":"Feature","geometry":{"type":"LineString","coordinates":[[3.89347,43.69786],[3.89365,43.69808],[3.89378,43.69837],[3.89391,43.69879]]},"properties":{"slope_pct":-0.1,"start_km":5.658,"end_km":5.769,"ele_start":131.7,"ele_end":131.6,"class":"plat","label":"Plat (−2 à 2 %)","color":"#94a3b8"}},{"type":"Feature","geometry":{"type":"LineString","coordinates":[[3.89391,43.69879],[3.89421,43.69915],[3.89471,43.69989],[3.89518,43.70057],[3.89536,43.7006],[3.89541,43.70063]]},"properties":{"slope_pct":-3.4,"start_km":5.769,"end_km":6.011,"ele_start":131.6,"ele_end":123.4,"class":"descente","label":"Descente (−6 à −2 %)","color":"#60a5fa"}},{"type":"Feature","geometry":{"type":"LineString","coordinates":[[3.89541,43.70063],[3.89542,43.70071],[3.89537,43.70078],[3.89537,43.70081],[3.89546,43.70094],[3.89562,43.70112],[3.89612,43.70155],[3.89625,43.70165],[3.89655,43.70188],[3.89658,43.7019],[3.89656,43.702],[3.89644,43.70222],[3.89672,43.70295]]},"properties":{"slope_pct":0.3,"start_km":6.011,"end_km":6.31,"ele_start":123.4,"ele_end":124.4,"class":"plat","label":"Plat (−2 à 2 %)","color":"#94a3b8"}},{"type":"Feature","geometry":{"type":"LineString","coordinates":[[3.89672,43.70295],[3.89694,43.70357],[3.89721,43.70443],[3.89743,43.70512],[3.89742,43.70521],[3.89734,43.70531]]},"properties":{"slope_pct":-2.8,"start_km":6.31,"end_km":6.581,"ele_start":124.4,"ele_end":116.8,"class":"descente","label":"Descente (−6 à −2 %)","color":"#60a5fa"}},{"type":"Feature","geometry":{"type":"LineString","coordinates":[[3.89734,43.70531],[3.89793,43.70544],[3.89809,43.70552],[3.8984,43.70603]]},"properties":{"slope_pct":-0.3,"start_km":6.581,"end_km":6.708,"ele_start":116.8,"ele_end":116.4,"class":"plat","label":"Plat (−2 à 2 %)","color":"#94a3b8"}},{"type":"Feature","geometry":{"type":"LineString","coordinates":[[3.8984,43.70603],[3.89851,43.70644],[3.89864,43.70666],[3.89867,43.70677],[3.89906,43.70733]]},"properties":{"slope_pct":4.2,"start_km":6.708,"end_km":6.863,"ele_start":116.4,"ele_end":122.9,"class":"montee-moderee","label":"Montée modérée (4 à 7 %)","color":"#eab308"}},{"type":"Feature","geometry":{"type":"LineString","coordinates":[[3.89906,43.70733],[3.89907,43.70743],[3.89902,43.70756],[3.89898,43.7076],[3.89877,43.7077],[3.89871,43.70775],[3.8986,43.70804],[3.89842,43.70826]]},"properties":{"slope_pct":7.8,"start_km":6.863,"end_km":6.984,"ele_start":122.9,"ele_end":132.4,"class":"montee-soutenue","label":"Montée soutenue (7 à 10 %)","color":"#f97316"}},{"type":"Feature","geometry":{"type":"LineString","coordinates":[[3.89842,43.70826],[3.8983,43.70846],[3.89827,43.70882],[3.89816,43.70907],[3.89812,43.70951]]},"properties":{"slope_pct":4.7,"start_km":6.984,"end_km":7.126,"ele_start":132.4,"ele_end":139.0,"class":"montee-moderee","label":"Montée modérée (4 à 7 %)","color":"#eab308"}},{"type":"Feature","geometry":{"type":"LineString","coordinates":[[3.89812,43.70951],[3.89806,43.70973],[3.89794,43.70993],[3.89783,43.71005],[3.89769,43.71019],[3.89753,43.71044]]},"properties":{"slope_pct":1.1,"start_km":7.126,"end_km":7.241,"ele_start":139.0,"ele_end":140.3,"class":"plat","label":"Plat (−2 à 2 %)","color":"#94a3b8"}},{"type":"Feature","geometry":{"type":"LineString","coordinates":[[3.89753,43.71044],[3.89736,43.71084],[3.89733,43.7109],[3.89699,43.71149]]},"properties":{"slope_pct":-6.0,"start_km":7.241,"end_km":7.366,"ele_start":140.3,"ele_end":132.8,"class":"descente","label":"Descente (−6 à −2 %)","color":"#60a5fa"}},{"type":"Feature","geometry":{"type":"LineString","coordinates":[[3.89699,43.71149],[3.89686,43.71163],[3.89694,43.71199],[3.8971,43.71424]]},"properties":{"slope_pct":-7.1,"start_km":7.366,"end_km":7.675,"ele_start":132.8,"ele_end":110.8,"class":"descente-forte","label":"Descente forte (< −6 %)","color":"#1d4ed8"}},{"type":"Feature","geometry":{"type":"LineString","coordinates":[[3.8971,43.71424],[3.89717,43.71486],[3.89723,43.71499],[3.8972,43.71518]]},"properties":{"slope_pct":-4.4,"start_km":7.675,"end_km":7.782,"ele_start":110.8,"ele_end":106.1,"class":"descente","label":"Descente (−6 à −2 %)","color":"#60a5fa"}},{"type":"Feature","geometry":{"type":"LineString","coordinates":[[3.8972,43.71518],[3.89696,43.71596],[3.89669,43.71686],[3.8965,43.71746],[3.896,43.71863],[3.89572,43.71895],[3.89551,43.71926],[3.89543,43.7194],[3.89519,43.71968],[3.8951,43.71985],[3.89463,43.72075],[3.89462,43.72088],[3.89463,43.72122],[3.89455,43.72163],[3.89461,43.72229],[3.89469,43.72248],[3.89466,43.7226],[3.89455,43.72273],[3.89411,43.72304]]},"properties":{"slope_pct":0.3,"start_km":7.782,"end_km":8.712,"ele_start":106.1,"ele_end":108.8,"class":"plat","label":"Plat (−2 à 2 %)","color":"#94a3b8"}},{"type":"Feature","geometry":{"type":"LineString","coordinates":[[3.89411,43.72304],[3.89394,43.72325],[3.89362,43.72383],[3.89303,43.72467],[3.89274,43.72519],[3.89269,43.72534],[3.89257,43.72563],[3.89245,43.72581],[3.89267,43.72593],[3.89346,43.72609]]},"properties":{"slope_pct":0.8,"start_km":8.712,"end_km":9.138,"ele_start":108.8,"ele_end":112.3,"class":"plat","label":"Plat (−2 à 2 %)","color":"#94a3b8"}},{"type":"Feature","geometry":{"type":"LineString","coordinates":[[3.89346,43.72609],[3.89358,43.72623],[3.89359,43.72644],[3.89351,43.72686],[3.89346,43.72776],[3.89347,43.72878],[3.89354,43.72937],[3.89344,43.72984]]},"properties":{"slope_pct":2.9,"start_km":9.138,"end_km":9.559,"ele_start":112.3,"ele_end":124.5,"class":"montee-faible","label":"Montée faible (2 à 4 %)","color":"#22c55e"}},{"type":"Feature","geometry":{"type":"LineString","coordinates":[[3.89344,43.72984],[3.89334,43.73031],[3.89342,43.73104],[3.8934,43.73149],[3.89349,43.73175],[3.89344,43.73242],[3.8932,43.73298],[3.89314,43.73329]]},"properties":{"slope_pct":1.3,"start_km":9.559,"end_km":9.948,"ele_start":124.5,"ele_end":129.4,"class":"plat","label":"Plat (−2 à 2 %)","color":"#94a3b8"}},{"type":"Feature","geometry":{"type":"LineString","coordinates":[[3.89314,43.73329],[3.89299,43.73369],[3.89285,43.73392],[3.89284,43.73414],[3.89275,43.73439]]},"properties":{"slope_pct":2.2,"start_km":9.948,"end_km":10.075,"ele_start":129.4,"ele_end":132.1,"class":"montee-faible","label":"Montée faible (2 à 4 %)","color":"#22c55e"}},{"type":"Feature","geometry":{"type":"LineString","coordinates":[[3.89275,43.73439],[3.89255,43.73499],[3.89152,43.73696],[3.89143,43.73707],[3.89133,43.73711],[3.8914,43.73726],[3.89184,43.73779],[3.89195,43.7379],[3.89208,43.73797],[3.89212,43.73803],[3.89218,43.73813],[3.89218,43.73826],[3.8921,43.73896],[3.8919,43.7394],[3.89193,43.73988],[3.89177,43.74042],[3.89184,43.74058],[3.89179,43.74081]]},"properties":{"slope_pct":0.7,"start_km":10.075,"end_km":10.839,"ele_start":132.1,"ele_end":137.4,"class":"plat","label":"Plat (−2 à 2 %)","color":"#94a3b8"}},{"type":"Feature","geometry":{"type":"LineString","coordinates":[[3.89179,43.74081],[3.89135,43.7417],[3.89125,43.74181],[3.89104,43.74219],[3.89086,43.74229],[3.89058,43.7426]]},"properties":{"slope_pct":-3.7,"start_km":10.839,"end_km":11.063,"ele_start":137.4,"ele_end":129.0,"class":"descente","label":"Descente (−6 à −2 %)","color":"#60a5fa"}},{"type":"Feature","geometry":{"type":"LineString","coordinates":[[3.89058,43.7426],[3.89047,43.74278],[3.89025,43.7433],[3.89013,43.74343],[3.88999,43.74359],[3.88962,43.74417],[3.88958,43.74437],[3.88941,43.74464],[3.88885,43.74537],[3.88875,43.74573],[3.88866,43.7461],[3.8885,43.74636],[3.88839,43.74669],[3.88813,43.74716],[3.88811,43.74725],[3.8884,43.74776],[3.88851,43.74811],[3.88841,43.74866],[3.88842,43.7488],[3.88853,43.74892],[3.88903,43.74921],[3.88897,43.74931],[3.88878,43.74943],[3.88768,43.75001]]},"properties":{"slope_pct":-0.4,"start_km":11.063,"end_km":12.009,"ele_start":129.0,"ele_end":125.4,"class":"plat","label":"Plat (−2 à 2 %)","color":"#94a3b8"}},{"type":"Feature","geometry":{"type":"LineString","coordinates":[[3.88768,43.75001],[3.88748,43.75015],[3.88734,43.75038],[3.88724,43.75075],[3.88716,43.75088],[3.88695,43.75138],[3.88687,43.75149],[3.88666,43.75168],[3.88623,43.75197],[3.88601,43.75228],[3.88576,43.75249],[3.88534,43.75277],[3.88524,43.75286],[3.88509,43.75311],[3.88486,43.75331],[3.88413,43.75415]]},"properties":{"slope_pct":0.6,"start_km":12.009,"end_km":12.561,"ele_start":125.4,"ele_end":128.7,"class":"plat","label":"Plat (−2 à 2 %)","color":"#94a3b8"}},{"type":"Feature","geometry":{"type":"LineString","coordinates":[[3.88413,43.75415],[3.88374,43.75449],[3.88272,43.75544]]},"properties":{"slope_pct":3.7,"start_km":12.561,"end_km":12.744,"ele_start":128.7,"ele_end":135.6,"class":"montee-faible","label":"Montée faible (2 à 4 %)","color":"#22c55e"}},{"type":"Feature","geometry":{"type":"LineString","coordinates":[[3.88272,43.75544],[3.88236,43.75595],[3.88226,43.75592],[3.88219,43.75583],[3.88183,43.75557]]},"properties":{"slope_pct":0.7,"start_km":12.744,"end_km":12.869,"ele_start":135.6,"ele_end":136.4,"class":"plat","label":"Plat (−2 à 2 %)","color":"#94a3b8"}},{"type":"Feature","geometry":{"type":"LineString","coordinates":[[3.88183,43.75557],[3.88166,43.75537],[3.88169,43.75509],[3.88166,43.75497],[3.8814,43.75478],[3.88131,43.75465],[3.88129,43.75444],[3.88097,43.75374],[3.8809,43.75338],[3.88077,43.75325],[3.88016,43.7529],[3.87986,43.75278],[3.87958,43.75259],[3.87952,43.75242],[3.87963,43.75201],[3.87951,43.75175],[3.8795,43.75135],[3.87911,43.75094]]},"properties":{"slope_pct":-3.9,"start_km":12.869,"end_km":13.467,"ele_start":136.4,"ele_end":112.9,"class":"descente","label":"Descente (−6 à −2 %)","color":"#60a5fa"}},{"type":"Feature","geometry":{"type":"LineString","coordinates":[[3.87911,43.75094],[3.87812,43.75011],[3.878,43.74985],[3.87773,43.74956],[3.87754,43.74938],[3.87698,43.74886]]},"properties":{"slope_pct":-0.6,"start_km":13.467,"end_km":13.757,"ele_start":112.9,"ele_end":111.0,"class":"plat","label":"Plat (−2 à 2 %)","color":"#94a3b8"}},{"type":"Feature","geometry":{"type":"LineString","coordinates":[[3.87698,43.74886],[3.87627,43.74834],[3.87562,43.74766],[3.87508,43.74732],[3.87467,43.74702]]},"properties":{"slope_pct":-2.1,"start_km":13.757,"end_km":14.034,"ele_start":111.0,"ele_end":105.3,"class":"descente","label":"Descente (−6 à −2 %)","color":"#60a5fa"}},{"type":"Feature","geometry":{"type":"LineString","coordinates":[[3.87467,43.74702],[3.87424,43.74681],[3.87383,43.74672],[3.87318,43.74666],[3.87269,43.74658],[3.87185,43.74661],[3.8713,43.74669],[3.87089,43.74688],[3.87072,43.74692],[3.87046,43.74692],[3.87009,43.74687],[3.86978,43.74667],[3.86956,43.74657],[3.86936,43.74651]]},"properties":{"slope_pct":-0.6,"start_km":14.034,"end_km":14.492,"ele_start":105.3,"ele_end":102.7,"class":"plat","label":"Plat (−2 à 2 %)","color":"#94a3b8"}},{"type":"Feature","geometry":{"type":"LineString","coordinates":[[3.86936,43.74651],[3.86866,43.7459],[3.86806,43.74531],[3.86764,43.74471],[3.86737,43.74442],[3.86724,43.74421],[3.86718,43.74379],[3.86698,43.7433],[3.86647,43.74282],[3.86639,43.74273],[3.86616,43.74233],[3.86604,43.74218],[3.86566,43.74211],[3.8654,43.742],[3.86531,43.7419],[3.86531,43.74168]]},"properties":{"slope_pct":-3.3,"start_km":14.492,"end_km":15.145,"ele_start":102.7,"ele_end":81.5,"class":"descente","label":"Descente (−6 à −2 %)","color":"#60a5fa"}},{"type":"Feature","geometry":{"type":"LineString","coordinates":[[3.86531,43.74168],[3.86512,43.74167],[3.86473,43.74179],[3.86463,43.74188],[3.86401,43.74274]]},"properties":{"slope_pct":-1.1,"start_km":15.145,"end_km":15.316,"ele_start":81.5,"ele_end":79.6,"class":"plat","label":"Plat (−2 à 2 %)","color":"#94a3b8"}},{"type":"Feature","geometry":{"type":"LineString","coordinates":[[3.86401,43.74274],[3.86384,43.74285],[3.86368,43.74301],[3.86356,43.74307],[3.86344,43.74305],[3.86335,43.74301],[3.86291,43.74283],[3.8625,43.74286],[3.8622,43.7429],[3.86174,43.74266]]},"properties":{"slope_pct":-2.3,"start_km":15.316,"end_km":15.53,"ele_start":79.6,"ele_end":74.5,"class":"descente","label":"Descente (−6 à −2 %)","color":"#60a5fa"}},{"type":"Feature","geometry":{"type":"LineString","coordinates":[[3.86174,43.74266],[3.86136,43.74257],[3.86094,43.74247],[3.86067,43.74237],[3.86024,43.74219],[3.85961,43.74194],[3.85926,43.74186],[3.8591,43.74185]]},"properties":{"slope_pct":0.1,"start_km":15.53,"end_km":15.762,"ele_start":74.5,"ele_end":74.8,"class":"plat","label":"Plat (−2 à 2 %)","color":"#94a3b8"}},{"type":"Feature","geometry":{"type":"LineString","coordinates":[[3.8591,43.74185],[3.85844,43.74189],[3.85813,43.74188],[3.85787,43.74183],[3.85756,43.74173]]},"properties":{"slope_pct":2.5,"start_km":15.762,"end_km":15.889,"ele_start":74.8,"ele_end":78.0,"class":"montee-faible","label":"Montée faible (2 à 4 %)","color":"#22c55e"}},{"type":"Feature","geometry":{"type":"LineString","coordinates":[[3.85756,43.74173],[3.85681,43.74146],[3.85676,43.74178],[3.85689,43.74264],[3.85689,43.74269],[3.85655,43.74305],[3.85608,43.7434],[3.85589,43.74364],[3.8558,43.7437],[3.85542,43.74345],[3.85522,43.74335],[3.8545,43.7431],[3.85428,43.74363],[3.85412,43.74389],[3.85405,43.74414],[3.85404,43.74429],[3.85409,43.74448],[3.85407,43.7446],[3.85312,43.74555],[3.85228,43.74597],[3.85211,43.74605],[3.8522,43.74616]]},"properties":{"slope_pct":0.6,"start_km":15.889,"end_km":16.777,"ele_start":78.0,"ele_end":83.1,"class":"plat","label":"Plat (−2 à 2 %)","color":"#94a3b8"}},{"type":"Feature","geometry":{"type":"LineString","coordinates":[[3.8522,43.74616],[3.85331,43.74686],[3.85306,43.74767],[3.85215,43.74844],[3.85212,43.74851],[3.85232,43.74885],[3.85235,43.749],[3.85233,43.74915],[3.84991,43.74997],[3.8489,43.75031],[3.84757,43.75117],[3.84619,43.7518]]},"properties":{"slope_pct":0.7,"start_km":16.777,"end_km":17.763,"ele_start":83.1,"ele_end":89.6,"class":"plat","label":"Plat (−2 à 2 %)","color":"#94a3b8"}},{"type":"Feature","geometry":{"type":"LineString","coordinates":[[3.84619,43.7518],[3.84529,43.75225],[3.84471,43.75269],[3.84435,43.75304],[3.84418,43.75317],[3.84395,43.7533],[3.84346,43.75277],[3.84332,43.75264],[3.84265,43.75213],[3.84241,43.75176],[3.84204,43.75144],[3.8416,43.75113],[3.84101,43.75058],[3.84052,43.7502],[3.8401,43.74987]]},"properties":{"slope_pct":1.3,"start_km":17.763,"end_km":18.504,"ele_start":89.6,"ele_end":99.5,"class":"plat","label":"Plat (−2 à 2 %)","color":"#94a3b8"}},{"type":"Feature","geometry":{"type":"LineString","coordinates":[[3.8401,43.74987],[3.83951,43.74952],[3.83908,43.74933]]},"properties":{"slope_pct":3.9,"start_km":18.504,"end_km":18.605,"ele_start":99.5,"ele_end":103.4,"class":"montee-faible","label":"Montée faible (2 à 4 %)","color":"#22c55e"}},{"type":"Feature","geometry":{"type":"LineString","coordinates":[[3.83908,43.74933],[3.83876,43.74924],[3.83839,43.74953],[3.8383,43.74955],[3.83788,43.74957]]},"properties":{"slope_pct":4.9,"start_km":18.605,"end_km":18.718,"ele_start":103.4,"ele_end":108.9,"class":"montee-moderee","label":"Montée modérée (4 à 7 %)","color":"#eab308"}},{"type":"Feature","geometry":{"type":"LineString","coordinates":[[3.83788,43.74957],[3.83759,43.74963],[3.83736,43.7497],[3.83724,43.74976],[3.83691,43.74992],[3.83618,43.75021]]},"properties":{"slope_pct":3.5,"start_km":18.718,"end_km":18.873,"ele_start":108.9,"ele_end":114.4,"class":"montee-faible","label":"Montée faible (2 à 4 %)","color":"#22c55e"}},{"type":"Feature","geometry":{"type":"LineString","coordinates":[[3.83618,43.75021],[3.83606,43.7503],[3.83598,43.75045],[3.83584,43.75072],[3.83567,43.75053],[3.83559,43.75041]]},"properties":{"slope_pct":1.7,"start_km":18.873,"end_km":18.978,"ele_start":114.4,"ele_end":116.2,"class":"plat","label":"Plat (−2 à 2 %)","color":"#94a3b8"}},{"type":"Feature","geometry":{"type":"LineString","coordinates":[[3.83559,43.75041],[3.83523,43.75015],[3.83506,43.75105]]},"properties":{"slope_pct":3.2,"start_km":18.978,"end_km":19.118,"ele_start":116.2,"ele_end":120.6,"class":"montee-faible","label":"Montée faible (2 à 4 %)","color":"#22c55e"}},{"type":"Feature","geometry":{"type":"LineString","coordinates":[[3.83506,43.75105],[3.83498,43.7517],[3.83497,43.75178],[3.83481,43.752]]},"properties":{"slope_pct":7.7,"start_km":19.118,"end_km":19.227,"ele_start":120.6,"ele_end":129.0,"class":"montee-soutenue","label":"Montée soutenue (7 à 10 %)","color":"#f97316"}},{"type":"Feature","geometry":{"type":"LineString","coordinates":[[3.83481,43.752],[3.83476,43.75207],[3.83463,43.75225],[3.8346,43.75233],[3.83465,43.75244],[3.83483,43.75264],[3.83499,43.75268],[3.83496,43.75285]]},"properties":{"slope_pct":6.7,"start_km":19.227,"end_km":19.341,"ele_start":129.0,"ele_end":136.6,"class":"montee-moderee","label":"Montée modérée (4 à 7 %)","color":"#eab308"}},{"type":"Feature","geometry":{"type":"LineString","coordinates":[[3.83496,43.75285],[3.83514,43.75318],[3.83507,43.75353],[3.8351,43.75373],[3.8353,43.75409],[3.8355,43.75456],[3.83547,43.7546]]},"properties":{"slope_pct":2.6,"start_km":19.341,"end_km":19.544,"ele_start":136.6,"ele_end":142.0,"class":"montee-faible","label":"Montée faible (2 à 4 %)","color":"#22c55e"}},{"type":"Feature","geometry":{"type":"LineString","coordinates":[[3.83547,43.7546],[3.83545,43.75466],[3.83508,43.75483],[3.834,43.75544]]},"properties":{"slope_pct":6.2,"start_km":19.544,"end_km":19.696,"ele_start":142.0,"ele_end":151.4,"class":"montee-moderee","label":"Montée modérée (4 à 7 %)","color":"#eab308"}},{"type":"Feature","geometry":{"type":"LineString","coordinates":[[3.834,43.75544],[3.83385,43.75548],[3.83374,43.75547],[3.83369,43.75539],[3.83367,43.75528],[3.83371,43.75498],[3.83369,43.7548],[3.83361,43.75459]]},"properties":{"slope_pct":2.2,"start_km":19.696,"end_km":19.817,"ele_start":151.4,"ele_end":154.1,"class":"montee-faible","label":"Montée faible (2 à 4 %)","color":"#22c55e"}},{"type":"Feature","geometry":{"type":"LineString","coordinates":[[3.83361,43.75459],[3.83344,43.75435],[3.8325,43.75345]]},"properties":{"slope_pct":1.9,"start_km":19.817,"end_km":19.973,"ele_start":154.1,"ele_end":157.0,"class":"plat","label":"Plat (−2 à 2 %)","color":"#94a3b8"}},{"type":"Feature","geometry":{"type":"LineString","coordinates":[[3.8325,43.75345],[3.83244,43.75341],[3.8323,43.7534],[3.83226,43.75343],[3.83227,43.75349],[3.83252,43.75378],[3.83282,43.75426],[3.83291,43.75453],[3.83295,43.7548],[3.83296,43.75501],[3.83276,43.756]]},"properties":{"slope_pct":5.6,"start_km":19.973,"end_km":20.295,"ele_start":157.0,"ele_end":175.0,"class":"montee-moderee","label":"Montée modérée (4 à 7 %)","color":"#eab308"}},{"type":"Feature","geometry":{"type":"LineString","coordinates":[[3.83276,43.756],[3.83261,43.75667],[3.83252,43.75682],[3.83237,43.75696]]},"properties":{"slope_pct":2.8,"start_km":20.295,"end_km":20.409,"ele_start":175.0,"ele_end":178.2,"class":"montee-faible","label":"Montée faible (2 à 4 %)","color":"#22c55e"}},{"type":"Feature","geometry":{"type":"LineString","coordinates":[[3.83237,43.75696],[3.83184,43.7572],[3.83126,43.75744]]},"properties":{"slope_pct":-0.7,"start_km":20.409,"end_km":20.512,"ele_start":178.2,"ele_end":177.5,"class":"plat","label":"Plat (−2 à 2 %)","color":"#94a3b8"}},{"type":"Feature","geometry":{"type":"LineString","coordinates":[[3.83126,43.75744],[3.83102,43.75763],[3.83088,43.75789],[3.83087,43.75806],[3.83092,43.75822],[3.83119,43.75854],[3.83127,43.7588],[3.83141,43.75898],[3.83182,43.75935]]},"properties":{"slope_pct":5.0,"start_km":20.512,"end_km":20.756,"ele_start":177.5,"ele_end":189.6,"class":"montee-moderee","label":"Montée modérée (4 à 7 %)","color":"#eab308"}},{"type":"Feature","geometry":{"type":"LineString","coordinates":[[3.83182,43.75935],[3.83187,43.75944],[3.83185,43.75953],[3.83179,43.75957],[3.83165,43.7596],[3.83117,43.75964],[3.83062,43.75974]]},"properties":{"slope_pct":-6.8,"start_km":20.756,"end_km":20.879,"ele_start":189.6,"ele_end":181.3,"class":"descente-forte","label":"Descente forte (< −6 %)","color":"#1d4ed8"}},{"type":"Feature","geometry":{"type":"LineString","coordinates":[[3.83062,43.75974],[3.83016,43.75977],[3.82962,43.75991],[3.8287,43.76031]]},"properties":{"slope_pct":-2.9,"start_km":20.879,"end_km":21.049,"ele_start":181.3,"ele_end":176.4,"class":"descente","label":"Descente (−6 à −2 %)","color":"#60a5fa"}},{"type":"Feature","geometry":{"type":"LineString","coordinates":[[3.8287,43.76031],[3.82755,43.76072],[3.82741,43.76079],[3.82729,43.76092],[3.82713,43.76122],[3.8267,43.76188],[3.82662,43.76213],[3.82666,43.76276],[3.82669,43.7629],[3.82669,43.76297],[3.82672,43.7632],[3.82667,43.76341],[3.82654,43.76362],[3.82637,43.76377],[3.82567,43.76417],[3.82525,43.76438],[3.82489,43.76445],[3.82478,43.7645],[3.82466,43.76463],[3.82427,43.76506],[3.8238,43.7657],[3.8236,43.76612]]},"properties":{"slope_pct":0.1,"start_km":21.049,"end_km":21.875,"ele_start":176.4,"ele_end":177.3,"class":"plat","label":"Plat (−2 à 2 %)","color":"#94a3b8"}},{"type":"Feature","geometry":{"type":"LineString","coordinates":[[3.8236,43.76612],[3.82299,43.76763],[3.82296,43.76776],[3.82297,43.76794],[3.82306,43.76852],[3.82305,43.76857]]},"properties":{"slope_pct":2.3,"start_km":21.875,"end_km":22.156,"ele_start":177.3,"ele_end":183.6,"class":"montee-faible","label":"Montée faible (2 à 4 %)","color":"#22c55e"}},{"type":"Feature","geometry":{"type":"LineString","coordinates":[[3.82305,43.76857],[3.82292,43.76861],[3.82245,43.76861],[3.8207,43.76852]]},"properties":{"slope_pct":1.7,"start_km":22.156,"end_km":22.346,"ele_start":183.6,"ele_end":186.9,"class":"plat","label":"Plat (−2 à 2 %)","color":"#94a3b8"}},{"type":"Feature","geometry":{"type":"LineString","coordinates":[[3.8207,43.76852],[3.82043,43.76854],[3.81942,43.76871],[3.81916,43.76869],[3.81856,43.76847],[3.81838,43.7684],[3.81749,43.76804]]},"properties":{"slope_pct":2.4,"start_km":22.346,"end_km":22.624,"ele_start":186.9,"ele_end":193.6,"class":"montee-faible","label":"Montée faible (2 à 4 %)","color":"#22c55e"}},{"type":"Feature","geometry":{"type":"LineString","coordinates":[[3.81749,43.76804],[3.81739,43.76801],[3.81717,43.768],[3.81646,43.76814],[3.81454,43.76859]]},"properties":{"slope_pct":4.4,"start_km":22.624,"end_km":22.871,"ele_start":193.6,"ele_end":204.5,"class":"montee-moderee","label":"Montée modérée (4 à 7 %)","color":"#eab308"}},{"type":"Feature","geometry":{"type":"LineString","coordinates":[[3.81454,43.76859],[3.81406,43.76874],[3.81391,43.76881],[3.81169,43.77003],[3.81132,43.77015],[3.8112,43.77016],[3.81107,43.77012],[3.81051,43.76988],[3.81021,43.76968],[3.81007,43.76967],[3.81002,43.76974],[3.81028,43.77002],[3.81039,43.77019]]},"properties":{"slope_pct":8.2,"start_km":22.871,"end_km":23.369,"ele_start":204.5,"ele_end":245.5,"class":"montee-soutenue","label":"Montée soutenue (7 à 10 %)","color":"#f97316"}},{"type":"Feature","geometry":{"type":"LineString","coordinates":[[3.81039,43.77019],[3.81039,43.77035],[3.81031,43.77047],[3.80972,43.77077],[3.80907,43.77104]]},"properties":{"slope_pct":12.1,"start_km":23.369,"end_km":23.519,"ele_start":245.5,"ele_end":263.7,"class":"montee-forte","label":"Montée forte (≥ 10 %)","color":"#dc2626"}},{"type":"Feature","geometry":{"type":"LineString","coordinates":[[3.80907,43.77104],[3.80898,43.77103],[3.80894,43.77096],[3.80902,43.77088],[3.80929,43.77077],[3.80963,43.77047],[3.80968,43.7703]]},"properties":{"slope_pct":0.4,"start_km":23.519,"end_km":23.634,"ele_start":263.7,"ele_end":264.1,"class":"plat","label":"Plat (−2 à 2 %)","color":"#94a3b8"}},{"type":"Feature","geometry":{"type":"LineString","coordinates":[[3.80968,43.7703],[3.80963,43.77015],[3.80924,43.76985],[3.8083,43.7694]]},"properties":{"slope_pct":8.9,"start_km":23.634,"end_km":23.787,"ele_start":264.1,"ele_end":277.7,"class":"montee-soutenue","label":"Montée soutenue (7 à 10 %)","color":"#f97316"}},{"type":"Feature","geometry":{"type":"LineString","coordinates":[[3.8083,43.7694],[3.80757,43.76879],[3.80749,43.76865]]},"properties":{"slope_pct":11.8,"start_km":23.787,"end_km":23.894,"ele_start":277.7,"ele_end":290.3,"class":"montee-forte","label":"Montée forte (≥ 10 %)","color":"#dc2626"}},{"type":"Feature","geometry":{"type":"LineString","coordinates":[[3.80749,43.76865],[3.80759,43.76794],[3.80777,43.76728],[3.80773,43.76709],[3.80759,43.76684],[3.80754,43.76648],[3.80753,43.76597],[3.80738,43.76556],[3.80724,43.76541],[3.80705,43.76532],[3.80553,43.76471]]},"properties":{"slope_pct":-0.1,"start_km":23.894,"end_km":24.421,"ele_start":290.3,"ele_end":290.0,"class":"plat","label":"Plat (−2 à 2 %)","color":"#94a3b8"}},{"type":"Feature","geometry":{"type":"LineString","coordinates":[[3.80553,43.76471],[3.80536,43.76469],[3.80525,43.76474],[3.80515,43.76485],[3.80483,43.76534],[3.80466,43.7654]]},"properties":{"slope_pct":2.3,"start_km":24.421,"end_km":24.535,"ele_start":290.0,"ele_end":292.6,"class":"montee-faible","label":"Montée faible (2 à 4 %)","color":"#22c55e"}},{"type":"Feature","geometry":{"type":"LineString","coordinates":[[3.80466,43.7654],[3.80407,43.76539],[3.80383,43.76533],[3.80253,43.76537]]},"properties":{"slope_pct":-1.6,"start_km":24.535,"end_km":24.707,"ele_start":292.6,"ele_end":289.9,"class":"plat","label":"Plat (−2 à 2 %)","color":"#94a3b8"}},{"type":"Feature","geometry":{"type":"LineString","coordinates":[[3.80253,43.76537],[3.80221,43.76545],[3.80034,43.76617],[3.79909,43.76666]]},"properties":{"slope_pct":-2.9,"start_km":24.707,"end_km":25.018,"ele_start":289.9,"ele_end":280.9,"class":"descente","label":"Descente (−6 à −2 %)","color":"#60a5fa"}},{"type":"Feature","geometry":{"type":"LineString","coordinates":[[3.79909,43.76666],[3.7984,43.76687],[3.7967,43.76729],[3.79481,43.76787],[3.79354,43.76825],[3.79245,43.76857],[3.7917,43.76895]]},"properties":{"slope_pct":1.0,"start_km":25.018,"end_km":25.667,"ele_start":280.9,"ele_end":287.2,"class":"plat","label":"Plat (−2 à 2 %)","color":"#94a3b8"}},{"type":"Feature","geometry":{"type":"LineString","coordinates":[[3.7917,43.76895],[3.79161,43.76904],[3.79148,43.76958],[3.79146,43.7696],[3.79135,43.76967],[3.79075,43.76976],[3.79024,43.76986],[3.78992,43.76996],[3.78968,43.76998],[3.78934,43.76995]]},"properties":{"slope_pct":3.0,"start_km":25.667,"end_km":25.921,"ele_start":287.2,"ele_end":294.8,"class":"montee-faible","label":"Montée faible (2 à 4 %)","color":"#22c55e"}},{"type":"Feature","geometry":{"type":"LineString","coordinates":[[3.78934,43.76995],[3.78881,43.76985],[3.78781,43.76951]]},"properties":{"slope_pct":-0.6,"start_km":25.921,"end_km":26.053,"ele_start":294.8,"ele_end":294.0,"class":"plat","label":"Plat (−2 à 2 %)","color":"#94a3b8"}},{"type":"Feature","geometry":{"type":"LineString","coordinates":[[3.78781,43.76951],[3.78722,43.76931],[3.78652,43.76893],[3.7862,43.76874],[3.78612,43.76869],[3.78587,43.76854],[3.78557,43.76838],[3.78533,43.76821],[3.78517,43.76806],[3.78483,43.76772],[3.78444,43.76738]]},"properties":{"slope_pct":-3.6,"start_km":26.053,"end_km":26.418,"ele_start":294.0,"ele_end":280.9,"class":"descente","label":"Descente (−6 à −2 %)","color":"#60a5fa"}},{"type":"Feature","geometry":{"type":"LineString","coordinates":[[3.78444,43.76738],[3.78382,43.76684],[3.78328,43.76642],[3.78308,43.76629],[3.78162,43.76536]]},"properties":{"slope_pct":-0.7,"start_km":26.418,"end_km":26.737,"ele_start":280.9,"ele_end":278.5,"class":"plat","label":"Plat (−2 à 2 %)","color":"#94a3b8"}},{"type":"Feature","geometry":{"type":"LineString","coordinates":[[3.78162,43.76536],[3.78135,43.76515],[3.78009,43.76373],[3.77992,43.76356],[3.77975,43.76336],[3.77967,43.76328],[3.77954,43.76313],[3.77854,43.76198],[3.77823,43.76166],[3.77779,43.76124],[3.77747,43.761],[3.77726,43.76079],[3.77701,43.76033],[3.77689,43.76017],[3.77662,43.75993],[3.77633,43.75975],[3.77601,43.75952],[3.77546,43.75886],[3.77533,43.75872]]},"properties":{"slope_pct":-3.1,"start_km":26.737,"end_km":27.637,"ele_start":278.5,"ele_end":250.4,"class":"descente","label":"Descente (−6 à −2 %)","color":"#60a5fa"}},{"type":"Feature","geometry":{"type":"LineString","coordinates":[[3.77533,43.75872],[3.77468,43.75826],[3.77453,43.75807],[3.7744,43.75787],[3.77391,43.75677],[3.77375,43.75646],[3.7736,43.75627],[3.77315,43.75579],[3.77267,43.75511],[3.77246,43.75488]]},"properties":{"slope_pct":-1.2,"start_km":27.637,"end_km":28.128,"ele_start":250.4,"ele_end":244.6,"class":"plat","label":"Plat (−2 à 2 %)","color":"#94a3b8"}},{"type":"Feature","geometry":{"type":"LineString","coordinates":[[3.77246,43.75488],[3.7715,43.75375],[3.77038,43.75253]]},"properties":{"slope_pct":-2.6,"start_km":28.128,"end_km":28.438,"ele_start":244.6,"ele_end":236.7,"class":"descente","label":"Descente (−6 à −2 %)","color":"#60a5fa"}},{"type":"Feature","geometry":{"type":"LineString","coordinates":[[3.77038,43.75253],[3.77024,43.75239],[3.77,43.75225],[3.76961,43.75241],[3.76936,43.75267],[3.76915,43.75288],[3.76843,43.75342],[3.76746,43.75428]]},"properties":{"slope_pct":0.7,"start_km":28.438,"end_km":28.789,"ele_start":236.7,"ele_end":239.2,"class":"plat","label":"Plat (−2 à 2 %)","color":"#94a3b8"}},{"type":"Feature","geometry":{"type":"LineString","coordinates":[[3.76746,43.75428],[3.76621,43.75536],[3.76596,43.75552],[3.76588,43.75558],[3.76584,43.75564],[3.76573,43.75582],[3.76523,43.75631]]},"properties":{"slope_pct":3.3,"start_km":28.789,"end_km":29.079,"ele_start":239.2,"ele_end":248.7,"class":"montee-faible","label":"Montée faible (2 à 4 %)","color":"#22c55e"}},{"type":"Feature","geometry":{"type":"LineString","coordinates":[[3.76523,43.75631],[3.76516,43.75637],[3.76305,43.75836],[3.76211,43.7594],[3.76205,43.75952],[3.76196,43.75962],[3.76175,43.75977],[3.76145,43.7601],[3.76128,43.76027]]},"properties":{"slope_pct":0.2,"start_km":29.079,"end_km":29.623,"ele_start":248.7,"ele_end":249.8,"class":"plat","label":"Plat (−2 à 2 %)","color":"#94a3b8"}},{"type":"Feature","geometry":{"type":"LineString","coordinates":[[3.76128,43.76027],[3.76119,43.7604],[3.76104,43.76056],[3.76097,43.76073],[3.76096,43.76075],[3.76055,43.76177]]},"properties":{"slope_pct":2.7,"start_km":29.623,"end_km":29.801,"ele_start":249.8,"ele_end":254.6,"class":"montee-faible","label":"Montée faible (2 à 4 %)","color":"#22c55e"}},{"type":"Feature","geometry":{"type":"LineString","coordinates":[[3.76055,43.76177],[3.76028,43.76228],[3.76007,43.76283]]},"properties":{"slope_pct":4.1,"start_km":29.801,"end_km":29.925,"ele_start":254.6,"ele_end":259.6,"class":"montee-moderee","label":"Montée modérée (4 à 7 %)","color":"#eab308"}},{"type":"Feature","geometry":{"type":"LineString","coordinates":[[3.76007,43.76283],[3.75997,43.76301],[3.75986,43.76338],[3.75957,43.76392],[3.75879,43.76483]]},"properties":{"slope_pct":3.2,"start_km":29.925,"end_km":30.173,"ele_start":259.6,"ele_end":267.5,"class":"montee-faible","label":"Montée faible (2 à 4 %)","color":"#22c55e"}},{"type":"Feature","geometry":{"type":"LineString","coordinates":[[3.75879,43.76483],[3.7584,43.76518],[3.75797,43.76561],[3.75763,43.76604],[3.75742,43.76624],[3.75722,43.7663]]},"properties":{"slope_pct":5.4,"start_km":30.173,"end_km":30.381,"ele_start":267.5,"ele_end":278.8,"class":"montee-moderee","label":"Montée modérée (4 à 7 %)","color":"#eab308"}},{"type":"Feature","geometry":{"type":"LineString","coordinates":[[3.75722,43.7663],[3.75691,43.76629],[3.75667,43.76633],[3.75641,43.76649],[3.75634,43.76653],[3.75629,43.76666],[3.75627,43.76679]]},"properties":{"slope_pct":7.8,"start_km":30.381,"end_km":30.49,"ele_start":278.8,"ele_end":287.3,"class":"montee-soutenue","label":"Montée soutenue (7 à 10 %)","color":"#f97316"}},{"type":"Feature","geometry":{"type":"LineString","coordinates":[[3.75627,43.76679],[3.75639,43.76699],[3.75635,43.76712],[3.75618,43.76726],[3.75582,43.76735],[3.7551,43.76809]]},"properties":{"slope_pct":0.4,"start_km":30.49,"end_km":30.681,"ele_start":287.3,"ele_end":288.1,"class":"plat","label":"Plat (−2 à 2 %)","color":"#94a3b8"}},{"type":"Feature","geometry":{"type":"LineString","coordinates":[[3.7551,43.76809],[3.75492,43.76842],[3.75477,43.7688],[3.75475,43.76915],[3.75487,43.76949],[3.75488,43.76987],[3.75483,43.77004]]},"properties":{"slope_pct":-3.6,"start_km":30.681,"end_km":30.904,"ele_start":288.1,"ele_end":280.1,"class":"descente","label":"Descente (−6 à −2 %)","color":"#60a5fa"}},{"type":"Feature","geometry":{"type":"LineString","coordinates":[[3.75483,43.77004],[3.75455,43.77037],[3.75421,43.77086],[3.75334,43.77186],[3.75286,43.77246],[3.75473,43.77304],[3.75492,43.7731],[3.7552,43.7732],[3.75558,43.77355],[3.75577,43.77372],[3.75677,43.77455]]},"properties":{"slope_pct":-0.6,"start_km":30.904,"end_km":31.617,"ele_start":280.1,"ele_end":275.6,"class":"plat","label":"Plat (−2 à 2 %)","color":"#94a3b8"}},{"type":"Feature","geometry":{"type":"LineString","coordinates":[[3.75677,43.77455],[3.75707,43.77477],[3.75712,43.77485],[3.75713,43.775],[3.75708,43.77511],[3.75689,43.7752],[3.75592,43.77538],[3.75579,43.77544],[3.75571,43.77553],[3.75568,43.77567],[3.75572,43.77579],[3.75574,43.77582],[3.75582,43.77587],[3.75594,43.77591],[3.7565,43.77616],[3.75657,43.77623],[3.75656,43.77653],[3.75673,43.77677],[3.75691,43.77694],[3.75698,43.77697]]},"properties":{"slope_pct":-3.2,"start_km":31.617,"end_km":32.021,"ele_start":275.6,"ele_end":262.6,"class":"descente","label":"Descente (−6 à −2 %)","color":"#60a5fa"}},{"type":"Feature","geometry":{"type":"LineString","coordinates":[[3.75698,43.77697],[3.75745,43.77718],[3.75825,43.77745]]},"properties":{"slope_pct":-1.1,"start_km":32.021,"end_km":32.137,"ele_start":262.6,"ele_end":261.3,"class":"plat","label":"Plat (−2 à 2 %)","color":"#94a3b8"}},{"type":"Feature","geometry":{"type":"LineString","coordinates":[[3.75825,43.77745],[3.75836,43.77758],[3.75835,43.77765],[3.75799,43.77812],[3.7579,43.77819],[3.75772,43.77825]]},"properties":{"slope_pct":4.2,"start_km":32.137,"end_km":32.248,"ele_start":261.3,"ele_end":266.1,"class":"montee-moderee","label":"Montée modérée (4 à 7 %)","color":"#eab308"}},{"type":"Feature","geometry":{"type":"LineString","coordinates":[[3.75772,43.77825],[3.7573,43.7783],[3.75697,43.77849],[3.75688,43.77857],[3.75689,43.77867],[3.75696,43.77874]]},"properties":{"slope_pct":-0.5,"start_km":32.248,"end_km":32.348,"ele_start":266.1,"ele_end":265.6,"class":"plat","label":"Plat (−2 à 2 %)","color":"#94a3b8"}},{"type":"Feature","geometry":{"type":"LineString","coordinates":[[3.75696,43.77874],[3.75741,43.77891],[3.75755,43.77899],[3.7576,43.77909],[3.75759,43.77915],[3.75752,43.77922],[3.75704,43.77949],[3.75678,43.77972],[3.75666,43.77976],[3.75624,43.77983],[3.7562,43.77982],[3.75612,43.77981],[3.75603,43.77976],[3.7559,43.77954],[3.75571,43.77946],[3.75541,43.77947],[3.75484,43.77953],[3.75468,43.77963],[3.75465,43.77969],[3.75449,43.7804],[3.75439,43.78064],[3.75424,43.78084],[3.75414,43.78088],[3.75403,43.78089],[3.75348,43.78084],[3.75333,43.78088]]},"properties":{"slope_pct":-3.8,"start_km":32.348,"end_km":32.925,"ele_start":265.6,"ele_end":243.5,"class":"descente","label":"Descente (−6 à −2 %)","color":"#60a5fa"}},{"type":"Feature","geometry":{"type":"LineString","coordinates":[[3.75333,43.78088],[3.75323,43.78093],[3.75306,43.78105],[3.75304,43.78111],[3.75342,43.78101],[3.7536,43.78104],[3.75369,43.7811],[3.75395,43.78178],[3.7541,43.78196],[3.75436,43.78218],[3.7545,43.78225],[3.75471,43.78224],[3.75489,43.78221]]},"properties":{"slope_pct":-8.1,"start_km":32.925,"end_km":33.198,"ele_start":243.5,"ele_end":221.4,"class":"descente-forte","label":"Descente forte (< −6 %)","color":"#1d4ed8"}},{"type":"Feature","geometry":{"type":"LineString","coordinates":[[3.75489,43.78221],[3.75497,43.78219],[3.75507,43.78222],[3.75581,43.78282],[3.75613,43.78322],[3.75624,43.78342],[3.75637,43.78365],[3.75641,43.78371],[3.75643,43.78372],[3.75647,43.78372],[3.75646,43.78376],[3.75655,43.78423],[3.7566,43.78435],[3.75667,43.78445],[3.75682,43.78458],[3.75692,43.78467],[3.75722,43.78506],[3.75732,43.78539],[3.75735,43.7856],[3.75746,43.78581],[3.75743,43.7859],[3.7576,43.78599],[3.75774,43.78612],[3.75791,43.78639],[3.75852,43.78754],[3.75897,43.78833],[3.75924,43.78864],[3.75951,43.78888],[3.75992,43.78929],[3.76007,43.78949]]},"properties":{"slope_pct":-3.5,"start_km":33.198,"end_km":34.136,"ele_start":221.4,"ele_end":188.5,"class":"descente","label":"Descente (−6 à −2 %)","color":"#60a5fa"}},{"type":"Feature","geometry":{"type":"LineString","coordinates":[[3.76007,43.78949],[3.76048,43.79008],[3.76081,43.79069],[3.76097,43.79089],[3.76129,43.79118],[3.7615,43.79133],[3.7621,43.79164]]},"properties":{"slope_pct":-2.1,"start_km":34.136,"end_km":34.431,"ele_start":188.5,"ele_end":182.4,"class":"descente","label":"Descente (−6 à −2 %)","color":"#60a5fa"}},{"type":"Feature","geometry":{"type":"LineString","coordinates":[[3.7621,43.79164],[3.76219,43.79168],[3.76309,43.7921],[3.76344,43.79223],[3.76509,43.79274],[3.76671,43.79336],[3.76771,43.79375],[3.7682,43.7939],[3.76871,43.79398],[3.76904,43.79399],[3.76915,43.794],[3.76938,43.79401],[3.7701,43.79406],[3.77055,43.79412],[3.77175,43.79437]]},"properties":{"slope_pct":-0.1,"start_km":34.431,"end_km":35.274,"ele_start":182.4,"ele_end":181.8,"class":"plat","label":"Plat (−2 à 2 %)","color":"#94a3b8"}},{"type":"Feature","geometry":{"type":"LineString","coordinates":[[3.77175,43.79437],[3.77397,43.79482],[3.77409,43.79485],[3.77516,43.79507],[3.77654,43.7953],[3.77705,43.79534],[3.77736,43.79529],[3.77823,43.79503],[3.77895,43.79485],[3.78094,43.79462],[3.78134,43.79463],[3.782,43.79475],[3.78231,43.79476]]},"properties":{"slope_pct":0.8,"start_km":35.274,"end_km":36.148,"ele_start":181.8,"ele_end":188.8,"class":"plat","label":"Plat (−2 à 2 %)","color":"#94a3b8"}},{"type":"Feature","geometry":{"type":"LineString","coordinates":[[3.78231,43.79476],[3.78255,43.79473],[3.78295,43.79462],[3.78314,43.79452],[3.78335,43.79438],[3.78401,43.79378],[3.78424,43.79359],[3.78449,43.79343],[3.78511,43.79312],[3.78703,43.79244],[3.78734,43.79235],[3.78793,43.79225],[3.78823,43.79223],[3.78873,43.79224],[3.78975,43.79235],[3.79056,43.79243],[3.79074,43.79244],[3.79105,43.79244],[3.79131,43.79241],[3.79292,43.79207]]},"properties":{"slope_pct":-0.2,"start_km":36.148,"end_km":37.1,"ele_start":188.8,"ele_end":186.8,"class":"plat","label":"Plat (−2 à 2 %)","color":"#94a3b8"}},{"type":"Feature","geometry":{"type":"LineString","coordinates":[[3.79292,43.79207],[3.7937,43.79191],[3.7939,43.79187],[3.79414,43.79184],[3.79439,43.79183],[3.7948,43.79187],[3.79488,43.79188],[3.79533,43.792],[3.79563,43.79212],[3.79596,43.79232],[3.79675,43.79287],[3.79724,43.7931],[3.79764,43.79323],[3.79819,43.79334],[3.80054,43.79369]]},"properties":{"slope_pct":0.1,"start_km":37.1,"end_km":37.771,"ele_start":186.8,"ele_end":187.3,"class":"plat","label":"Plat (−2 à 2 %)","color":"#94a3b8"}},{"type":"Feature","geometry":{"type":"LineString","coordinates":[[3.80054,43.79369],[3.80067,43.79371],[3.80078,43.79371],[3.80087,43.79371],[3.80176,43.79355]]},"properties":{"slope_pct":3.6,"start_km":37.771,"end_km":37.871,"ele_start":187.3,"ele_end":191.0,"class":"montee-faible","label":"Montée faible (2 à 4 %)","color":"#22c55e"}},{"type":"Feature","geometry":{"type":"LineString","coordinates":[[3.80176,43.79355],[3.80222,43.79337],[3.80255,43.79315],[3.8028,43.79292],[3.80404,43.79112]]},"properties":{"slope_pct":5.1,"start_km":37.871,"end_km":38.205,"ele_start":191.0,"ele_end":208.1,"class":"montee-moderee","label":"Montée modérée (4 à 7 %)","color":"#eab308"}},{"type":"Feature","geometry":{"type":"LineString","coordinates":[[3.80404,43.79112],[3.80417,43.791],[3.805,43.79049]]},"properties":{"slope_pct":7.0,"start_km":38.205,"end_km":38.309,"ele_start":208.1,"ele_end":215.5,"class":"montee-soutenue","label":"Montée soutenue (7 à 10 %)","color":"#f97316"}},{"type":"Feature","geometry":{"type":"LineString","coordinates":[[3.805,43.79049],[3.80547,43.79013],[3.80555,43.78997],[3.80552,43.78981],[3.80543,43.7897]]},"properties":{"slope_pct":6.1,"start_km":38.309,"end_km":38.416,"ele_start":215.5,"ele_end":222.0,"class":"montee-moderee","label":"Montée modérée (4 à 7 %)","color":"#eab308"}},{"type":"Feature","geometry":{"type":"LineString","coordinates":[[3.80543,43.7897],[3.80462,43.78909],[3.80407,43.78852]]},"properties":{"slope_pct":1.3,"start_km":38.416,"end_km":38.587,"ele_start":222.0,"ele_end":224.2,"class":"plat","label":"Plat (−2 à 2 %)","color":"#94a3b8"}},{"type":"Feature","geometry":{"type":"LineString","coordinates":[[3.80407,43.78852],[3.804,43.78836],[3.80401,43.78829],[3.80409,43.78822],[3.80421,43.78821],[3.80467,43.78835],[3.80502,43.78854]]},"properties":{"slope_pct":3.2,"start_km":38.587,"end_km":38.708,"ele_start":224.2,"ele_end":228.1,"class":"montee-faible","label":"Montée faible (2 à 4 %)","color":"#22c55e"}},{"type":"Feature","geometry":{"type":"LineString","coordinates":[[3.80502,43.78854],[3.80518,43.78866],[3.80535,43.7888],[3.80573,43.78919],[3.80582,43.78924]]},"properties":{"slope_pct":4.1,"start_km":38.708,"end_km":38.81,"ele_start":228.1,"ele_end":232.2,"class":"montee-moderee","label":"Montée modérée (4 à 7 %)","color":"#eab308"}},{"type":"Feature","geometry":{"type":"LineString","coordinates":[[3.80582,43.78924],[3.8059,43.78926],[3.80599,43.78925],[3.80602,43.78921],[3.80601,43.78913],[3.80585,43.78892],[3.80575,43.78869],[3.80575,43.78858],[3.80586,43.78831]]},"properties":{"slope_pct":2.7,"start_km":38.81,"end_km":38.935,"ele_start":232.2,"ele_end":235.6,"class":"montee-faible","label":"Montée faible (2 à 4 %)","color":"#22c55e"}},{"type":"Feature","geometry":{"type":"LineString","coordinates":[[3.80586,43.78831],[3.80599,43.78808],[3.80605,43.78806],[3.80615,43.78807],[3.80625,43.78814],[3.80634,43.78825],[3.80659,43.78866]]},"properties":{"slope_pct":2.0,"start_km":38.935,"end_km":39.05,"ele_start":235.6,"ele_end":237.9,"class":"plat","label":"Plat (−2 à 2 %)","color":"#94a3b8"}},{"type":"Feature","geometry":{"type":"LineString","coordinates":[[3.80659,43.78866],[3.80674,43.78877],[3.80681,43.7888],[3.80724,43.78893],[3.80772,43.78914],[3.8079,43.78928],[3.80865,43.79007],[3.80912,43.7903],[3.80934,43.79038],[3.80958,43.79044],[3.81183,43.79084],[3.81278,43.79098],[3.81727,43.7911]]},"properties":{"slope_pct":-3.9,"start_km":39.05,"end_km":39.995,"ele_start":237.9,"ele_end":201.1,"class":"descente","label":"Descente (−6 à −2 %)","color":"#60a5fa"}},{"type":"Feature","geometry":{"type":"LineString","coordinates":[[3.81727,43.7911],[3.81868,43.79104],[3.821,43.79094],[3.82154,43.7909],[3.82261,43.79069],[3.8228,43.79065],[3.82438,43.79033],[3.82642,43.78995],[3.82685,43.78983],[3.82762,43.78954],[3.8279,43.78944],[3.82902,43.78902]]},"properties":{"slope_pct":-3.2,"start_km":39.995,"end_km":40.977,"ele_start":201.1,"ele_end":170.0,"class":"descente","label":"Descente (−6 à −2 %)","color":"#60a5fa"}},{"type":"Feature","geometry":{"type":"LineString","coordinates":[[3.82902,43.78902],[3.82927,43.78894],[3.82931,43.78892],[3.82971,43.78877],[3.83016,43.78861],[3.83087,43.78846],[3.83214,43.78824],[3.83314,43.78821],[3.83354,43.78816],[3.83424,43.78802],[3.83511,43.78786],[3.83553,43.78786],[3.83607,43.78793],[3.84038,43.78867]]},"properties":{"slope_pct":-3.2,"start_km":40.977,"end_km":41.92,"ele_start":170.0,"ele_end":139.6,"class":"descente","label":"Descente (−6 à −2 %)","color":"#60a5fa"}},{"type":"Feature","geometry":{"type":"LineString","coordinates":[[3.84038,43.78867],[3.84047,43.78869],[3.84057,43.78871],[3.84064,43.78872],[3.84321,43.78916],[3.84396,43.78936],[3.84615,43.78992]]},"properties":{"slope_pct":-2.8,"start_km":41.92,"end_km":42.404,"ele_start":139.6,"ele_end":126.2,"class":"descente","label":"Descente (−6 à −2 %)","color":"#60a5fa"}},{"type":"Feature","geometry":{"type":"LineString","coordinates":[[3.84615,43.78992],[3.84662,43.79005],[3.84673,43.79007],[3.84721,43.79019],[3.84952,43.79081],[3.84964,43.79084],[3.84985,43.7909],[3.85031,43.79098],[3.85056,43.79098],[3.85113,43.79095],[3.8547,43.79064],[3.85475,43.79064],[3.85523,43.79056],[3.85575,43.79038],[3.85613,43.79017],[3.85639,43.78996],[3.8566,43.78972],[3.85679,43.78938]]},"properties":{"slope_pct":-0.7,"start_km":42.404,"end_km":43.345,"ele_start":126.2,"ele_end":119.9,"class":"plat","label":"Plat (−2 à 2 %)","color":"#94a3b8"}},{"type":"Feature","geometry":{"type":"LineString","coordinates":[[3.85679,43.78938],[3.8569,43.78905],[3.85701,43.78852],[3.85709,43.78824],[3.8573,43.78736],[3.85744,43.78678],[3.85804,43.78425],[3.85807,43.78393],[3.85801,43.78365],[3.85798,43.78349],[3.85755,43.78142]]},"properties":{"slope_pct":-0.4,"start_km":43.345,"end_km":44.242,"ele_start":119.9,"ele_end":116.8,"class":"plat","label":"Plat (−2 à 2 %)","color":"#94a3b8"}},{"type":"Feature","geometry":{"type":"LineString","coordinates":[[3.85755,43.78142],[3.85739,43.78099],[3.85672,43.77952]]},"properties":{"slope_pct":-2.6,"start_km":44.242,"end_km":44.463,"ele_start":116.8,"ele_end":111.1,"class":"descente","label":"Descente (−6 à −2 %)","color":"#60a5fa"}},{"type":"Feature","geometry":{"type":"LineString","coordinates":[[3.85672,43.77952],[3.85672,43.77925],[3.85677,43.77913],[3.85688,43.77899],[3.85715,43.77874],[3.85723,43.77867],[3.8581,43.77787],[3.85829,43.77773],[3.85846,43.77765],[3.86144,43.77674]]},"properties":{"slope_pct":-1.0,"start_km":44.463,"end_km":44.982,"ele_start":111.1,"ele_end":106.0,"class":"plat","label":"Plat (−2 à 2 %)","color":"#94a3b8"}},{"type":"Feature","geometry":{"type":"LineString","coordinates":[[3.86144,43.77674],[3.86264,43.77636]]},"properties":{"slope_pct":-2.2,"start_km":44.982,"end_km":45.087,"ele_start":106.0,"ele_end":103.6,"class":"descente","label":"Descente (−6 à −2 %)","color":"#60a5fa"}},{"type":"Feature","geometry":{"type":"LineString","coordinates":[[3.86264,43.77636],[3.86268,43.77635],[3.86385,43.776],[3.86405,43.77594],[3.86465,43.77575],[3.86467,43.77567],[3.86543,43.77482],[3.86558,43.77465],[3.8659,43.77418],[3.86605,43.774],[3.86779,43.77253],[3.86817,43.77212],[3.86836,43.77177],[3.86849,43.77163],[3.86875,43.77151],[3.86857,43.77101],[3.86843,43.77066],[3.86828,43.77026],[3.86824,43.77014],[3.86817,43.76995],[3.86813,43.76985],[3.8678,43.76985]]},"properties":{"slope_pct":-0.3,"start_km":45.087,"end_km":46.061,"ele_start":103.6,"ele_end":100.4,"class":"plat","label":"Plat (−2 à 2 %)","color":"#94a3b8"}},{"type":"Feature","geometry":{"type":"LineString","coordinates":[[3.8678,43.76985],[3.86718,43.76979],[3.86688,43.76974],[3.86624,43.76966],[3.86561,43.76959],[3.86556,43.76958],[3.86542,43.76959],[3.86539,43.76965],[3.8653,43.76966],[3.86525,43.76964],[3.86523,43.76959],[3.86527,43.76954],[3.86518,43.76943]]},"properties":{"slope_pct":2.6,"start_km":46.061,"end_km":46.299,"ele_start":100.4,"ele_end":106.6,"class":"montee-faible","label":"Montée faible (2 à 4 %)","color":"#22c55e"}},{"type":"Feature","geometry":{"type":"LineString","coordinates":[[3.86518,43.76943],[3.86513,43.76933],[3.86513,43.76923],[3.86524,43.769],[3.86445,43.76826],[3.86437,43.76819],[3.86415,43.768],[3.86408,43.76792],[3.86406,43.76783],[3.86409,43.76763],[3.86398,43.76742]]},"properties":{"slope_pct":-0.9,"start_km":46.299,"end_km":46.559,"ele_start":106.6,"ele_end":104.3,"class":"plat","label":"Plat (−2 à 2 %)","color":"#94a3b8"}},{"type":"Feature","geometry":{"type":"LineString","coordinates":[[3.86398,43.76742],[3.86359,43.76682],[3.86348,43.76663],[3.8633,43.76619]]},"properties":{"slope_pct":-2.7,"start_km":46.559,"end_km":46.706,"ele_start":104.3,"ele_end":100.3,"class":"descente","label":"Descente (−6 à −2 %)","color":"#60a5fa"}},{"type":"Feature","geometry":{"type":"LineString","coordinates":[[3.8633,43.76619],[3.86291,43.76624],[3.86275,43.76627],[3.86268,43.76628],[3.86248,43.76631],[3.86193,43.76651],[3.86174,43.7666],[3.86145,43.76673],[3.86136,43.76676],[3.86038,43.7674],[3.86021,43.76746],[3.86017,43.76747],[3.85984,43.76754],[3.85962,43.76759],[3.85938,43.76764],[3.85934,43.7676],[3.85811,43.76649]]},"properties":{"slope_pct":-0.8,"start_km":46.706,"end_km":47.23,"ele_start":100.3,"ele_end":96.4,"class":"plat","label":"Plat (−2 à 2 %)","color":"#94a3b8"}},{"type":"Feature","geometry":{"type":"LineString","coordinates":[[3.85811,43.76649],[3.85799,43.76642],[3.85806,43.76624],[3.85821,43.76603],[3.85696,43.76454]]},"properties":{"slope_pct":-2.0,"start_km":47.23,"end_km":47.484,"ele_start":96.4,"ele_end":91.2,"class":"descente","label":"Descente (−6 à −2 %)","color":"#60a5fa"}},{"type":"Feature","geometry":{"type":"LineString","coordinates":[[3.85696,43.76454],[3.85554,43.76306],[3.854,43.76132],[3.85366,43.76111],[3.85312,43.76081],[3.8531,43.7608],[3.85284,43.7606],[3.8526,43.7603],[3.85208,43.75954]]},"properties":{"slope_pct":0.2,"start_km":47.484,"end_km":48.169,"ele_start":91.2,"ele_end":92.6,"class":"plat","label":"Plat (−2 à 2 %)","color":"#94a3b8"}},{"type":"Feature","geometry":{"type":"LineString","coordinates":[[3.85208,43.75954],[3.8516,43.75882],[3.85106,43.75803],[3.85086,43.75772],[3.8506,43.75736],[3.85048,43.75726],[3.85019,43.7571]]},"properties":{"slope_pct":2.7,"start_km":48.169,"end_km":48.484,"ele_start":92.6,"ele_end":101.1,"class":"montee-faible","label":"Montée faible (2 à 4 %)","color":"#22c55e"}},{"type":"Feature","geometry":{"type":"LineString","coordinates":[[3.85019,43.7571],[3.84884,43.75646],[3.84766,43.75599],[3.84614,43.75544],[3.84603,43.75539],[3.84591,43.75532],[3.84564,43.75507],[3.84453,43.75386],[3.84395,43.7533],[3.84418,43.75317],[3.84435,43.75304],[3.84419,43.75263],[3.84434,43.75239],[3.84437,43.75234],[3.84435,43.75221],[3.84411,43.75166],[3.84407,43.75153],[3.84419,43.75132]]},"properties":{"slope_pct":-1.1,"start_km":48.484,"end_km":49.399,"ele_start":101.1,"ele_end":90.6,"class":"plat","label":"Plat (−2 à 2 %)","color":"#94a3b8"}},{"type":"Feature","geometry":{"type":"LineString","coordinates":[[3.84419,43.75132],[3.84419,43.7513],[3.84421,43.75113],[3.84418,43.75091],[3.84402,43.75049],[3.84403,43.75023],[3.84397,43.75009],[3.84389,43.74999],[3.84361,43.74896],[3.84358,43.74862],[3.84365,43.74774],[3.84361,43.74767],[3.84348,43.74763],[3.84332,43.74766],[3.84361,43.74742],[3.84374,43.74728],[3.84375,43.74718],[3.84378,43.74697],[3.84383,43.74686],[3.84444,43.74507],[3.84475,43.74466],[3.84494,43.74447],[3.84504,43.74439],[3.84596,43.74399]]},"properties":{"slope_pct":-0.4,"start_km":49.399,"end_km":50.319,"ele_start":90.6,"ele_end":86.8,"class":"plat","label":"Plat (−2 à 2 %)","color":"#94a3b8"}},{"type":"Feature","geometry":{"type":"LineString","coordinates":[[3.84596,43.74399],[3.84616,43.74386],[3.8465,43.74349],[3.84669,43.74334],[3.8471,43.74312]]},"properties":{"slope_pct":-2.1,"start_km":50.319,"end_km":50.454,"ele_start":86.8,"ele_end":84.0,"class":"descente","label":"Descente (−6 à −2 %)","color":"#60a5fa"}},{"type":"Feature","geometry":{"type":"LineString","coordinates":[[3.8471,43.74312],[3.84738,43.74301],[3.84755,43.74289],[3.84778,43.74268],[3.84805,43.74249],[3.84809,43.74243],[3.84809,43.74233],[3.84804,43.74226],[3.84758,43.74191],[3.8475,43.74154],[3.84727,43.74104],[3.84727,43.74096],[3.84734,43.74083],[3.84656,43.7406],[3.84757,43.73844],[3.84789,43.73747],[3.84802,43.73722],[3.84823,43.73712],[3.84845,43.73708],[3.84816,43.73662]]},"properties":{"slope_pct":-0.3,"start_km":50.454,"end_km":51.321,"ele_start":84.0,"ele_end":81.2,"class":"plat","label":"Plat (−2 à 2 %)","color":"#94a3b8"}},{"type":"Feature","geometry":{"type":"LineString","coordinates":[[3.84816,43.73662],[3.84807,43.73647],[3.84794,43.73625],[3.84714,43.73498],[3.84694,43.73451],[3.84697,43.73437],[3.8471,43.73421],[3.84748,43.73379],[3.84773,43.7336],[3.84795,43.73344],[3.8482,43.73331],[3.84886,43.7331]]},"properties":{"slope_pct":-0.4,"start_km":51.321,"end_km":51.805,"ele_start":81.2,"ele_end":79.0,"class":"plat","label":"Plat (−2 à 2 %)","color":"#94a3b8"}},{"type":"Feature","geometry":{"type":"LineString","coordinates":[[3.84886,43.7331],[3.84919,43.73291],[3.84969,43.73274],[3.84996,43.7326]]},"properties":{"slope_pct":-2.1,"start_km":51.805,"end_km":51.91,"ele_start":79.0,"ele_end":76.8,"class":"descente","label":"Descente (−6 à −2 %)","color":"#60a5fa"}},{"type":"Feature","geometry":{"type":"LineString","coordinates":[[3.84996,43.7326],[3.85007,43.73259],[3.85019,43.73261],[3.8506,43.73292],[3.85073,43.73296],[3.85139,43.73293]]},"properties":{"slope_pct":-1.3,"start_km":51.91,"end_km":52.041,"ele_start":76.8,"ele_end":75.1,"class":"plat","label":"Plat (−2 à 2 %)","color":"#94a3b8"}},{"type":"Feature","geometry":{"type":"LineString","coordinates":[[3.85139,43.73293],[3.8515,43.7328],[3.85151,43.73275],[3.85145,43.73239],[3.85148,43.73221],[3.85155,43.73206]]},"properties":{"slope_pct":2.0,"start_km":52.041,"end_km":52.142,"ele_start":75.1,"ele_end":77.2,"class":"montee-faible","label":"Montée faible (2 à 4 %)","color":"#22c55e"}},{"type":"Feature","geometry":{"type":"LineString","coordinates":[[3.85155,43.73206],[3.85175,43.73183],[3.85196,43.73179],[3.85258,43.73183],[3.85311,43.73171],[3.85322,43.73164],[3.8533,43.73154],[3.85329,43.73145],[3.85307,43.73112],[3.85304,43.73091],[3.85307,43.73065],[3.85329,43.7301],[3.85362,43.72928]]},"properties":{"slope_pct":5.2,"start_km":52.142,"end_km":52.57,"ele_start":77.2,"ele_end":99.5,"class":"montee-moderee","label":"Montée modérée (4 à 7 %)","color":"#eab308"}},{"type":"Feature","geometry":{"type":"LineString","coordinates":[[3.85362,43.72928],[3.85372,43.72864],[3.85407,43.72822]]},"properties":{"slope_pct":3.6,"start_km":52.57,"end_km":52.697,"ele_start":99.5,"ele_end":104.0,"class":"montee-faible","label":"Montée faible (2 à 4 %)","color":"#22c55e"}},{"type":"Feature","geometry":{"type":"LineString","coordinates":[[3.85407,43.72822],[3.85412,43.72807],[3.85387,43.72803],[3.85284,43.72769],[3.85269,43.72759],[3.85263,43.72747],[3.85265,43.72734],[3.85278,43.72686],[3.85295,43.72637],[3.8529,43.72623],[3.85293,43.72615],[3.85309,43.72574],[3.85316,43.72569],[3.85372,43.7255]]},"properties":{"slope_pct":0.9,"start_km":52.697,"end_km":53.111,"ele_start":104.0,"ele_end":108.0,"class":"plat","label":"Plat (−2 à 2 %)","color":"#94a3b8"}},{"type":"Feature","geometry":{"type":"LineString","coordinates":[[3.85372,43.7255],[3.85423,43.72524],[3.85569,43.72429],[3.85616,43.72401],[3.85637,43.72383],[3.85647,43.72372],[3.8568,43.72335],[3.85713,43.72284],[3.8572,43.72263],[3.85716,43.72244],[3.85716,43.7223],[3.85726,43.7221],[3.85745,43.72192],[3.85783,43.72158],[3.85805,43.72133],[3.85836,43.71982]]},"properties":{"slope_pct":-3.6,"start_km":53.111,"end_km":53.882,"ele_start":108.0,"ele_end":80.2,"class":"descente","label":"Descente (−6 à −2 %)","color":"#60a5fa"}},{"type":"Feature","geometry":{"type":"LineString","coordinates":[[3.85836,43.71982],[3.85838,43.71968],[3.85836,43.71959],[3.85865,43.71892],[3.85888,43.71853],[3.85922,43.71797],[3.85958,43.71732],[3.85958,43.71728],[3.85957,43.71718],[3.85986,43.71682],[3.8599,43.71678],[3.86023,43.71647],[3.86038,43.71627],[3.86046,43.71591]]},"properties":{"slope_pct":-0.4,"start_km":53.882,"end_km":54.356,"ele_start":80.2,"ele_end":78.2,"class":"plat","label":"Plat (−2 à 2 %)","color":"#94a3b8"}},{"type":"Feature","geometry":{"type":"LineString","coordinates":[[3.86046,43.71591],[3.8605,43.71575],[3.8606,43.71535],[3.86071,43.71485]]},"properties":{"slope_pct":-2.6,"start_km":54.356,"end_km":54.475,"ele_start":78.2,"ele_end":75.2,"class":"descente","label":"Descente (−6 à −2 %)","color":"#60a5fa"}},{"type":"Feature","geometry":{"type":"LineString","coordinates":[[3.86071,43.71485],[3.86078,43.71457],[3.86082,43.71443],[3.86083,43.71439],[3.86109,43.71355],[3.86112,43.71352],[3.86116,43.71326],[3.86144,43.71209],[3.86146,43.7118],[3.86155,43.71056],[3.86146,43.70955],[3.86138,43.70884],[3.86126,43.70842],[3.86111,43.70786],[3.86107,43.70723]]},"properties":{"slope_pct":-0.8,"start_km":54.475,"end_km":55.331,"ele_start":75.2,"ele_end":68.0,"class":"plat","label":"Plat (−2 à 2 %)","color":"#94a3b8"}},{"type":"Feature","geometry":{"type":"LineString","coordinates":[[3.86107,43.70723],[3.86104,43.7068],[3.86099,43.70645],[3.86076,43.70585]]},"properties":{"slope_pct":-2.5,"start_km":55.331,"end_km":55.487,"ele_start":68.0,"ele_end":64.2,"class":"descente","label":"Descente (−6 à −2 %)","color":"#60a5fa"}},{"type":"Feature","geometry":{"type":"LineString","coordinates":[[3.86076,43.70585],[3.86069,43.70577],[3.86019,43.7053],[3.85968,43.70487],[3.85885,43.70414],[3.85881,43.70412],[3.85736,43.70374],[3.85726,43.70371],[3.85721,43.70369],[3.85712,43.70364],[3.85704,43.70354],[3.85702,43.70349],[3.85699,43.70342],[3.85667,43.70261],[3.85631,43.7017],[3.8563,43.70166],[3.85628,43.70161],[3.85643,43.70157],[3.85676,43.70157],[3.85679,43.70157],[3.85698,43.70154],[3.85749,43.70146],[3.85886,43.70123]]},"properties":{"slope_pct":-0.5,"start_km":55.487,"end_km":56.331,"ele_start":64.2,"ele_end":60.4,"class":"plat","label":"Plat (−2 à 2 %)","color":"#94a3b8"}},{"type":"Feature","geometry":{"type":"LineString","coordinates":[[3.85886,43.70123],[3.85904,43.7012],[3.86095,43.70088],[3.86221,43.70066],[3.86223,43.7007],[3.86234,43.70065],[3.86237,43.70062],[3.8624,43.70061],[3.86245,43.70051],[3.86248,43.7004],[3.86247,43.70031],[3.86236,43.69961],[3.86232,43.69931],[3.86235,43.69906],[3.86261,43.69857],[3.86276,43.69834],[3.86295,43.69801],[3.863,43.69781],[3.86295,43.69755],[3.86293,43.69743],[3.86291,43.69733],[3.86274,43.69635],[3.86267,43.69592],[3.86261,43.69556],[3.86253,43.69512]]},"properties":{"slope_pct":0.4,"start_km":56.331,"end_km":57.254,"ele_start":60.4,"ele_end":63.6,"class":"plat","label":"Plat (−2 à 2 %)","color":"#94a3b8"}},{"type":"Feature","geometry":{"type":"LineString","coordinates":[[3.86253,43.69512],[3.8625,43.69467],[3.8625,43.69438],[3.8625,43.69431],[3.86249,43.69425],[3.86249,43.69411],[3.86248,43.69404],[3.86237,43.69395],[3.86232,43.69389],[3.8623,43.69377],[3.86233,43.69362],[3.86238,43.6936],[3.86245,43.69296],[3.86271,43.69197],[3.86271,43.69156],[3.86271,43.69145],[3.86265,43.69045],[3.86266,43.6897],[3.86277,43.68912],[3.86297,43.68847],[3.86366,43.68667]]},"properties":{"slope_pct":-0.6,"start_km":57.254,"end_km":58.213,"ele_start":63.6,"ele_end":57.5,"class":"plat","label":"Plat (−2 à 2 %)","color":"#94a3b8"}},{"type":"Feature","geometry":{"type":"LineString","coordinates":[[3.86366,43.68667],[3.86369,43.68657],[3.86371,43.68651],[3.86379,43.68625],[3.86385,43.68576],[3.86385,43.68559],[3.86374,43.6852],[3.86352,43.68438],[3.86345,43.68423],[3.8635,43.68422],[3.86358,43.68422],[3.86363,43.68422],[3.86358,43.68387],[3.86367,43.68369],[3.86368,43.68358],[3.86429,43.68308],[3.86453,43.68274],[3.86528,43.68194],[3.86551,43.68106],[3.86561,43.68081],[3.86592,43.68028],[3.86666,43.67897]]},"properties":{"slope_pct":-0.2,"start_km":58.213,"end_km":59.15,"ele_start":57.5,"ele_end":55.4,"class":"plat","label":"Plat (−2 à 2 %)","color":"#94a3b8"}},{"type":"Feature","geometry":{"type":"LineString","coordinates":[[3.86666,43.67897],[3.86727,43.67778],[3.86731,43.67764],[3.86731,43.67738],[3.8673,43.67728],[3.86738,43.67715],[3.86742,43.67712],[3.86748,43.6771],[3.86758,43.67705],[3.86764,43.67702],[3.86765,43.67692],[3.8678,43.67685],[3.8678,43.6768],[3.86781,43.67667],[3.86781,43.67663],[3.86767,43.67654],[3.86761,43.67645],[3.86762,43.6764],[3.86759,43.67637],[3.86751,43.67632],[3.86735,43.6763],[3.86727,43.67626],[3.8672,43.67608],[3.86717,43.67586],[3.86718,43.67564],[3.86726,43.67541],[3.86729,43.67538],[3.86736,43.67521],[3.8673,43.67519],[3.86738,43.67502],[3.86761,43.67448],[3.86766,43.67435],[3.86768,43.67415],[3.86763,43.67378],[3.86756,43.67357],[3.8675,43.67349],[3.86745,43.67344],[3.86746,43.67335],[3.86752,43.67332],[3.86756,43.67325],[3.86751,43.67325],[3.86773,43.67211]]},"properties":{"slope_pct":-0.3,"start_km":59.15,"end_km":59.989,"ele_start":55.4,"ele_end":52.7,"class":"plat","label":"Plat (−2 à 2 %)","color":"#94a3b8"}},{"type":"Feature","geometry":{"type":"LineString","coordinates":[[3.86773,43.67211],[3.86829,43.66975],[3.86836,43.66918],[3.86831,43.66879],[3.86824,43.6686],[3.86806,43.66826],[3.86781,43.66795],[3.86748,43.66764],[3.86679,43.66711],[3.86652,43.66686],[3.8663,43.66658],[3.86612,43.66639],[3.86602,43.66621],[3.86594,43.66586],[3.86592,43.6656],[3.86596,43.66504],[3.86604,43.6647],[3.86601,43.66454],[3.86585,43.66428],[3.86577,43.66378]]},"properties":{"slope_pct":-0.1,"start_km":59.989,"end_km":60.983,"ele_start":52.7,"ele_end":51.4,"class":"plat","label":"Plat (−2 à 2 %)","color":"#94a3b8"}},{"type":"Feature","geometry":{"type":"LineString","coordinates":[[3.86577,43.66378],[3.86569,43.66349],[3.8653,43.66281]]},"properties":{"slope_pct":-2.6,"start_km":60.983,"end_km":61.098,"ele_start":51.4,"ele_end":48.4,"class":"descente","label":"Descente (−6 à −2 %)","color":"#60a5fa"}},{"type":"Feature","geometry":{"type":"LineString","coordinates":[[3.8653,43.66281],[3.86519,43.66254],[3.86519,43.66238],[3.86574,43.66082],[3.86602,43.66049],[3.86626,43.66036],[3.86641,43.6603],[3.86653,43.66021],[3.86678,43.65989],[3.8677,43.65912],[3.86878,43.65821],[3.87008,43.6568],[3.87014,43.65682],[3.87066,43.65625],[3.87075,43.65616],[3.871,43.65593]]},"properties":{"slope_pct":-0.6,"start_km":61.098,"end_km":62.023,"ele_start":48.4,"ele_end":42.6,"class":"plat","label":"Plat (−2 à 2 %)","color":"#94a3b8"}},{"type":"Feature","geometry":{"type":"LineString","coordinates":[[3.871,43.65593],[3.87146,43.65561],[3.87164,43.65552],[3.87168,43.6555],[3.87202,43.65532]]},"properties":{"slope_pct":1.9,"start_km":62.023,"end_km":62.131,"ele_start":42.6,"ele_end":44.6,"class":"plat","label":"Plat (−2 à 2 %)","color":"#94a3b8"}},{"type":"Feature","geometry":{"type":"LineString","coordinates":[[3.87202,43.65532],[3.87228,43.65522],[3.87261,43.65512],[3.8732,43.65496]]},"properties":{"slope_pct":3.3,"start_km":62.131,"end_km":62.233,"ele_start":44.6,"ele_end":48.0,"class":"montee-faible","label":"Montée faible (2 à 4 %)","color":"#22c55e"}},{"type":"Feature","geometry":{"type":"LineString","coordinates":[[3.8732,43.65496],[3.87359,43.65481],[3.87362,43.65487],[3.87366,43.65491],[3.87382,43.655],[3.87392,43.65501],[3.87411,43.65499],[3.87424,43.65494],[3.87448,43.65497],[3.87531,43.65499],[3.87647,43.65497],[3.87829,43.65492],[3.87867,43.65489],[3.87877,43.65494],[3.87928,43.65509],[3.8795,43.65515],[3.87983,43.65523],[3.88043,43.65539],[3.88053,43.65542],[3.88068,43.65546],[3.88087,43.65538],[3.88096,43.65533],[3.88098,43.65526],[3.88095,43.65525],[3.8809,43.65523]]},"properties":{"slope_pct":0.6,"start_km":62.233,"end_km":62.906,"ele_start":48.0,"ele_end":52.3,"class":"plat","label":"Plat (−2 à 2 %)","color":"#94a3b8"}}]}
